{
"type": "FeatureCollection",
"name": "review_very_close_2m",
"crs": { "type": "name", "properties": { "name": "urn:ogc:def:crs:OGC:1.3:CRS84" } },
"features": [
{ "type": "Feature", "properties": { "review_id": "04bc2b52-9fae-4a3d-90a6-24e235323ce3", "run_id": "e60088e9-cf94-4e41-ae65-a5390866b4b8", "source_layer": "infra.huilerie", "source_id": "208", "source_name": "Cooperative Almoumnia Essatia", "source_type": "HUILERIE", "master_site_id_candidate": "b065bd4d-cc7f-450d-8b10-a8947e19b6d2", "master_site_name": "Cooperative Almoumnia Essatia", "master_site_type": "infra.huilerie_inventaire_pollution", "distance_m": "0.04", "score": "0.740", "review_bucket": "VERY_CLOSE_2M", "review_action_default": "NEED_REVIEW", "suggested_decision": "NEED_REVIEW", "business_decision": "", "comments": "", "qa_color": "#f59e0b", "qa_icon": "alert", "WKT": "POINT(503285 440444)" }, "geometry": { "type": "Point", "coordinates": [ -5.362583852470773, 34.563898485035878 ] } },
{ "type": "Feature", "properties": { "review_id": "7bb2c1ad-6dd2-4a99-a975-4cb952939f6c", "run_id": "e60088e9-cf94-4e41-ae65-a5390866b4b8", "source_layer": "infra.huilerie", "source_id": "227", "source_name": "Zoyout Chefchaouen", "source_type": "HUILERIE", "master_site_id_candidate": "fbfcfcbb-a262-4edf-aa1d-2faecddf1581", "master_site_name": "Zoyout Chefchaouen", "master_site_type": "infra.huilerie_inventaire_pollution", "distance_m": "0.06", "score": "0.740", "review_bucket": "VERY_CLOSE_2M", "review_action_default": "NEED_REVIEW", "suggested_decision": "NEED_REVIEW", "business_decision": "", "comments": "", "qa_color": "#f59e0b", "qa_icon": "alert", "WKT": "POINT(504605 480731)" }, "geometry": { "type": "Point", "coordinates": [ -5.347979150242361, 34.927065846823488 ] } },
{ "type": "Feature", "properties": { "review_id": "b4335a1d-a5e3-40cb-908b-95a008256c8f", "run_id": "e60088e9-cf94-4e41-ae65-a5390866b4b8", "source_layer": "infra.huilerie", "source_id": "549", "source_name": "H,OUERYAGHLI ADNAN", "source_type": "HUILERIE", "master_site_id_candidate": "6ec91ed0-6f67-44c8-a99b-cdc4f9df2806", "master_site_name": "H,OUERYAGHLI ADNAN", "master_site_type": "infra.huilerie_inventaire_pollution", "distance_m": "0.06", "score": "0.740", "review_bucket": "VERY_CLOSE_2M", "review_action_default": "NEED_REVIEW", "suggested_decision": "NEED_REVIEW", "business_decision": "", "comments": "", "qa_color": "#f59e0b", "qa_icon": "alert", "WKT": "POINT(488592 384219)" }, "geometry": { "type": "Point", "coordinates": [ -5.521994592160855, 34.056878928258264 ] } },
{ "type": "Feature", "properties": { "review_id": "acd8f58f-3aae-4814-9bad-b641694a6fb4", "run_id": "e60088e9-cf94-4e41-ae65-a5390866b4b8", "source_layer": "infra.huilerie", "source_id": "201", "source_name": "Ste Huillerie Dalila", "source_type": "HUILERIE", "master_site_id_candidate": "163544a2-145a-46bd-b391-e7a181fda013", "master_site_name": "Ste Huillerie Dalila", "master_site_type": "infra.huilerie_inventaire_pollution", "distance_m": "0.08", "score": "0.740", "review_bucket": "VERY_CLOSE_2M", "review_action_default": "NEED_REVIEW", "suggested_decision": "NEED_REVIEW", "business_decision": "", "comments": "", "qa_color": "#f59e0b", "qa_icon": "alert", "WKT": "POINT(518169 460880)" }, "geometry": { "type": "Point", "coordinates": [ -5.199948659824293, 34.747978721741184 ] } },
{ "type": "Feature", "properties": { "review_id": "4099fb59-8327-40ec-b28d-dfdc8d1efd69", "run_id": "e60088e9-cf94-4e41-ae65-a5390866b4b8", "source_layer": "infra.huilerie", "source_id": "31", "source_name": "Société Ouled Anajate", "source_type": "HUILERIE", "master_site_id_candidate": "8b72a167-17e9-4b5c-978d-2b7f21d6decf", "master_site_name": "Société Ouled Anajate", "master_site_type": "infra.huilerie_inventaire_pollution", "distance_m": "0.08", "score": "0.740", "review_bucket": "VERY_CLOSE_2M", "review_action_default": "NEED_REVIEW", "suggested_decision": "NEED_REVIEW", "business_decision": "", "comments": "", "qa_color": "#f59e0b", "qa_icon": "alert", "WKT": "POINT(515568 376239)" }, "geometry": { "type": "Point", "coordinates": [ -5.229862791377295, 33.984860018185259 ] } },
{ "type": "Feature", "properties": { "review_id": "770bbf34-d936-4c2f-b8c9-94e6e5b59564", "run_id": "e60088e9-cf94-4e41-ae65-a5390866b4b8", "source_layer": "infra.decharge", "source_id": "13", "source_name": "décharge guigou", "source_type": "DECHARGE", "master_site_id_candidate": "d2329708-0407-4b9c-9857-5e49e1880334", "master_site_name": "Décharge Guigou", "master_site_type": "infra.decharge_inventaire_pollution_general", "distance_m": "0.11", "score": "0.740", "review_bucket": "VERY_CLOSE_2M", "review_action_default": "NEED_REVIEW", "suggested_decision": "NEED_REVIEW", "business_decision": "", "comments": "", "qa_color": "#f59e0b", "qa_icon": "alert", "WKT": "POINT(554610.89 309314.01)" }, "geometry": { "type": "Point", "coordinates": [ -4.811293888003674, 33.379996580410271 ] } },
{ "type": "Feature", "properties": { "review_id": "e473b7af-5450-4f7d-aa40-fc5e650fa33f", "run_id": "e60088e9-cf94-4e41-ae65-a5390866b4b8", "source_layer": "infra.huilerie", "source_id": "513", "source_name": "H,YOUSSEF MKDAD", "source_type": "HUILERIE", "master_site_id_candidate": "5c292b4b-1a7f-4eef-b58f-de87a83a43d4", "master_site_name": "H,YOUSSEF MKDAD", "master_site_type": "infra.huilerie_inventaire_pollution", "distance_m": "0.12", "score": "0.740", "review_bucket": "VERY_CLOSE_2M", "review_action_default": "NEED_REVIEW", "suggested_decision": "NEED_REVIEW", "business_decision": "", "comments": "", "qa_color": "#f59e0b", "qa_icon": "alert", "WKT": "POINT(513814 375567)" }, "geometry": { "type": "Point", "coordinates": [ -5.248861363492799, 33.978824274802932 ] } },
{ "type": "Feature", "properties": { "review_id": "f8417848-d914-4f02-b92b-1cca062cb1e0", "run_id": "e60088e9-cf94-4e41-ae65-a5390866b4b8", "source_layer": "infra.huilerie", "source_id": "207", "source_name": "Huilerie Modèrene Ouannana", "source_type": "HUILERIE", "master_site_id_candidate": "86cb4918-ce01-4dc4-a0a9-09a88d676d02", "master_site_name": "Huilerie Modèrene Ouannana", "master_site_type": "infra.huilerie_inventaire_pollution", "distance_m": "0.14", "score": "0.740", "review_bucket": "VERY_CLOSE_2M", "review_action_default": "NEED_REVIEW", "suggested_decision": "NEED_REVIEW", "business_decision": "", "comments": "", "qa_color": "#f59e0b", "qa_icon": "alert", "WKT": "POINT(503586 450001)" }, "geometry": { "type": "Point", "coordinates": [ -5.35926279070743, 34.650057425718693 ] } },
{ "type": "Feature", "properties": { "review_id": "1d94de6b-10b3-45c9-923c-96b81808f26c", "run_id": "e60088e9-cf94-4e41-ae65-a5390866b4b8", "source_layer": "infra.huilerie", "source_id": "539", "source_name": "OLEA SAISS", "source_type": "HUILERIE", "master_site_id_candidate": "96a8eb10-c5a6-45ba-abb9-fb5ecb2d30c8", "master_site_name": "OLEA SAISS", "master_site_type": "infra.huilerie_inventaire_pollution", "distance_m": "0.14", "score": "0.740", "review_bucket": "VERY_CLOSE_2M", "review_action_default": "NEED_REVIEW", "suggested_decision": "NEED_REVIEW", "business_decision": "", "comments": "", "qa_color": "#f59e0b", "qa_icon": "alert", "WKT": "POINT(484750 375784)" }, "geometry": { "type": "Point", "coordinates": [ -5.563477747709872, 33.980765764337441 ] } },
{ "type": "Feature", "properties": { "review_id": "de917302-ac85-4700-8666-3190a1f29dd4", "run_id": "e60088e9-cf94-4e41-ae65-a5390866b4b8", "source_layer": "infra.huilerie", "source_id": "206", "source_name": "Lhaj Abdessalam", "source_type": "HUILERIE", "master_site_id_candidate": "6ffab696-7e78-43a4-9927-a28e29cae370", "master_site_name": "Lhaj Abdessalam", "master_site_type": "infra.huilerie_inventaire_pollution", "distance_m": "0.16", "score": "0.740", "review_bucket": "VERY_CLOSE_2M", "review_action_default": "NEED_REVIEW", "suggested_decision": "NEED_REVIEW", "business_decision": "", "comments": "", "qa_color": "#f59e0b", "qa_icon": "alert", "WKT": "POINT(504103 479981)" }, "geometry": { "type": "Point", "coordinates": [ -5.353476809694991, 34.920307765216499 ] } },
{ "type": "Feature", "properties": { "review_id": "e258ee17-ae4f-4544-81a7-87619006567d", "run_id": "e60088e9-cf94-4e41-ae65-a5390866b4b8", "source_layer": "infra.huilerie", "source_id": "118", "source_name": "H.MOULAY DRISS EL AZHAR", "source_type": "HUILERIE", "master_site_id_candidate": "a8f1aa7d-ab3f-4481-b88d-eecf17acb649", "master_site_name": "H.MOULAY DRISS EL AZHAR", "master_site_type": "infra.huilerie_inventaire_pollution", "distance_m": "0.17", "score": "0.740", "review_bucket": "VERY_CLOSE_2M", "review_action_default": "NEED_REVIEW", "suggested_decision": "NEED_REVIEW", "business_decision": "", "comments": "", "qa_color": "#f59e0b", "qa_icon": "alert", "WKT": "POINT(530057 391038)" }, "geometry": { "type": "Point", "coordinates": [ -5.072508992235914, 34.118002073099973 ] } },
{ "type": "Feature", "properties": { "review_id": "51018de5-685f-44bd-9fce-1049cdc3c103", "run_id": "e60088e9-cf94-4e41-ae65-a5390866b4b8", "source_layer": "infra.huilerie", "source_id": "212", "source_name": "El Ibrahimi", "source_type": "HUILERIE", "master_site_id_candidate": "7807374e-ce08-4659-9f48-f8df7e7af196", "master_site_name": "El Ibrahimi", "master_site_type": "infra.huilerie_inventaire_pollution", "distance_m": "0.17", "score": "0.740", "review_bucket": "VERY_CLOSE_2M", "review_action_default": "NEED_REVIEW", "suggested_decision": "NEED_REVIEW", "business_decision": "", "comments": "", "qa_color": "#f59e0b", "qa_icon": "alert", "WKT": "POINT(495486 452889)" }, "geometry": { "type": "Point", "coordinates": [ -5.447640529615173, 34.676090630976049 ] } },
{ "type": "Feature", "properties": { "review_id": "e62923a7-3d18-4ce0-94d1-c5ac4cf4a76c", "run_id": "e60088e9-cf94-4e41-ae65-a5390866b4b8", "source_layer": "infra.huilerie", "source_id": "437", "source_name": "H.HAJ MOHAMED", "source_type": "HUILERIE", "master_site_id_candidate": "dff1e7ea-b1da-467c-ad9a-bc1b29523b37", "master_site_name": "H.HAJ MOHAMED", "master_site_type": "infra.huilerie_inventaire_pollution", "distance_m": "0.17", "score": "0.740", "review_bucket": "VERY_CLOSE_2M", "review_action_default": "NEED_REVIEW", "suggested_decision": "NEED_REVIEW", "business_decision": "", "comments": "", "qa_color": "#f59e0b", "qa_icon": "alert", "WKT": "POINT(593842 356286)" }, "geometry": { "type": "Point", "coordinates": [ -4.384634534150669, 33.800909887360213 ] } },
{ "type": "Feature", "properties": { "review_id": "e43316d5-312f-4f92-a3dc-b760095e24d8", "run_id": "e60088e9-cf94-4e41-ae65-a5390866b4b8", "source_layer": "infra.huilerie", "source_id": "540", "source_name": "SOCIETE L'OLEASTRE", "source_type": "HUILERIE", "master_site_id_candidate": "43528815-00c1-48e7-934f-f290ae228672", "master_site_name": "SOCIETE L'OLEASTRE", "master_site_type": "infra.huilerie_inventaire_pollution", "distance_m": "0.18", "score": "0.740", "review_bucket": "VERY_CLOSE_2M", "review_action_default": "NEED_REVIEW", "suggested_decision": "NEED_REVIEW", "business_decision": "", "comments": "", "qa_color": "#f59e0b", "qa_icon": "alert", "WKT": "POINT(484968 377315)" }, "geometry": { "type": "Point", "coordinates": [ -5.561143472860132, 33.994575349154459 ] } },
{ "type": "Feature", "properties": { "review_id": "95c04cf2-6007-4ec3-934b-d85c6e61c2c5", "run_id": "e60088e9-cf94-4e41-ae65-a5390866b4b8", "source_layer": "infra.huilerie", "source_id": "601", "source_name": "Lkhaydar Ahmed", "source_type": "HUILERIE", "master_site_id_candidate": "977726c6-86a4-42c8-8aea-07c6b2b46225", "master_site_name": "Lkhaydar Ahmed", "master_site_type": "infra.huilerie_inventaire_pollution", "distance_m": "0.18", "score": "0.740", "review_bucket": "VERY_CLOSE_2M", "review_action_default": "NEED_REVIEW", "suggested_decision": "NEED_REVIEW", "business_decision": "", "comments": "", "qa_color": "#f59e0b", "qa_icon": "alert", "WKT": "POINT(502746 370070)" }, "geometry": { "type": "Point", "coordinates": [ -5.368688375013158, 33.929339059645265 ] } },
{ "type": "Feature", "properties": { "review_id": "010e12e3-2be8-4fce-a840-bdebd2ab18f0", "run_id": "e60088e9-cf94-4e41-ae65-a5390866b4b8", "source_layer": "infra.huilerie", "source_id": "221", "source_name": "Belhaj", "source_type": "HUILERIE", "master_site_id_candidate": "47d278c7-a72f-404e-922d-a8e653222cc9", "master_site_name": "Belhaj", "master_site_type": "infra.huilerie_inventaire_pollution", "distance_m": "0.19", "score": "0.740", "review_bucket": "VERY_CLOSE_2M", "review_action_default": "NEED_REVIEW", "suggested_decision": "NEED_REVIEW", "business_decision": "", "comments": "", "qa_color": "#f59e0b", "qa_icon": "alert", "WKT": "POINT(487184 460212)" }, "geometry": { "type": "Point", "coordinates": [ -5.538340699452431, 34.742039677056169 ] } },
{ "type": "Feature", "properties": { "review_id": "41bf78b4-65f4-4335-b094-b57964ea51f3", "run_id": "e60088e9-cf94-4e41-ae65-a5390866b4b8", "source_layer": "infra.huilerie", "source_id": "460", "source_name": "H. SFAR", "source_type": "HUILERIE", "master_site_id_candidate": "51fe363c-cf35-4d8a-92f5-7e185bc84e44", "master_site_name": "H. SFAR", "master_site_type": "infra.huilerie_inventaire_pollution", "distance_m": "0.20", "score": "0.740", "review_bucket": "VERY_CLOSE_2M", "review_action_default": "NEED_REVIEW", "suggested_decision": "NEED_REVIEW", "business_decision": "", "comments": "", "qa_color": "#f59e0b", "qa_icon": "alert", "WKT": "POINT(555889 358071)" }, "geometry": { "type": "Point", "coordinates": [ -4.794512161382946, 33.819665629921687 ] } },
{ "type": "Feature", "properties": { "review_id": "4b620565-afe8-4ea4-b900-0326c4357f16", "run_id": "e60088e9-cf94-4e41-ae65-a5390866b4b8", "source_layer": "infra.huilerie", "source_id": "447", "source_name": "H.MAMOUNIA", "source_type": "HUILERIE", "master_site_id_candidate": "fa9bbc64-700b-49b3-a59b-3de99c534bfc", "master_site_name": "H.MAMOUNIA", "master_site_type": "infra.huilerie_inventaire_pollution", "distance_m": "0.21", "score": "0.740", "review_bucket": "VERY_CLOSE_2M", "review_action_default": "NEED_REVIEW", "suggested_decision": "NEED_REVIEW", "business_decision": "", "comments": "", "qa_color": "#f59e0b", "qa_icon": "alert", "WKT": "POINT(533034 364324)" }, "geometry": { "type": "Point", "coordinates": [ -5.041227831918573, 33.877009585105434 ] } },
{ "type": "Feature", "properties": { "review_id": "77c14b27-8047-48bc-b5b3-73c8eee98745", "run_id": "e60088e9-cf94-4e41-ae65-a5390866b4b8", "source_layer": "infra.huilerie", "source_id": "219", "source_name": "Zoumi", "source_type": "HUILERIE", "master_site_id_candidate": "e7668cf1-2a4f-4ead-adc1-9c1cf1ac1fdd", "master_site_name": "Zoumi", "master_site_type": "infra.huilerie_inventaire_pollution", "distance_m": "0.22", "score": "0.740", "review_bucket": "VERY_CLOSE_2M", "review_action_default": "NEED_REVIEW", "suggested_decision": "NEED_REVIEW", "business_decision": "", "comments": "", "qa_color": "#f59e0b", "qa_icon": "alert", "WKT": "POINT(497840 460614)" }, "geometry": { "type": "Point", "coordinates": [ -5.421970550360339, 34.745737293083508 ] } },
{ "type": "Feature", "properties": { "review_id": "f7bdccee-5bc9-410c-80a3-da342f9d3c35", "run_id": "e60088e9-cf94-4e41-ae65-a5390866b4b8", "source_layer": "infra.huilerie", "source_id": "573", "source_name": "Ste SONEPRA", "source_type": "HUILERIE", "master_site_id_candidate": "3bbef397-dc02-4f96-b746-d176a93542f9", "master_site_name": "Ste SONEPRA", "master_site_type": "infra.huilerie_inventaire_pollution", "distance_m": "0.22", "score": "0.740", "review_bucket": "VERY_CLOSE_2M", "review_action_default": "NEED_REVIEW", "suggested_decision": "NEED_REVIEW", "business_decision": "", "comments": "", "qa_color": "#f59e0b", "qa_icon": "alert", "WKT": "POINT(497709 391336)" }, "geometry": { "type": "Point", "coordinates": [ -5.423233136965116, 34.121114614412193 ] } },
{ "type": "Feature", "properties": { "review_id": "eaa2067c-683b-4c53-ade3-b06e0e635c8e", "run_id": "e60088e9-cf94-4e41-ae65-a5390866b4b8", "source_layer": "infra.huilerie", "source_id": "464", "source_name": "OUAKILI ABDESSAMAD", "source_type": "HUILERIE", "master_site_id_candidate": "a1b39b5f-072e-4573-8ebd-88068c7e683b", "master_site_name": "OUAKILI ABDESSAMAD", "master_site_type": "infra.huilerie_inventaire_pollution", "distance_m": "0.23", "score": "0.740", "review_bucket": "VERY_CLOSE_2M", "review_action_default": "NEED_REVIEW", "suggested_decision": "NEED_REVIEW", "business_decision": "", "comments": "", "qa_color": "#f59e0b", "qa_icon": "alert", "WKT": "POINT(590545 363269)" }, "geometry": { "type": "Point", "coordinates": [ -4.419540782669433, 33.864167340934479 ] } },
{ "type": "Feature", "properties": { "review_id": "490a6da5-1959-4caf-a08e-3db01d690823", "run_id": "e60088e9-cf94-4e41-ae65-a5390866b4b8", "source_layer": "infra.huilerie", "source_id": "225", "source_name": "Ain Mandar", "source_type": "HUILERIE", "master_site_id_candidate": "a32a13ec-a661-4f4e-80b3-5d9da6289724", "master_site_name": "Ain Mandar", "master_site_type": "infra.huilerie_inventaire_pollution", "distance_m": "0.24", "score": "0.740", "review_bucket": "VERY_CLOSE_2M", "review_action_default": "NEED_REVIEW", "suggested_decision": "NEED_REVIEW", "business_decision": "", "comments": "", "qa_color": "#f59e0b", "qa_icon": "alert", "WKT": "POINT(506114 454644)" }, "geometry": { "type": "Point", "coordinates": [ -5.331651496025349, 34.691902361349591 ] } },
{ "type": "Feature", "properties": { "review_id": "dd22ee53-e8bd-4dd4-a341-bfbe65e2fa11", "run_id": "e60088e9-cf94-4e41-ae65-a5390866b4b8", "source_layer": "infra.huilerie", "source_id": "211", "source_name": "Sni Messara", "source_type": "HUILERIE", "master_site_id_candidate": "ffc2fed2-9c0c-4ed5-bad1-702f61dc6bbb", "master_site_name": "Sni Messara", "master_site_type": "infra.huilerie_inventaire_pollution", "distance_m": "0.25", "score": "0.740", "review_bucket": "VERY_CLOSE_2M", "review_action_default": "NEED_REVIEW", "suggested_decision": "NEED_REVIEW", "business_decision": "", "comments": "", "qa_color": "#f59e0b", "qa_icon": "alert", "WKT": "POINT(493380 452268)" }, "geometry": { "type": "Point", "coordinates": [ -5.470617357475066, 34.670481548226135 ] } },
{ "type": "Feature", "properties": { "review_id": "e2748999-c4e6-4a5b-b496-126e3d288e76", "run_id": "e60088e9-cf94-4e41-ae65-a5390866b4b8", "source_layer": "infra.huilerie", "source_id": "528", "source_name": "JAWHARAT ZOYOUT LEHGUI ", "source_type": "HUILERIE", "master_site_id_candidate": "9ddd198a-ad0b-4e12-a315-2ce5ae77d832", "master_site_name": "JAWHARAT ZOYOUT LEHGUI", "master_site_type": "infra.huilerie_inventaire_pollution", "distance_m": "0.25", "score": "0.740", "review_bucket": "VERY_CLOSE_2M", "review_action_default": "NEED_REVIEW", "suggested_decision": "NEED_REVIEW", "business_decision": "", "comments": "", "qa_color": "#f59e0b", "qa_icon": "alert", "WKT": "POINT(511694 374119)" }, "geometry": { "type": "Point", "coordinates": [ -5.271829221965946, 33.965791751782255 ] } },
{ "type": "Feature", "properties": { "review_id": "d3ee2bc2-53e9-4873-ad08-f2f1f63aaa57", "run_id": "e60088e9-cf94-4e41-ae65-a5390866b4b8", "source_layer": "infra.huilerie", "source_id": "603", "source_name": "Boungab Abdessalam", "source_type": "HUILERIE", "master_site_id_candidate": "f4f6daa9-c2fd-49ad-b6f4-e07102a8c8e5", "master_site_name": "Boungab Abdessalam", "master_site_type": "infra.huilerie_inventaire_pollution", "distance_m": "0.25", "score": "0.740", "review_bucket": "VERY_CLOSE_2M", "review_action_default": "NEED_REVIEW", "suggested_decision": "NEED_REVIEW", "business_decision": "", "comments": "", "qa_color": "#f59e0b", "qa_icon": "alert", "WKT": "POINT(502869 370088)" }, "geometry": { "type": "Point", "coordinates": [ -5.367357618483559, 33.929501046735112 ] } },
{ "type": "Feature", "properties": { "review_id": "4be280aa-8b8e-481b-b132-e8b642293f19", "run_id": "e60088e9-cf94-4e41-ae65-a5390866b4b8", "source_layer": "infra.huilerie", "source_id": "605", "source_name": "Huilerie Lalla Joumana", "source_type": "HUILERIE", "master_site_id_candidate": "b4e300b4-e545-4579-bd10-5ecc302cb9b1", "master_site_name": "Huilerie Lalla Joumana", "master_site_type": "infra.huilerie_inventaire_pollution", "distance_m": "0.25", "score": "0.740", "review_bucket": "VERY_CLOSE_2M", "review_action_default": "NEED_REVIEW", "suggested_decision": "NEED_REVIEW", "business_decision": "", "comments": "", "qa_color": "#f59e0b", "qa_icon": "alert", "WKT": "POINT(495693 371124)" }, "geometry": { "type": "Point", "coordinates": [ -5.444997324417137, 33.938840053602263 ] } },
{ "type": "Feature", "properties": { "review_id": "69118f7b-8443-426b-a262-c1812cc6e53a", "run_id": "e60088e9-cf94-4e41-ae65-a5390866b4b8", "source_layer": "infra.decharge", "source_id": "111", "source_name": "el batma", "source_type": "DECHARGE", "master_site_id_candidate": "fe0b0c55-772b-4667-80e6-e67b5c4bd4c9", "master_site_name": "El Batma", "master_site_type": "infra.decharge_inventaire_pollution_general", "distance_m": "0.28", "score": "0.740", "review_bucket": "VERY_CLOSE_2M", "review_action_default": "NEED_REVIEW", "suggested_decision": "NEED_REVIEW", "business_decision": "", "comments": "", "qa_color": "#f59e0b", "qa_icon": "alert", "WKT": "POINT(478538.72 461448.99)" }, "geometry": { "type": "Point", "coordinates": [ -5.632783171582142, 34.753052148301627 ] } },
{ "type": "Feature", "properties": { "review_id": "0ab327c1-f577-48d5-8bd8-2f0f533ed9bd", "run_id": "e60088e9-cf94-4e41-ae65-a5390866b4b8", "source_layer": "infra.huilerie", "source_id": "213", "source_name": "Alhalouiyine", "source_type": "HUILERIE", "master_site_id_candidate": "68c2ef39-af73-46ee-8e9f-60ed84a20838", "master_site_name": "Alhalouiyine", "master_site_type": "infra.huilerie_inventaire_pollution", "distance_m": "0.28", "score": "0.740", "review_bucket": "VERY_CLOSE_2M", "review_action_default": "NEED_REVIEW", "suggested_decision": "NEED_REVIEW", "business_decision": "", "comments": "", "qa_color": "#f59e0b", "qa_icon": "alert", "WKT": "POINT(498379 451161)" }, "geometry": { "type": "Point", "coordinates": [ -5.416068200861171, 34.660520550819811 ] } },
{ "type": "Feature", "properties": { "review_id": "c8cb722c-0261-457e-8f8e-b5d8bff59314", "run_id": "e60088e9-cf94-4e41-ae65-a5390866b4b8", "source_layer": "infra.huilerie", "source_id": "469", "source_name": "BARAKA", "source_type": "HUILERIE", "master_site_id_candidate": "6eadca42-a17c-4bd5-b835-964129ade136", "master_site_name": "BARAKA", "master_site_type": "infra.huilerie_inventaire_pollution", "distance_m": "0.28", "score": "0.740", "review_bucket": "VERY_CLOSE_2M", "review_action_default": "NEED_REVIEW", "suggested_decision": "NEED_REVIEW", "business_decision": "", "comments": "", "qa_color": "#f59e0b", "qa_icon": "alert", "WKT": "POINT(552397 357817)" }, "geometry": { "type": "Point", "coordinates": [ -4.832257733339565, 33.817551991809346 ] } },
{ "type": "Feature", "properties": { "review_id": "f327361e-1913-4c9d-838d-9df0d1ed5703", "run_id": "e60088e9-cf94-4e41-ae65-a5390866b4b8", "source_layer": "infra.huilerie", "source_id": "548", "source_name": "H, BEN MOUSSA", "source_type": "HUILERIE", "master_site_id_candidate": "ef0693c9-198f-46b6-875f-d24e33d0329f", "master_site_name": "H, BEN MOUSSA", "master_site_type": "infra.huilerie_inventaire_pollution", "distance_m": "0.28", "score": "0.740", "review_bucket": "VERY_CLOSE_2M", "review_action_default": "NEED_REVIEW", "suggested_decision": "NEED_REVIEW", "business_decision": "", "comments": "", "qa_color": "#f59e0b", "qa_icon": "alert", "WKT": "POINT(488638 384208)" }, "geometry": { "type": "Point", "coordinates": [ -5.521496064515937, 34.056780216845326 ] } },
{ "type": "Feature", "properties": { "review_id": "88ca8611-f60f-4bbe-be10-d11ac2701faf", "run_id": "e60088e9-cf94-4e41-ae65-a5390866b4b8", "source_layer": "infra.huilerie", "source_id": "38", "source_name": "STE.HOLDING DE TRAITEMENT D'OLIVE", "source_type": "HUILERIE", "master_site_id_candidate": "2db962ed-b31c-47a9-acad-105cfdbaca12", "master_site_name": "STE.HOLDING DE TRAITEMENT D'OLIVE", "master_site_type": "infra.huilerie_inventaire_pollution", "distance_m": "0.30", "score": "0.740", "review_bucket": "VERY_CLOSE_2M", "review_action_default": "NEED_REVIEW", "suggested_decision": "NEED_REVIEW", "business_decision": "", "comments": "", "qa_color": "#f59e0b", "qa_icon": "alert", "WKT": "POINT(500678 343691)" }, "geometry": { "type": "Point", "coordinates": [ -5.391085808300683, 33.691442714612677 ] } },
{ "type": "Feature", "properties": { "review_id": "7855d6cc-0ecc-43f4-b6d7-05bb3d561359", "run_id": "e60088e9-cf94-4e41-ae65-a5390866b4b8", "source_layer": "infra.huilerie", "source_id": "196", "source_name": "Ste Huile d'olive des produits de terroir", "source_type": "HUILERIE", "master_site_id_candidate": "b566ee6e-7401-414f-8c67-fb5781dd0d81", "master_site_name": "Ste Huile d'olive des produits de terroir", "master_site_type": "infra.huilerie_inventaire_pollution", "distance_m": "0.31", "score": "0.740", "review_bucket": "VERY_CLOSE_2M", "review_action_default": "NEED_REVIEW", "suggested_decision": "NEED_REVIEW", "business_decision": "", "comments": "", "qa_color": "#f59e0b", "qa_icon": "alert", "WKT": "POINT(486764 461952)" }, "geometry": { "type": "Point", "coordinates": [ -5.542953409999495, 34.757720008882252 ] } },
{ "type": "Feature", "properties": { "review_id": "2f678fdd-3d3f-44bd-9701-f435248584eb", "run_id": "e60088e9-cf94-4e41-ae65-a5390866b4b8", "source_layer": "infra.huilerie", "source_id": "61", "source_name": "FATTAH ABDELLKADAR", "source_type": "HUILERIE", "master_site_id_candidate": "4e1d779c-3b2e-419d-9d53-ff213c02adc0", "master_site_name": "FATTAH ABDELLKADAR", "master_site_type": "infra.huilerie_inventaire_pollution", "distance_m": "0.31", "score": "0.740", "review_bucket": "VERY_CLOSE_2M", "review_action_default": "NEED_REVIEW", "suggested_decision": "NEED_REVIEW", "business_decision": "", "comments": "", "qa_color": "#f59e0b", "qa_icon": "alert", "WKT": "POINT(474184 346708)" }, "geometry": { "type": "Point", "coordinates": [ -5.6770195722206, 33.718345633143123 ] } },
{ "type": "Feature", "properties": { "review_id": "5e9cb9c7-2df3-4f97-9a75-a65ce1e215ab", "run_id": "e60088e9-cf94-4e41-ae65-a5390866b4b8", "source_layer": "infra.decharge", "source_id": "37", "source_name": "décharge elmers", "source_type": "DECHARGE", "master_site_id_candidate": "ff39b5a5-88a3-4b1f-a328-7639a89b8332", "master_site_name": "Décharge Elmers", "master_site_type": "infra.decharge_inventaire_pollution_general", "distance_m": "0.32", "score": "0.740", "review_bucket": "VERY_CLOSE_2M", "review_action_default": "NEED_REVIEW", "suggested_decision": "NEED_REVIEW", "business_decision": "", "comments": "", "qa_color": "#f59e0b", "qa_icon": "alert", "WKT": "POINT(587704.96 317673.32)" }, "geometry": { "type": "Point", "coordinates": [ -4.454706805192935, 33.453197274495167 ] } },
{ "type": "Feature", "properties": { "review_id": "756eb62a-38bd-4ea1-81c3-25faaf735173", "run_id": "e60088e9-cf94-4e41-ae65-a5390866b4b8", "source_layer": "infra.huilerie", "source_id": "198", "source_name": "Huillerie Bachir", "source_type": "HUILERIE", "master_site_id_candidate": "97cbe82f-6fce-4cd0-996e-8f6f4d959249", "master_site_name": "Huillerie Bachir", "master_site_type": "infra.huilerie_inventaire_pollution", "distance_m": "0.33", "score": "0.740", "review_bucket": "VERY_CLOSE_2M", "review_action_default": "NEED_REVIEW", "suggested_decision": "NEED_REVIEW", "business_decision": "", "comments": "", "qa_color": "#f59e0b", "qa_icon": "alert", "WKT": "POINT(486369 464928)" }, "geometry": { "type": "Point", "coordinates": [ -5.547313735935959, 34.784542206760776 ] } },
{ "type": "Feature", "properties": { "review_id": "9146843f-0c2c-4e06-a952-44a216535762", "run_id": "e60088e9-cf94-4e41-ae65-a5390866b4b8", "source_layer": "infra.decharge", "source_id": "140", "source_name": "sahel belfal", "source_type": "DECHARGE", "master_site_id_candidate": "ec71d9fa-0888-4dbb-a32b-e95db08c2205", "master_site_name": "Sahel Belfal", "master_site_type": "infra.decharge_inventaire_pollution_general", "distance_m": "0.34", "score": "0.740", "review_bucket": "VERY_CLOSE_2M", "review_action_default": "NEED_REVIEW", "suggested_decision": "NEED_REVIEW", "business_decision": "", "comments": "", "qa_color": "#f59e0b", "qa_icon": "alert", "WKT": "POINT(445531.03 407176.66)" }, "geometry": { "type": "Point", "coordinates": [ -5.989940947917942, 34.262571585871477 ] } },
{ "type": "Feature", "properties": { "review_id": "e36c907f-dfdf-41d0-a992-720a17bdf9f5", "run_id": "e60088e9-cf94-4e41-ae65-a5390866b4b8", "source_layer": "infra.decharge", "source_id": "141", "source_name": "sahel belfal", "source_type": "DECHARGE", "master_site_id_candidate": "ec71d9fa-0888-4dbb-a32b-e95db08c2205", "master_site_name": "Sahel Belfal", "master_site_type": "infra.decharge_inventaire_pollution_general", "distance_m": "0.34", "score": "0.740", "review_bucket": "VERY_CLOSE_2M", "review_action_default": "NEED_REVIEW", "suggested_decision": "NEED_REVIEW", "business_decision": "", "comments": "", "qa_color": "#f59e0b", "qa_icon": "alert", "WKT": "POINT(445531.03 407176.66)" }, "geometry": { "type": "Point", "coordinates": [ -5.989940947917942, 34.262571585871477 ] } },
{ "type": "Feature", "properties": { "review_id": "17089cf7-7789-4f61-a81b-9d8eeeb171fb", "run_id": "e60088e9-cf94-4e41-ae65-a5390866b4b8", "source_layer": "infra.decharge", "source_id": "142", "source_name": "sahel belfal", "source_type": "DECHARGE", "master_site_id_candidate": "ec71d9fa-0888-4dbb-a32b-e95db08c2205", "master_site_name": "Sahel Belfal", "master_site_type": "infra.decharge_inventaire_pollution_general", "distance_m": "0.34", "score": "0.740", "review_bucket": "VERY_CLOSE_2M", "review_action_default": "NEED_REVIEW", "suggested_decision": "NEED_REVIEW", "business_decision": "", "comments": "", "qa_color": "#f59e0b", "qa_icon": "alert", "WKT": "POINT(445531.03 407176.66)" }, "geometry": { "type": "Point", "coordinates": [ -5.989940947917942, 34.262571585871477 ] } },
{ "type": "Feature", "properties": { "review_id": "b413ecaa-7d70-4f27-8d32-0a711113465d", "run_id": "e60088e9-cf94-4e41-ae65-a5390866b4b8", "source_layer": "infra.decharge", "source_id": "143", "source_name": "sahel belfal", "source_type": "DECHARGE", "master_site_id_candidate": "ec71d9fa-0888-4dbb-a32b-e95db08c2205", "master_site_name": "Sahel Belfal", "master_site_type": "infra.decharge_inventaire_pollution_general", "distance_m": "0.34", "score": "0.740", "review_bucket": "VERY_CLOSE_2M", "review_action_default": "NEED_REVIEW", "suggested_decision": "NEED_REVIEW", "business_decision": "", "comments": "", "qa_color": "#f59e0b", "qa_icon": "alert", "WKT": "POINT(445531.03 407176.66)" }, "geometry": { "type": "Point", "coordinates": [ -5.989940947917942, 34.262571585871477 ] } },
{ "type": "Feature", "properties": { "review_id": "ad638bdd-312c-47cd-8afb-ac6f61935f6b", "run_id": "e60088e9-cf94-4e41-ae65-a5390866b4b8", "source_layer": "infra.decharge", "source_id": "146", "source_name": "sahel belfal", "source_type": "DECHARGE", "master_site_id_candidate": "ec71d9fa-0888-4dbb-a32b-e95db08c2205", "master_site_name": "Sahel Belfal", "master_site_type": "infra.decharge_inventaire_pollution_general", "distance_m": "0.34", "score": "0.740", "review_bucket": "VERY_CLOSE_2M", "review_action_default": "NEED_REVIEW", "suggested_decision": "NEED_REVIEW", "business_decision": "", "comments": "", "qa_color": "#f59e0b", "qa_icon": "alert", "WKT": "POINT(445531.03 407176.66)" }, "geometry": { "type": "Point", "coordinates": [ -5.989940947917942, 34.262571585871477 ] } },
{ "type": "Feature", "properties": { "review_id": "2ad827a9-6301-463f-947e-36546861cc0e", "run_id": "e60088e9-cf94-4e41-ae65-a5390866b4b8", "source_layer": "infra.decharge", "source_id": "147", "source_name": "sahel belfal", "source_type": "DECHARGE", "master_site_id_candidate": "ec71d9fa-0888-4dbb-a32b-e95db08c2205", "master_site_name": "Sahel Belfal", "master_site_type": "infra.decharge_inventaire_pollution_general", "distance_m": "0.34", "score": "0.740", "review_bucket": "VERY_CLOSE_2M", "review_action_default": "NEED_REVIEW", "suggested_decision": "NEED_REVIEW", "business_decision": "", "comments": "", "qa_color": "#f59e0b", "qa_icon": "alert", "WKT": "POINT(445531.03 407176.66)" }, "geometry": { "type": "Point", "coordinates": [ -5.989940947917942, 34.262571585871477 ] } },
{ "type": "Feature", "properties": { "review_id": "37f7fd9a-ad49-46bb-a160-2f6748a150b0", "run_id": "e60088e9-cf94-4e41-ae65-a5390866b4b8", "source_layer": "infra.decharge", "source_id": "148", "source_name": "sahel belfal", "source_type": "DECHARGE", "master_site_id_candidate": "ec71d9fa-0888-4dbb-a32b-e95db08c2205", "master_site_name": "Sahel Belfal", "master_site_type": "infra.decharge_inventaire_pollution_general", "distance_m": "0.34", "score": "0.740", "review_bucket": "VERY_CLOSE_2M", "review_action_default": "NEED_REVIEW", "suggested_decision": "NEED_REVIEW", "business_decision": "", "comments": "", "qa_color": "#f59e0b", "qa_icon": "alert", "WKT": "POINT(445531.03 407176.66)" }, "geometry": { "type": "Point", "coordinates": [ -5.989940947917942, 34.262571585871477 ] } },
{ "type": "Feature", "properties": { "review_id": "e41aa469-e9df-4e4b-9f00-01dfb6aa6632", "run_id": "e60088e9-cf94-4e41-ae65-a5390866b4b8", "source_layer": "infra.decharge", "source_id": "149", "source_name": "sahel belfal", "source_type": "DECHARGE", "master_site_id_candidate": "ec71d9fa-0888-4dbb-a32b-e95db08c2205", "master_site_name": "Sahel Belfal", "master_site_type": "infra.decharge_inventaire_pollution_general", "distance_m": "0.34", "score": "0.740", "review_bucket": "VERY_CLOSE_2M", "review_action_default": "NEED_REVIEW", "suggested_decision": "NEED_REVIEW", "business_decision": "", "comments": "", "qa_color": "#f59e0b", "qa_icon": "alert", "WKT": "POINT(445531.03 407176.66)" }, "geometry": { "type": "Point", "coordinates": [ -5.989940947917942, 34.262571585871477 ] } },
{ "type": "Feature", "properties": { "review_id": "de0dd92e-0ccd-4e5b-8bcf-e61b86699a20", "run_id": "e60088e9-cf94-4e41-ae65-a5390866b4b8", "source_layer": "infra.huilerie", "source_id": "30", "source_name": "H.HAJ MIMOUN CHACHOU", "source_type": "HUILERIE", "master_site_id_candidate": "1fc57149-4b5d-48ff-9ca3-c7b2b7065b37", "master_site_name": "H.HAJ MIMOUN CHACHOU", "master_site_type": "infra.huilerie_inventaire_pollution", "distance_m": "0.34", "score": "0.740", "review_bucket": "VERY_CLOSE_2M", "review_action_default": "NEED_REVIEW", "suggested_decision": "NEED_REVIEW", "business_decision": "", "comments": "", "qa_color": "#f59e0b", "qa_icon": "alert", "WKT": "POINT(502960 357148)" }, "geometry": { "type": "Point", "coordinates": [ -5.366418199480249, 33.812803198003003 ] } },
{ "type": "Feature", "properties": { "review_id": "e19be4d1-01d3-421c-b80e-f1d3cb1716fb", "run_id": "e60088e9-cf94-4e41-ae65-a5390866b4b8", "source_layer": "infra.huilerie", "source_id": "36", "source_name": "STE.MABROUKA CHAYMA(ADBAR)", "source_type": "HUILERIE", "master_site_id_candidate": "b39a1804-d79a-4101-afe1-91c5ada4d78b", "master_site_name": "STE.MABROUKA CHAYMA(ADBAR)", "master_site_type": "infra.huilerie_inventaire_pollution", "distance_m": "0.34", "score": "0.740", "review_bucket": "VERY_CLOSE_2M", "review_action_default": "NEED_REVIEW", "suggested_decision": "NEED_REVIEW", "business_decision": "", "comments": "", "qa_color": "#f59e0b", "qa_icon": "alert", "WKT": "POINT(471089 353837)" }, "geometry": { "type": "Point", "coordinates": [ -5.71065119374268, 33.782561170320122 ] } },
{ "type": "Feature", "properties": { "review_id": "1688cb08-2828-43c8-bb97-d914cbae2380", "run_id": "e60088e9-cf94-4e41-ae65-a5390866b4b8", "source_layer": "infra.huilerie", "source_id": "57", "source_name": "H.LAGNAOUI HMED", "source_type": "HUILERIE", "master_site_id_candidate": "3b640b2f-a3c9-4809-88ad-25f569c45654", "master_site_name": "H.LAGNAOUI HMED", "master_site_type": "infra.huilerie_inventaire_pollution", "distance_m": "0.34", "score": "0.740", "review_bucket": "VERY_CLOSE_2M", "review_action_default": "NEED_REVIEW", "suggested_decision": "NEED_REVIEW", "business_decision": "", "comments": "", "qa_color": "#f59e0b", "qa_icon": "alert", "WKT": "POINT(517949 372323)" }, "geometry": { "type": "Point", "coordinates": [ -5.204166711429828, 33.949507701472754 ] } },
{ "type": "Feature", "properties": { "review_id": "759bd20e-5925-4f3d-abf5-cd1f2cd8d39e", "run_id": "e60088e9-cf94-4e41-ae65-a5390866b4b8", "source_layer": "infra.huilerie", "source_id": "606", "source_name": "Hamid Amarouch", "source_type": "HUILERIE", "master_site_id_candidate": "b4867e26-fbf7-4d00-b207-6a97f0fccfbd", "master_site_name": "Hamid Amarouch", "master_site_type": "infra.huilerie_inventaire_pollution", "distance_m": "0.35", "score": "0.740", "review_bucket": "VERY_CLOSE_2M", "review_action_default": "NEED_REVIEW", "suggested_decision": "NEED_REVIEW", "business_decision": "", "comments": "", "qa_color": "#f59e0b", "qa_icon": "alert", "WKT": "POINT(497325 370211)" }, "geometry": { "type": "Point", "coordinates": [ -5.427336751734716, 33.930611566579614 ] } },
{ "type": "Feature", "properties": { "review_id": "0916867e-e5cb-44f0-900f-f3736e03ca65", "run_id": "e60088e9-cf94-4e41-ae65-a5390866b4b8", "source_layer": "infra.huilerie", "source_id": "436", "source_name": "Non-connue 5", "source_type": "HUILERIE", "master_site_id_candidate": "dcef388d-628f-46fe-b796-7223e7afc3a6", "master_site_name": "Non-connue 5", "master_site_type": "infra.huilerie_inventaire_pollution", "distance_m": "0.36", "score": "0.740", "review_bucket": "VERY_CLOSE_2M", "review_action_default": "NEED_REVIEW", "suggested_decision": "NEED_REVIEW", "business_decision": "", "comments": "", "qa_color": "#f59e0b", "qa_icon": "alert", "WKT": "POINT(594112 357297)" }, "geometry": { "type": "Point", "coordinates": [ -4.381611362807183, 33.810003484803666 ] } },
{ "type": "Feature", "properties": { "review_id": "0d0647f1-41ba-4fc2-82c9-3625dd792d8f", "run_id": "e60088e9-cf94-4e41-ae65-a5390866b4b8", "source_layer": "infra.huilerie", "source_id": "445", "source_name": "H.ABDELKADAR TAZI", "source_type": "HUILERIE", "master_site_id_candidate": "3846efc6-583b-438d-8021-abfb588b7bd4", "master_site_name": "H.ABDELKADAR TAZI", "master_site_type": "infra.huilerie_inventaire_pollution", "distance_m": "0.36", "score": "0.740", "review_bucket": "VERY_CLOSE_2M", "review_action_default": "NEED_REVIEW", "suggested_decision": "NEED_REVIEW", "business_decision": "", "comments": "", "qa_color": "#f59e0b", "qa_icon": "alert", "WKT": "POINT(527801 360706)" }, "geometry": { "type": "Point", "coordinates": [ -5.097920864698295, 33.844530636164826 ] } },
{ "type": "Feature", "properties": { "review_id": "8ee85237-88b5-4a4e-b0ef-0a8df1612fad", "run_id": "e60088e9-cf94-4e41-ae65-a5390866b4b8", "source_layer": "infra.mine", "source_id": "32", "source_name": "STE RIHAM IKHWANE", "source_type": "MINE", "master_site_id_candidate": "0526c8b7-1da2-4e96-b606-ea3f849a6ae2", "master_site_name": "STE RIHAM IKHWANE", "master_site_type": "infra.mine_inventaire_pollution", "distance_m": "0.36", "score": "0.740", "review_bucket": "VERY_CLOSE_2M", "review_action_default": "NEED_REVIEW", "suggested_decision": "NEED_REVIEW", "business_decision": "", "comments": "", "qa_color": "#f59e0b", "qa_icon": "alert", "WKT": "POINT(511044 388316)" }, "geometry": { "type": "Point", "coordinates": [ -5.2786856297279, 34.09382500710489 ] } },
{ "type": "Feature", "properties": { "review_id": "84d702c4-7627-4fb2-a00a-1e99d851cddd", "run_id": "e60088e9-cf94-4e41-ae65-a5390866b4b8", "source_layer": "infra.mine", "source_id": "33", "source_name": "STE RIHAM IKHWANE", "source_type": "MINE", "master_site_id_candidate": "05a9236d-74e8-40a0-8370-7f69d42cd18b", "master_site_name": "STE RIHAM IKHWANE", "master_site_type": "infra.mine_inventaire_pollution", "distance_m": "0.36", "score": "0.740", "review_bucket": "VERY_CLOSE_2M", "review_action_default": "NEED_REVIEW", "suggested_decision": "NEED_REVIEW", "business_decision": "", "comments": "", "qa_color": "#f59e0b", "qa_icon": "alert", "WKT": "POINT(511294 388316)" }, "geometry": { "type": "Point", "coordinates": [ -5.275975841910493, 34.093822356441009 ] } },
{ "type": "Feature", "properties": { "review_id": "130663c9-ed66-44b7-b620-61a889d43542", "run_id": "e60088e9-cf94-4e41-ae65-a5390866b4b8", "source_layer": "infra.mine", "source_id": "17", "source_name": "", "source_type": "MINE", "master_site_id_candidate": "53d41cac-403b-486a-a01f-03d44d66cdbb", "master_site_name": "343189.00000000000", "master_site_type": "infra.mine_inventaire_pollution", "distance_m": "0.36", "score": "0.540", "review_bucket": "VERY_CLOSE_2M", "review_action_default": "NEED_REVIEW", "suggested_decision": "NEED_REVIEW", "business_decision": "", "comments": "", "qa_color": "#f59e0b", "qa_icon": "alert", "WKT": "POINT(443750 355201)" }, "geometry": { "type": "Point", "coordinates": [ -6.006005456882152, 33.793779648950448 ] } },
{ "type": "Feature", "properties": { "review_id": "5aace782-f5cf-42b2-98a9-7a2a73c8fc5b", "run_id": "e60088e9-cf94-4e41-ae65-a5390866b4b8", "source_layer": "infra.mine", "source_id": "30", "source_name": "STE MINIERE BOUHRAMAT", "source_type": "MINE", "master_site_id_candidate": "e15b32d2-4243-4c36-8077-9ee51977a10c", "master_site_name": "STE MINIERE BOUHRAMAT", "master_site_type": "infra.mine_inventaire_pollution", "distance_m": "0.37", "score": "0.740", "review_bucket": "VERY_CLOSE_2M", "review_action_default": "NEED_REVIEW", "suggested_decision": "NEED_REVIEW", "business_decision": "", "comments": "", "qa_color": "#f59e0b", "qa_icon": "alert", "WKT": "POINT(525941 393063)" }, "geometry": { "type": "Point", "coordinates": [ -5.117075702395746, 34.136370982645872 ] } },
{ "type": "Feature", "properties": { "review_id": "2c289eec-ca06-4dc7-8e71-3f664a88c547", "run_id": "e60088e9-cf94-4e41-ae65-a5390866b4b8", "source_layer": "infra.decharge", "source_id": "84", "source_name": "décharge publique", "source_type": "DECHARGE", "master_site_id_candidate": "bf242e6e-fe86-4070-9a2c-aa93c892e923", "master_site_name": "Décharge Publique", "master_site_type": "infra.decharge_inventaire_pollution_general", "distance_m": "0.38", "score": "0.740", "review_bucket": "VERY_CLOSE_2M", "review_action_default": "NEED_REVIEW", "suggested_decision": "NEED_REVIEW", "business_decision": "", "comments": "", "qa_color": "#f59e0b", "qa_icon": "alert", "WKT": "POINT(494617.83 454118.66)" }, "geometry": { "type": "Point", "coordinates": [ -5.457121642446374, 34.687172080311115 ] } },
{ "type": "Feature", "properties": { "review_id": "b48c7205-c839-4308-83d9-53f0c0dbd8c5", "run_id": "e60088e9-cf94-4e41-ae65-a5390866b4b8", "source_layer": "infra.huilerie", "source_id": "216", "source_name": "Elhaj Ali", "source_type": "HUILERIE", "master_site_id_candidate": "0968b682-9ed5-48cb-b2b8-4f54fab326b1", "master_site_name": "Elhaj Ali", "master_site_type": "infra.huilerie_inventaire_pollution", "distance_m": "0.38", "score": "0.740", "review_bucket": "VERY_CLOSE_2M", "review_action_default": "NEED_REVIEW", "suggested_decision": "NEED_REVIEW", "business_decision": "", "comments": "", "qa_color": "#f59e0b", "qa_icon": "alert", "WKT": "POINT(496753 458523)" }, "geometry": { "type": "Point", "coordinates": [ -5.433834476849148, 34.726884945705436 ] } },
{ "type": "Feature", "properties": { "review_id": "b15ca81e-8627-4fc7-ac3b-60c994d0670b", "run_id": "e60088e9-cf94-4e41-ae65-a5390866b4b8", "source_layer": "infra.huilerie", "source_id": "230", "source_name": "Smimih", "source_type": "HUILERIE", "master_site_id_candidate": "8c1046e5-0cf9-4ccf-ab17-320bcc6472ae", "master_site_name": "Smimih", "master_site_type": "infra.huilerie_inventaire_pollution", "distance_m": "0.38", "score": "0.740", "review_bucket": "VERY_CLOSE_2M", "review_action_default": "NEED_REVIEW", "suggested_decision": "NEED_REVIEW", "business_decision": "", "comments": "", "qa_color": "#f59e0b", "qa_icon": "alert", "WKT": "POINT(502067 465078)" }, "geometry": { "type": "Point", "coordinates": [ -5.375795406644183, 34.785977751525323 ] } },
{ "type": "Feature", "properties": { "review_id": "98304b87-4ba8-4879-a4d5-84470feb7e48", "run_id": "e60088e9-cf94-4e41-ae65-a5390866b4b8", "source_layer": "infra.huilerie", "source_id": "441", "source_name": "STE.OLIVIER NORD", "source_type": "HUILERIE", "master_site_id_candidate": "a79614df-4685-4116-9a2f-3541dc522632", "master_site_name": "STE.OLIVIER NORD", "master_site_type": "infra.huilerie_inventaire_pollution", "distance_m": "0.38", "score": "0.740", "review_bucket": "VERY_CLOSE_2M", "review_action_default": "NEED_REVIEW", "suggested_decision": "NEED_REVIEW", "business_decision": "", "comments": "", "qa_color": "#f59e0b", "qa_icon": "alert", "WKT": "POINT(580549 357189)" }, "geometry": { "type": "Point", "coordinates": [ -4.528148525623918, 33.810137295332794 ] } },
{ "type": "Feature", "properties": { "review_id": "2c13ceaf-c1cb-4785-96e0-a385f364a452", "run_id": "e60088e9-cf94-4e41-ae65-a5390866b4b8", "source_layer": "infra.huilerie", "source_id": "468", "source_name": "REGRAGI BRAHIM", "source_type": "HUILERIE", "master_site_id_candidate": "253f6050-1375-4817-860a-ccdf2b409e9a", "master_site_name": "REGRAGI BRAHIM", "master_site_type": "infra.huilerie_inventaire_pollution", "distance_m": "0.38", "score": "0.740", "review_bucket": "VERY_CLOSE_2M", "review_action_default": "NEED_REVIEW", "suggested_decision": "NEED_REVIEW", "business_decision": "", "comments": "", "qa_color": "#f59e0b", "qa_icon": "alert", "WKT": "POINT(552545 357595)" }, "geometry": { "type": "Point", "coordinates": [ -4.830671736278457, 33.815542637787296 ] } },
{ "type": "Feature", "properties": { "review_id": "a228bcaf-e760-4d7a-b365-2aa2368ca5fe", "run_id": "e60088e9-cf94-4e41-ae65-a5390866b4b8", "source_layer": "infra.mine", "source_id": "36", "source_name": "STE UNION D'EXPLOITATION DESMINES ET CARRIERES", "source_type": "MINE", "master_site_id_candidate": "6934f0c0-40a6-4fd0-9877-39cceeb7244d", "master_site_name": "STE UNION D'EXPLOITATION DESMINES ET CARRIERES", "master_site_type": "infra.mine_inventaire_pollution", "distance_m": "0.38", "score": "0.740", "review_bucket": "VERY_CLOSE_2M", "review_action_default": "NEED_REVIEW", "suggested_decision": "NEED_REVIEW", "business_decision": "", "comments": "", "qa_color": "#f59e0b", "qa_icon": "alert", "WKT": "POINT(496623 337128)" }, "geometry": { "type": "Point", "coordinates": [ -5.434812240341619, 33.632246900364905 ] } },
{ "type": "Feature", "properties": { "review_id": "5cef3c97-461a-4311-b48d-5be4d8873d56", "run_id": "e60088e9-cf94-4e41-ae65-a5390866b4b8", "source_layer": "infra.mine", "source_id": "37", "source_name": "ONHYM", "source_type": "MINE", "master_site_id_candidate": "9bdd4dd1-962d-4375-a9a4-4b6f243d6f04", "master_site_name": "ONHYM", "master_site_type": "infra.mine_inventaire_pollution", "distance_m": "0.38", "score": "0.740", "review_bucket": "VERY_CLOSE_2M", "review_action_default": "NEED_REVIEW", "suggested_decision": "NEED_REVIEW", "business_decision": "", "comments": "", "qa_color": "#f59e0b", "qa_icon": "alert", "WKT": "POINT(488791 381875)" }, "geometry": { "type": "Point", "coordinates": [ -5.519809370078455, 34.035743322485274 ] } },
{ "type": "Feature", "properties": { "review_id": "5c35ff53-894a-47ff-b156-bc833d363ea9", "run_id": "e60088e9-cf94-4e41-ae65-a5390866b4b8", "source_layer": "infra.mine", "source_id": "38", "source_name": "ONHYM", "source_type": "MINE", "master_site_id_candidate": "67ff88a9-1e1a-4193-a3ec-caccd9ee12a3", "master_site_name": "ONHYM", "master_site_type": "infra.mine_inventaire_pollution", "distance_m": "0.38", "score": "0.740", "review_bucket": "VERY_CLOSE_2M", "review_action_default": "NEED_REVIEW", "suggested_decision": "NEED_REVIEW", "business_decision": "", "comments": "", "qa_color": "#f59e0b", "qa_icon": "alert", "WKT": "POINT(485541 379625)" }, "geometry": { "type": "Point", "coordinates": [ -5.554976865806947, 34.015414574211277 ] } },
{ "type": "Feature", "properties": { "review_id": "435a36d6-aa64-4621-9e05-892e94d32055", "run_id": "e60088e9-cf94-4e41-ae65-a5390866b4b8", "source_layer": "infra.huilerie", "source_id": "119", "source_name": "GIE LAMTA FES", "source_type": "HUILERIE", "master_site_id_candidate": "0dbae4c5-76f7-43a2-b9fe-fb0350f290de", "master_site_name": "GIE LAMTA FES", "master_site_type": "infra.huilerie_inventaire_pollution", "distance_m": "0.39", "score": "0.740", "review_bucket": "VERY_CLOSE_2M", "review_action_default": "NEED_REVIEW", "suggested_decision": "NEED_REVIEW", "business_decision": "", "comments": "", "qa_color": "#f59e0b", "qa_icon": "alert", "WKT": "POINT(534429 393873)" }, "geometry": { "type": "Point", "coordinates": [ -5.024996835678302, 34.143433782213833 ] } },
{ "type": "Feature", "properties": { "review_id": "ab0bd472-407a-40b4-be1c-6fa3dc05f74a", "run_id": "e60088e9-cf94-4e41-ae65-a5390866b4b8", "source_layer": "infra.huilerie", "source_id": "199", "source_name": "Al Mansoura", "source_type": "HUILERIE", "master_site_id_candidate": "8b59aa7e-5153-4fc1-b661-58cdd3b9cd00", "master_site_name": "Al Mansoura", "master_site_type": "infra.huilerie_inventaire_pollution", "distance_m": "0.39", "score": "0.740", "review_bucket": "VERY_CLOSE_2M", "review_action_default": "NEED_REVIEW", "suggested_decision": "NEED_REVIEW", "business_decision": "", "comments": "", "qa_color": "#f59e0b", "qa_icon": "alert", "WKT": "POINT(489321 463070)" }, "geometry": { "type": "Point", "coordinates": [ -5.515037549413588, 34.767826749900621 ] } },
{ "type": "Feature", "properties": { "review_id": "24abe0ae-0e57-4729-bf69-657f20fd7549", "run_id": "e60088e9-cf94-4e41-ae65-a5390866b4b8", "source_layer": "infra.huilerie", "source_id": "205", "source_name": "Benslimane", "source_type": "HUILERIE", "master_site_id_candidate": "b4f2f52a-b9ca-476f-bef9-8bdbc13a52b1", "master_site_name": "Benslimane", "master_site_type": "infra.huilerie_inventaire_pollution", "distance_m": "0.39", "score": "0.740", "review_bucket": "VERY_CLOSE_2M", "review_action_default": "NEED_REVIEW", "suggested_decision": "NEED_REVIEW", "business_decision": "", "comments": "", "qa_color": "#f59e0b", "qa_icon": "alert", "WKT": "POINT(471013 465476)" }, "geometry": { "type": "Point", "coordinates": [ -5.715112279158094, 34.789175495420025 ] } },
{ "type": "Feature", "properties": { "review_id": "6e764d8a-e9f5-42a3-a553-29e88300130f", "run_id": "e60088e9-cf94-4e41-ae65-a5390866b4b8", "source_layer": "infra.huilerie", "source_id": "223", "source_name": "Elkhawda", "source_type": "HUILERIE", "master_site_id_candidate": "212266b9-dd64-42f9-9afd-f5f752eb350f", "master_site_name": "Elkhawda", "master_site_type": "infra.huilerie_inventaire_pollution", "distance_m": "0.39", "score": "0.740", "review_bucket": "VERY_CLOSE_2M", "review_action_default": "NEED_REVIEW", "suggested_decision": "NEED_REVIEW", "business_decision": "", "comments": "", "qa_color": "#f59e0b", "qa_icon": "alert", "WKT": "POINT(469915 464903)" }, "geometry": { "type": "Point", "coordinates": [ -5.727090102065117, 34.783979807746306 ] } },
{ "type": "Feature", "properties": { "review_id": "6170593f-bce4-43d9-92df-a426df1236e3", "run_id": "e60088e9-cf94-4e41-ae65-a5390866b4b8", "source_layer": "infra.huilerie", "source_id": "224", "source_name": "Masmouda Alaasria", "source_type": "HUILERIE", "master_site_id_candidate": "6c2ebbd5-56d1-4cbf-bd1c-e5934ab34667", "master_site_name": "Masmouda Alaasria", "master_site_type": "infra.huilerie_inventaire_pollution", "distance_m": "0.39", "score": "0.740", "review_bucket": "VERY_CLOSE_2M", "review_action_default": "NEED_REVIEW", "suggested_decision": "NEED_REVIEW", "business_decision": "", "comments": "", "qa_color": "#f59e0b", "qa_icon": "alert", "WKT": "POINT(471370 459527)" }, "geometry": { "type": "Point", "coordinates": [ -5.711017783839345, 34.735557795408383 ] } },
{ "type": "Feature", "properties": { "review_id": "9a176eaa-e22d-4540-875e-862ac56b51b0", "run_id": "e60088e9-cf94-4e41-ae65-a5390866b4b8", "source_layer": "infra.huilerie", "source_id": "111", "source_name": "H.BOUAYAD", "source_type": "HUILERIE", "master_site_id_candidate": "9adb4369-be51-4eb6-8ef7-54ddf94d71a4", "master_site_name": "H.BOUAYAD", "master_site_type": "infra.huilerie_inventaire_pollution", "distance_m": "0.40", "score": "0.740", "review_bucket": "VERY_CLOSE_2M", "review_action_default": "NEED_REVIEW", "suggested_decision": "NEED_REVIEW", "business_decision": "", "comments": "", "qa_color": "#f59e0b", "qa_icon": "alert", "WKT": "POINT(520040 382983)" }, "geometry": { "type": "Point", "coordinates": [ -5.181297915789717, 34.045601463639954 ] } },
{ "type": "Feature", "properties": { "review_id": "005fd869-f709-4a15-ba26-5d20783173a5", "run_id": "e60088e9-cf94-4e41-ae65-a5390866b4b8", "source_layer": "infra.huilerie", "source_id": "113", "source_name": "COOPERATIVE JOUIRA", "source_type": "HUILERIE", "master_site_id_candidate": "5aef0d5b-20c8-4cd4-887a-adfe69672030", "master_site_name": "COOPERATIVE JOUIRA", "master_site_type": "infra.huilerie_inventaire_pollution", "distance_m": "0.40", "score": "0.740", "review_bucket": "VERY_CLOSE_2M", "review_action_default": "NEED_REVIEW", "suggested_decision": "NEED_REVIEW", "business_decision": "", "comments": "", "qa_color": "#f59e0b", "qa_icon": "alert", "WKT": "POINT(527016 400627)" }, "geometry": { "type": "Point", "coordinates": [ -5.10518618562064, 34.204550965292356 ] } },
{ "type": "Feature", "properties": { "review_id": "16a9a4de-af69-4abe-b919-153509c145ca", "run_id": "e60088e9-cf94-4e41-ae65-a5390866b4b8", "source_layer": "infra.huilerie", "source_id": "200", "source_name": "Bassatine Ouezzane", "source_type": "HUILERIE", "master_site_id_candidate": "e0438218-ea95-408a-99fe-d7b8a7ab0da9", "master_site_name": "Bassatine Ouezzane", "master_site_type": "infra.huilerie_inventaire_pollution", "distance_m": "0.40", "score": "0.740", "review_bucket": "VERY_CLOSE_2M", "review_action_default": "NEED_REVIEW", "suggested_decision": "NEED_REVIEW", "business_decision": "", "comments": "", "qa_color": "#f59e0b", "qa_icon": "alert", "WKT": "POINT(488268 459601)" }, "geometry": { "type": "Point", "coordinates": [ -5.52649457809877, 34.736544104045016 ] } },
{ "type": "Feature", "properties": { "review_id": "98fdd733-35e9-4be7-8c85-56cb238f55c4", "run_id": "e60088e9-cf94-4e41-ae65-a5390866b4b8", "source_layer": "infra.huilerie", "source_id": "204", "source_name": "Al Masmoudia", "source_type": "HUILERIE", "master_site_id_candidate": "3b05cc77-ffbf-4731-8e7a-d6fc4c218480", "master_site_name": "Al Masmoudia", "master_site_type": "infra.huilerie_inventaire_pollution", "distance_m": "0.40", "score": "0.740", "review_bucket": "VERY_CLOSE_2M", "review_action_default": "NEED_REVIEW", "suggested_decision": "NEED_REVIEW", "business_decision": "", "comments": "", "qa_color": "#f59e0b", "qa_icon": "alert", "WKT": "POINT(467919 465478)" }, "geometry": { "type": "Point", "coordinates": [ -5.748919331347088, 34.789104808519575 ] } },
{ "type": "Feature", "properties": { "review_id": "27a7fd39-d495-48d6-b9e3-0c491698ef44", "run_id": "e60088e9-cf94-4e41-ae65-a5390866b4b8", "source_layer": "infra.huilerie", "source_id": "32", "source_name": "H.AL FADLE", "source_type": "HUILERIE", "master_site_id_candidate": "10779ec2-5b0c-45f3-9363-4c4b99235756", "master_site_name": "H.AL FADLE", "master_site_type": "infra.huilerie_inventaire_pollution", "distance_m": "0.40", "score": "0.740", "review_bucket": "VERY_CLOSE_2M", "review_action_default": "NEED_REVIEW", "suggested_decision": "NEED_REVIEW", "business_decision": "", "comments": "", "qa_color": "#f59e0b", "qa_icon": "alert", "WKT": "POINT(512361 374364)" }, "geometry": { "type": "Point", "coordinates": [ -5.264606713581582, 33.967993577332152 ] } },
{ "type": "Feature", "properties": { "review_id": "e724dc8b-bca7-43fc-b49b-563af838a394", "run_id": "e60088e9-cf94-4e41-ae65-a5390866b4b8", "source_layer": "infra.decharge", "source_id": "16", "source_name": "mayzal", "source_type": "DECHARGE", "master_site_id_candidate": "a4f2a302-0b7a-48fa-8eb8-1e982dc36da4", "master_site_name": "Mayzal", "master_site_type": "infra.decharge_inventaire_pollution_general", "distance_m": "0.41", "score": "0.740", "review_bucket": "VERY_CLOSE_2M", "review_action_default": "NEED_REVIEW", "suggested_decision": "NEED_REVIEW", "business_decision": "", "comments": "", "qa_color": "#f59e0b", "qa_icon": "alert", "WKT": "POINT(579146.15 328603.62)" }, "geometry": { "type": "Point", "coordinates": [ -4.545831976855318, 33.552442671231553 ] } },
{ "type": "Feature", "properties": { "review_id": "bfab05de-1b95-4139-b629-6e98acb3e04b", "run_id": "e60088e9-cf94-4e41-ae65-a5390866b4b8", "source_layer": "infra.huilerie", "source_id": "215", "source_name": "Elkharouba", "source_type": "HUILERIE", "master_site_id_candidate": "34b247ac-a646-4802-bdab-3ee250b7d2e6", "master_site_name": "Elkharouba", "master_site_type": "infra.huilerie_inventaire_pollution", "distance_m": "0.41", "score": "0.740", "review_bucket": "VERY_CLOSE_2M", "review_action_default": "NEED_REVIEW", "suggested_decision": "NEED_REVIEW", "business_decision": "", "comments": "", "qa_color": "#f59e0b", "qa_icon": "alert", "WKT": "POINT(496617 458435)" }, "geometry": { "type": "Point", "coordinates": [ -5.435319106974933, 34.726091242123317 ] } },
{ "type": "Feature", "properties": { "review_id": "fc91941f-ff62-4c38-886e-706255f1cd2c", "run_id": "e60088e9-cf94-4e41-ae65-a5390866b4b8", "source_layer": "infra.huilerie", "source_id": "521", "source_name": "H.HAJ LKHAYAT", "source_type": "HUILERIE", "master_site_id_candidate": "34e51ba1-4e4c-486f-876f-c8668884806b", "master_site_name": "H.HAJ LKHAYAT", "master_site_type": "infra.huilerie_inventaire_pollution", "distance_m": "0.41", "score": "0.740", "review_bucket": "VERY_CLOSE_2M", "review_action_default": "NEED_REVIEW", "suggested_decision": "NEED_REVIEW", "business_decision": "", "comments": "", "qa_color": "#f59e0b", "qa_icon": "alert", "WKT": "POINT(510898 375831)" }, "geometry": { "type": "Point", "coordinates": [ -5.280423246219883, 33.981239143716159 ] } },
{ "type": "Feature", "properties": { "review_id": "5e42ee07-d242-46cc-b1ad-6d3fc206d79a", "run_id": "e60088e9-cf94-4e41-ae65-a5390866b4b8", "source_layer": "infra.huilerie", "source_id": "136", "source_name": "H.OULAD NAJAT", "source_type": "HUILERIE", "master_site_id_candidate": "a18f02aa-e75b-4bce-8d72-4099ce869c76", "master_site_name": "H.OULAD NAJAT", "master_site_type": "infra.huilerie_inventaire_pollution", "distance_m": "0.42", "score": "0.740", "review_bucket": "VERY_CLOSE_2M", "review_action_default": "NEED_REVIEW", "suggested_decision": "NEED_REVIEW", "business_decision": "", "comments": "", "qa_color": "#f59e0b", "qa_icon": "alert", "WKT": "POINT(519864 380655)" }, "geometry": { "type": "Point", "coordinates": [ -5.183256930301435, 34.024611318276186 ] } },
{ "type": "Feature", "properties": { "review_id": "b89973fd-0b05-49ec-8674-edfdbdf53d49", "run_id": "e60088e9-cf94-4e41-ae65-a5390866b4b8", "source_layer": "infra.huilerie", "source_id": "195", "source_name": "Al Marinyenne", "source_type": "HUILERIE", "master_site_id_candidate": "1b5268eb-280e-403a-9bb4-efab7e6e78e1", "master_site_name": "Al Marinyenne", "master_site_type": "infra.huilerie_inventaire_pollution", "distance_m": "0.42", "score": "0.740", "review_bucket": "VERY_CLOSE_2M", "review_action_default": "NEED_REVIEW", "suggested_decision": "NEED_REVIEW", "business_decision": "", "comments": "", "qa_color": "#f59e0b", "qa_icon": "alert", "WKT": "POINT(491061 458544)" }, "geometry": { "type": "Point", "coordinates": [ -5.495984393115151, 34.727042370393562 ] } },
{ "type": "Feature", "properties": { "review_id": "32629fd9-62e6-4b0f-907c-68d6aaa54f44", "run_id": "e60088e9-cf94-4e41-ae65-a5390866b4b8", "source_layer": "infra.decharge", "source_id": "14", "source_name": "", "source_type": "DECHARGE", "master_site_id_candidate": "38f7c930-8351-4b4e-9adc-b4c99b38ebe7", "master_site_name": "ATM-DECH", "master_site_type": "infra.decharge_inventaire_pollution_general", "distance_m": "0.42", "score": "0.540", "review_bucket": "VERY_CLOSE_2M", "review_action_default": "NEED_REVIEW", "suggested_decision": "NEED_REVIEW", "business_decision": "", "comments": "", "qa_color": "#f59e0b", "qa_icon": "alert", "WKT": "POINT(464268.99 353702.42)" }, "geometry": { "type": "Point", "coordinates": [ -5.784304472903885, 33.781142667634775 ] } },
{ "type": "Feature", "properties": { "review_id": "7cede2df-f49f-4ddd-8de1-98326b7083c3", "run_id": "e60088e9-cf94-4e41-ae65-a5390866b4b8", "source_layer": "infra.huilerie", "source_id": "115", "source_name": "H.EL BARAKA", "source_type": "HUILERIE", "master_site_id_candidate": "c208302b-bb68-4132-be07-51133a875b7e", "master_site_name": "H.EL BARAKA", "master_site_type": "infra.huilerie_inventaire_pollution", "distance_m": "0.43", "score": "0.740", "review_bucket": "VERY_CLOSE_2M", "review_action_default": "NEED_REVIEW", "suggested_decision": "NEED_REVIEW", "business_decision": "", "comments": "", "qa_color": "#f59e0b", "qa_icon": "alert", "WKT": "POINT(525611 400914)" }, "geometry": { "type": "Point", "coordinates": [ -5.120426250027903, 34.207173759113928 ] } },
{ "type": "Feature", "properties": { "review_id": "518d17c4-c8ab-40ad-acea-753fc66c0c77", "run_id": "e60088e9-cf94-4e41-ae65-a5390866b4b8", "source_layer": "infra.huilerie", "source_id": "121", "source_name": "COOPERATIVE HUILERIE BIR DJAJ", "source_type": "HUILERIE", "master_site_id_candidate": "b4fb5777-81cd-4af7-aebe-998f3c7cfacf", "master_site_name": "COOPERATIVE HUILERIE BIR DJAJ", "master_site_type": "infra.huilerie_inventaire_pollution", "distance_m": "0.43", "score": "0.740", "review_bucket": "VERY_CLOSE_2M", "review_action_default": "NEED_REVIEW", "suggested_decision": "NEED_REVIEW", "business_decision": "", "comments": "", "qa_color": "#f59e0b", "qa_icon": "alert", "WKT": "POINT(522177 396959)" }, "geometry": { "type": "Point", "coordinates": [ -5.1577961174617, 34.171588042821249 ] } },
{ "type": "Feature", "properties": { "review_id": "65b4d27c-a35b-4805-84e9-89b09fead53a", "run_id": "e60088e9-cf94-4e41-ae65-a5390866b4b8", "source_layer": "infra.huilerie", "source_id": "194", "source_name": "GIE Jnane Ouazzane", "source_type": "HUILERIE", "master_site_id_candidate": "5b446acd-31a4-4609-8106-b5bc0f88bbd1", "master_site_name": "GIE Jnane Ouazzane", "master_site_type": "infra.huilerie_inventaire_pollution", "distance_m": "0.43", "score": "0.740", "review_bucket": "VERY_CLOSE_2M", "review_action_default": "NEED_REVIEW", "suggested_decision": "NEED_REVIEW", "business_decision": "", "comments": "", "qa_color": "#f59e0b", "qa_icon": "alert", "WKT": "POINT(485757 456200)" }, "geometry": { "type": "Point", "coordinates": [ -5.553859960871349, 34.705854471432616 ] } },
{ "type": "Feature", "properties": { "review_id": "d92aa0e5-226f-4725-a411-371a7bad22fb", "run_id": "e60088e9-cf94-4e41-ae65-a5390866b4b8", "source_layer": "infra.huilerie", "source_id": "202", "source_name": "Huillerie Beni Kaoulech", "source_type": "HUILERIE", "master_site_id_candidate": "5063f2b0-2c77-417e-96c4-813b4ed6edfc", "master_site_name": "Huillerie Beni Kaoulech", "master_site_type": "infra.huilerie_inventaire_pollution", "distance_m": "0.43", "score": "0.740", "review_bucket": "VERY_CLOSE_2M", "review_action_default": "NEED_REVIEW", "suggested_decision": "NEED_REVIEW", "business_decision": "", "comments": "", "qa_color": "#f59e0b", "qa_icon": "alert", "WKT": "POINT(518802 464782)" }, "geometry": { "type": "Point", "coordinates": [ -5.192950815569102, 34.783142244764022 ] } },
{ "type": "Feature", "properties": { "review_id": "bb320a81-378a-4558-98c8-d4cb3ccea775", "run_id": "e60088e9-cf94-4e41-ae65-a5390866b4b8", "source_layer": "infra.mine", "source_id": "34", "source_name": "HAMADA MINERALS", "source_type": "MINE", "master_site_id_candidate": "3c07866d-d4d8-4278-a85d-9bf043e99bff", "master_site_name": "HAMADA MINERALS", "master_site_type": "infra.mine_inventaire_pollution", "distance_m": "0.43", "score": "0.740", "review_bucket": "VERY_CLOSE_2M", "review_action_default": "NEED_REVIEW", "suggested_decision": "NEED_REVIEW", "business_decision": "", "comments": "", "qa_color": "#f59e0b", "qa_icon": "alert", "WKT": "POINT(464122 320055)" }, "geometry": { "type": "Point", "coordinates": [ -5.784552954177634, 33.477673572412989 ] } },
{ "type": "Feature", "properties": { "review_id": "21deb7e5-b4a7-48de-936f-b6f4f714f07b", "run_id": "e60088e9-cf94-4e41-ae65-a5390866b4b8", "source_layer": "infra.mine", "source_id": "35", "source_name": "société OUZAID MINE", "source_type": "MINE", "master_site_id_candidate": "0d14cb69-bd63-4250-a713-81a95239c592", "master_site_name": "société OUZAID MINE", "master_site_type": "infra.mine_inventaire_pollution", "distance_m": "0.43", "score": "0.740", "review_bucket": "VERY_CLOSE_2M", "review_action_default": "NEED_REVIEW", "suggested_decision": "NEED_REVIEW", "business_decision": "", "comments": "", "qa_color": "#f59e0b", "qa_icon": "alert", "WKT": "POINT(473272 317155)" }, "geometry": { "type": "Point", "coordinates": [ -5.685988267942183, 33.451782663082021 ] } },
{ "type": "Feature", "properties": { "review_id": "cc67a894-282f-41af-9097-b3a50e801804", "run_id": "e60088e9-cf94-4e41-ae65-a5390866b4b8", "source_layer": "infra.huilerie", "source_id": "210", "source_name": "Sidi Bousber", "source_type": "HUILERIE", "master_site_id_candidate": "efd38c21-4d78-4771-a63b-0854015b6503", "master_site_name": "Sidi Bousber", "master_site_type": "infra.huilerie_inventaire_pollution", "distance_m": "0.44", "score": "0.740", "review_bucket": "VERY_CLOSE_2M", "review_action_default": "NEED_REVIEW", "suggested_decision": "NEED_REVIEW", "business_decision": "", "comments": "", "qa_color": "#f59e0b", "qa_icon": "alert", "WKT": "POINT(504425 438668)" }, "geometry": { "type": "Point", "coordinates": [ -5.350169191043557, 34.547882418170907 ] } },
{ "type": "Feature", "properties": { "review_id": "06658f15-9d71-464d-bed3-90fd94a743d8", "run_id": "e60088e9-cf94-4e41-ae65-a5390866b4b8", "source_layer": "infra.huilerie", "source_id": "217", "source_name": "Huillerie Lhaj Azouz", "source_type": "HUILERIE", "master_site_id_candidate": "e1c9c773-efed-46f9-be40-b3b96d284713", "master_site_name": "Huillerie Lhaj Azouz", "master_site_type": "infra.huilerie_inventaire_pollution", "distance_m": "0.44", "score": "0.740", "review_bucket": "VERY_CLOSE_2M", "review_action_default": "NEED_REVIEW", "suggested_decision": "NEED_REVIEW", "business_decision": "", "comments": "", "qa_color": "#f59e0b", "qa_icon": "alert", "WKT": "POINT(503390 465614)" }, "geometry": { "type": "Point", "coordinates": [ -5.361337767060438, 34.79080587605236 ] } },
{ "type": "Feature", "properties": { "review_id": "abe82718-51a1-4037-9bca-29d7c83b1f30", "run_id": "e60088e9-cf94-4e41-ae65-a5390866b4b8", "source_layer": "infra.huilerie", "source_id": "64", "source_name": "Les huileries de Saiss", "source_type": "HUILERIE", "master_site_id_candidate": "6dfc9a71-4a64-438c-8dea-25c0bb4b9271", "master_site_name": "Les huileries de Saiss", "master_site_type": "infra.huilerie_inventaire_pollution", "distance_m": "0.44", "score": "0.740", "review_bucket": "VERY_CLOSE_2M", "review_action_default": "NEED_REVIEW", "suggested_decision": "NEED_REVIEW", "business_decision": "", "comments": "", "qa_color": "#f59e0b", "qa_icon": "alert", "WKT": "POINT(515183 371517)" }, "geometry": { "type": "Point", "coordinates": [ -5.234111902164621, 33.942282337292959 ] } },
{ "type": "Feature", "properties": { "review_id": "bf0cf794-4a08-462c-9674-75c1f640f011", "run_id": "e60088e9-cf94-4e41-ae65-a5390866b4b8", "source_layer": "infra.decharge", "source_id": "11", "source_name": "décharge inzalt boulemane", "source_type": "DECHARGE", "master_site_id_candidate": "276ae862-9501-41ec-8a73-c0c112abd909", "master_site_name": "Décharge Inzalt Boulemane", "master_site_type": "infra.decharge_inventaire_pollution_general", "distance_m": "0.45", "score": "0.740", "review_bucket": "VERY_CLOSE_2M", "review_action_default": "NEED_REVIEW", "suggested_decision": "NEED_REVIEW", "business_decision": "", "comments": "", "qa_color": "#f59e0b", "qa_icon": "alert", "WKT": "POINT(562912.2 312432.6)" }, "geometry": { "type": "Point", "coordinates": [ -4.721832355434482, 33.407669701265952 ] } },
{ "type": "Feature", "properties": { "review_id": "476f77a8-be3e-49d9-b291-5fbff4a9f2d5", "run_id": "e60088e9-cf94-4e41-ae65-a5390866b4b8", "source_layer": "infra.huilerie", "source_id": "541", "source_name": "H.VOLUBILIS S.A.R.L", "source_type": "HUILERIE", "master_site_id_candidate": "fafa5783-8785-4a3d-8372-f19cdc72a4d1", "master_site_name": "H.VOLUBILIS S.A.R.L", "master_site_type": "infra.huilerie_inventaire_pollution", "distance_m": "0.45", "score": "0.740", "review_bucket": "VERY_CLOSE_2M", "review_action_default": "NEED_REVIEW", "suggested_decision": "NEED_REVIEW", "business_decision": "", "comments": "", "qa_color": "#f59e0b", "qa_icon": "alert", "WKT": "POINT(484873 375959)" }, "geometry": { "type": "Point", "coordinates": [ -5.562149209340935, 33.982345644657237 ] } },
{ "type": "Feature", "properties": { "review_id": "7e5c8b6b-ec7c-4a29-a5fe-7d30f670e7c2", "run_id": "e60088e9-cf94-4e41-ae65-a5390866b4b8", "source_layer": "infra.huilerie", "source_id": "112", "source_name": "H.AIN SANIA", "source_type": "HUILERIE", "master_site_id_candidate": "ff9f454a-c0be-442d-b8db-22c5da5b642c", "master_site_name": "H.AIN SANIA", "master_site_type": "infra.huilerie_inventaire_pollution", "distance_m": "0.46", "score": "0.740", "review_bucket": "VERY_CLOSE_2M", "review_action_default": "NEED_REVIEW", "suggested_decision": "NEED_REVIEW", "business_decision": "", "comments": "", "qa_color": "#f59e0b", "qa_icon": "alert", "WKT": "POINT(537170 390467)" }, "geometry": { "type": "Point", "coordinates": [ -4.99541316128288, 34.112628093265094 ] } },
{ "type": "Feature", "properties": { "review_id": "4135a285-aa1f-4fc3-a684-276f17c4b687", "run_id": "e60088e9-cf94-4e41-ae65-a5390866b4b8", "source_layer": "infra.huilerie", "source_id": "197", "source_name": "Zeit Jbala", "source_type": "HUILERIE", "master_site_id_candidate": "e1cbf4f2-84f9-470b-a191-5a0c2a01c7e3", "master_site_name": "Zeit Jbala", "master_site_type": "infra.huilerie_inventaire_pollution", "distance_m": "0.46", "score": "0.740", "review_bucket": "VERY_CLOSE_2M", "review_action_default": "NEED_REVIEW", "suggested_decision": "NEED_REVIEW", "business_decision": "", "comments": "", "qa_color": "#f59e0b", "qa_icon": "alert", "WKT": "POINT(486533 464377)" }, "geometry": { "type": "Point", "coordinates": [ -5.545513466963484, 34.779577324770315 ] } },
{ "type": "Feature", "properties": { "review_id": "7774aaf4-9615-4624-bf19-171c43d1b441", "run_id": "e60088e9-cf94-4e41-ae65-a5390866b4b8", "source_layer": "infra.huilerie", "source_id": "209", "source_name": "Ste Hawd", "source_type": "HUILERIE", "master_site_id_candidate": "a377460c-b728-48d8-b067-b893fd8ebc85", "master_site_name": "Ste Hawd", "master_site_type": "infra.huilerie_inventaire_pollution", "distance_m": "0.46", "score": "0.740", "review_bucket": "VERY_CLOSE_2M", "review_action_default": "NEED_REVIEW", "suggested_decision": "NEED_REVIEW", "business_decision": "", "comments": "", "qa_color": "#f59e0b", "qa_icon": "alert", "WKT": "POINT(504372 438760)" }, "geometry": { "type": "Point", "coordinates": [ -5.350746213265785, 34.548712086969573 ] } },
{ "type": "Feature", "properties": { "review_id": "32bedec0-6f26-4ac9-b900-27afc322759d", "run_id": "e60088e9-cf94-4e41-ae65-a5390866b4b8", "source_layer": "infra.huilerie", "source_id": "226", "source_name": "Elaasmi", "source_type": "HUILERIE", "master_site_id_candidate": "a2fca49b-069d-4475-9c8d-e0df04402607", "master_site_name": "Elaasmi", "master_site_type": "infra.huilerie_inventaire_pollution", "distance_m": "0.46", "score": "0.740", "review_bucket": "VERY_CLOSE_2M", "review_action_default": "NEED_REVIEW", "suggested_decision": "NEED_REVIEW", "business_decision": "", "comments": "", "qa_color": "#f59e0b", "qa_icon": "alert", "WKT": "POINT(473475 460862)" }, "geometry": { "type": "Point", "coordinates": [ -5.688071743977116, 34.747646786086058 ] } },
{ "type": "Feature", "properties": { "review_id": "7cafd824-325c-48cb-a27d-f324edd82d64", "run_id": "e60088e9-cf94-4e41-ae65-a5390866b4b8", "source_layer": "infra.huilerie", "source_id": "37", "source_name": "H.BRAHIM ZNIBAR", "source_type": "HUILERIE", "master_site_id_candidate": "1cdb97c4-2e83-44ee-af52-05eb07008047", "master_site_name": "H.BRAHIM ZNIBAR", "master_site_type": "infra.huilerie_inventaire_pollution", "distance_m": "0.46", "score": "0.740", "review_bucket": "VERY_CLOSE_2M", "review_action_default": "NEED_REVIEW", "suggested_decision": "NEED_REVIEW", "business_decision": "", "comments": "", "qa_color": "#f59e0b", "qa_icon": "alert", "WKT": "POINT(503164 354100)" }, "geometry": { "type": "Point", "coordinates": [ -5.364225440312037, 33.785313973848822 ] } },
{ "type": "Feature", "properties": { "review_id": "6376b812-91dd-4730-8c73-dc14ef3b7f99", "run_id": "e60088e9-cf94-4e41-ae65-a5390866b4b8", "source_layer": "infra.huilerie", "source_id": "432", "source_name": "Non-connue 4", "source_type": "HUILERIE", "master_site_id_candidate": "95e27c80-297e-4e0c-8079-66b9d3f3c7a7", "master_site_name": "Non-connue 4", "master_site_type": "infra.huilerie_inventaire_pollution", "distance_m": "0.46", "score": "0.740", "review_bucket": "VERY_CLOSE_2M", "review_action_default": "NEED_REVIEW", "suggested_decision": "NEED_REVIEW", "business_decision": "", "comments": "", "qa_color": "#f59e0b", "qa_icon": "alert", "WKT": "POINT(590492 363357)" }, "geometry": { "type": "Point", "coordinates": [ -4.42010478446537, 33.864965412674167 ] } },
{ "type": "Feature", "properties": { "review_id": "9d04b1d4-d63d-4389-b9dd-f806ab8d3455", "run_id": "e60088e9-cf94-4e41-ae65-a5390866b4b8", "source_layer": "infra.decharge", "source_id": "15", "source_name": "décharge serghina", "source_type": "DECHARGE", "master_site_id_candidate": "3334e12e-dbb8-43d7-a6de-881dde8e7302", "master_site_name": "Décharge Serghina", "master_site_type": "infra.decharge_inventaire_pollution_general", "distance_m": "0.47", "score": "0.740", "review_bucket": "VERY_CLOSE_2M", "review_action_default": "NEED_REVIEW", "suggested_decision": "NEED_REVIEW", "business_decision": "", "comments": "", "qa_color": "#f59e0b", "qa_icon": "alert", "WKT": "POINT(595821.59 305750.78)" }, "geometry": { "type": "Point", "coordinates": [ -4.36864574930439, 33.344973658718644 ] } },
{ "type": "Feature", "properties": { "review_id": "36f72252-1702-4268-839a-7150b28e6823", "run_id": "e60088e9-cf94-4e41-ae65-a5390866b4b8", "source_layer": "infra.decharge", "source_id": "85", "source_name": "décharge zoumi", "source_type": "DECHARGE", "master_site_id_candidate": "98538950-7d92-443c-9445-6627c69b0ad1", "master_site_name": "Décharge zoumi", "master_site_type": "infra.decharge_inventaire_pollution_general", "distance_m": "0.47", "score": "0.740", "review_bucket": "VERY_CLOSE_2M", "review_action_default": "NEED_REVIEW", "suggested_decision": "NEED_REVIEW", "business_decision": "", "comments": "", "qa_color": "#f59e0b", "qa_icon": "alert", "WKT": "POINT(506192.22 466032.42)" }, "geometry": { "type": "Point", "coordinates": [ -5.330715180457815, 34.794564595512192 ] } },
{ "type": "Feature", "properties": { "review_id": "80acb33a-57b4-486c-9ef5-f31d4a24b028", "run_id": "e60088e9-cf94-4e41-ae65-a5390866b4b8", "source_layer": "infra.huilerie", "source_id": "536", "source_name": "H.lalla joumana", "source_type": "HUILERIE", "master_site_id_candidate": "71370851-16ec-4862-b6fa-27cf12ebf194", "master_site_name": "H.lalla joumana", "master_site_type": "infra.huilerie_inventaire_pollution", "distance_m": "0.47", "score": "0.740", "review_bucket": "VERY_CLOSE_2M", "review_action_default": "NEED_REVIEW", "suggested_decision": "NEED_REVIEW", "business_decision": "", "comments": "", "qa_color": "#f59e0b", "qa_icon": "alert", "WKT": "POINT(495703 371117)" }, "geometry": { "type": "Point", "coordinates": [ -5.444889093411787, 33.93877696536159 ] } },
{ "type": "Feature", "properties": { "review_id": "9696b461-4693-4e3a-9895-aecc7ef095f5", "run_id": "e60088e9-cf94-4e41-ae65-a5390866b4b8", "source_layer": "infra.huilerie", "source_id": "592", "source_name": "Zemouri huilerie", "source_type": "HUILERIE", "master_site_id_candidate": "3227e0cc-9633-442c-a682-9aa1e6b09e8c", "master_site_name": "Zemouri huilerie", "master_site_type": "infra.huilerie_inventaire_pollution", "distance_m": "0.47", "score": "0.740", "review_bucket": "VERY_CLOSE_2M", "review_action_default": "NEED_REVIEW", "suggested_decision": "NEED_REVIEW", "business_decision": "", "comments": "", "qa_color": "#f59e0b", "qa_icon": "alert", "WKT": "POINT(512484 374635)" }, "geometry": { "type": "Point", "coordinates": [ -5.263271583849347, 33.970436020802588 ] } },
{ "type": "Feature", "properties": { "review_id": "29569931-5196-4573-8ab6-2832158fe9aa", "run_id": "e60088e9-cf94-4e41-ae65-a5390866b4b8", "source_layer": "infra.huilerie", "source_id": "214", "source_name": "AJAMS", "source_type": "HUILERIE", "master_site_id_candidate": "7a7caa89-c98d-4acb-b6c5-462ef66a0895", "master_site_name": "AJAMS", "master_site_type": "infra.huilerie_inventaire_pollution", "distance_m": "0.48", "score": "0.740", "review_bucket": "VERY_CLOSE_2M", "review_action_default": "NEED_REVIEW", "suggested_decision": "NEED_REVIEW", "business_decision": "", "comments": "", "qa_color": "#f59e0b", "qa_icon": "alert", "WKT": "POINT(498938 455748)" }, "geometry": { "type": "Point", "coordinates": [ -5.409974052081436, 34.701872952415854 ] } },
{ "type": "Feature", "properties": { "review_id": "71e7b46f-2ffb-4ed2-969a-8a0446822baf", "run_id": "e60088e9-cf94-4e41-ae65-a5390866b4b8", "source_layer": "infra.huilerie", "source_id": "220", "source_name": "Huillerie Zoyoute Janat", "source_type": "HUILERIE", "master_site_id_candidate": "0724cbcf-c126-4091-a17e-03aca72364f5", "master_site_name": "Huillerie Zoyoute Janat", "master_site_type": "infra.huilerie_inventaire_pollution", "distance_m": "0.48", "score": "0.740", "review_bucket": "VERY_CLOSE_2M", "review_action_default": "NEED_REVIEW", "suggested_decision": "NEED_REVIEW", "business_decision": "", "comments": "", "qa_color": "#f59e0b", "qa_icon": "alert", "WKT": "POINT(511691 462322)" }, "geometry": { "type": "Point", "coordinates": [ -5.270678294641594, 34.761069945037775 ] } },
{ "type": "Feature", "properties": { "review_id": "502c06b1-a536-4ada-84bd-486ef3db8e80", "run_id": "e60088e9-cf94-4e41-ae65-a5390866b4b8", "source_layer": "infra.huilerie", "source_id": "229", "source_name": "Erradouania", "source_type": "HUILERIE", "master_site_id_candidate": "1198a38f-e288-47ed-8ad3-786f65467676", "master_site_name": "Erradouania", "master_site_type": "infra.huilerie_inventaire_pollution", "distance_m": "0.48", "score": "0.740", "review_bucket": "VERY_CLOSE_2M", "review_action_default": "NEED_REVIEW", "suggested_decision": "NEED_REVIEW", "business_decision": "", "comments": "", "qa_color": "#f59e0b", "qa_icon": "alert", "WKT": "POINT(494987 454790)" }, "geometry": { "type": "Point", "coordinates": [ -5.45309633548192, 34.693225929047102 ] } },
{ "type": "Feature", "properties": { "review_id": "7fa69395-088c-4b97-b4c9-1695a5159d26", "run_id": "e60088e9-cf94-4e41-ae65-a5390866b4b8", "source_layer": "infra.huilerie", "source_id": "231", "source_name": "Huillerie Boudroua", "source_type": "HUILERIE", "master_site_id_candidate": "5215cb91-8545-4006-be93-92d830a7625a", "master_site_name": "Huillerie Boudroua", "master_site_type": "infra.huilerie_inventaire_pollution", "distance_m": "0.48", "score": "0.740", "review_bucket": "VERY_CLOSE_2M", "review_action_default": "NEED_REVIEW", "suggested_decision": "NEED_REVIEW", "business_decision": "", "comments": "", "qa_color": "#f59e0b", "qa_icon": "alert", "WKT": "POINT(486463 464867)" }, "geometry": { "type": "Point", "coordinates": [ -5.54628574991937, 34.783993518249794 ] } },
{ "type": "Feature", "properties": { "review_id": "bb63abd4-43e3-45d6-83b2-88a8c0156ef2", "run_id": "e60088e9-cf94-4e41-ae65-a5390866b4b8", "source_layer": "infra.huilerie", "source_id": "35", "source_name": "H.NACHATE", "source_type": "HUILERIE", "master_site_id_candidate": "9670b40b-2291-463b-a96b-e71f352d2fd0", "master_site_name": "H.NACHATE", "master_site_type": "infra.huilerie_inventaire_pollution", "distance_m": "0.48", "score": "0.740", "review_bucket": "VERY_CLOSE_2M", "review_action_default": "NEED_REVIEW", "suggested_decision": "NEED_REVIEW", "business_decision": "", "comments": "", "qa_color": "#f59e0b", "qa_icon": "alert", "WKT": "POINT(511777 364651)" }, "geometry": { "type": "Point", "coordinates": [ -5.271057536004218, 33.880406573326205 ] } },
{ "type": "Feature", "properties": { "review_id": "1bc8251a-3819-4203-abf1-59360f1730fe", "run_id": "e60088e9-cf94-4e41-ae65-a5390866b4b8", "source_layer": "infra.huilerie", "source_id": "58", "source_name": "SOCIETE HSBC", "source_type": "HUILERIE", "master_site_id_candidate": "e93aae6f-f7cf-4980-b997-026fc9b0b3de", "master_site_name": "SOCIETE HSBC", "master_site_type": "infra.huilerie_inventaire_pollution", "distance_m": "0.48", "score": "0.740", "review_bucket": "VERY_CLOSE_2M", "review_action_default": "NEED_REVIEW", "suggested_decision": "NEED_REVIEW", "business_decision": "", "comments": "", "qa_color": "#f59e0b", "qa_icon": "alert", "WKT": "POINT(516433 372510)" }, "geometry": { "type": "Point", "coordinates": [ -5.220568104180218, 33.951218670068322 ] } },
{ "type": "Feature", "properties": { "review_id": "3348823c-1460-4859-87aa-a8e6e369d9d0", "run_id": "e60088e9-cf94-4e41-ae65-a5390866b4b8", "source_layer": "infra.huilerie", "source_id": "604", "source_name": "Fakir Bouchta", "source_type": "HUILERIE", "master_site_id_candidate": "73a8443c-2e8e-481e-8d0d-d20f70261f70", "master_site_name": "Fakir Bouchta", "master_site_type": "infra.huilerie_inventaire_pollution", "distance_m": "0.48", "score": "0.740", "review_bucket": "VERY_CLOSE_2M", "review_action_default": "NEED_REVIEW", "suggested_decision": "NEED_REVIEW", "business_decision": "", "comments": "", "qa_color": "#f59e0b", "qa_icon": "alert", "WKT": "POINT(495482 370669)" }, "geometry": { "type": "Point", "coordinates": [ -5.447278082621414, 33.934735951361709 ] } },
{ "type": "Feature", "properties": { "review_id": "71180663-fe40-44bc-bf12-2a8082d878db", "run_id": "e60088e9-cf94-4e41-ae65-a5390866b4b8", "source_layer": "infra.huilerie", "source_id": "218", "source_name": "Elchatbyenne", "source_type": "HUILERIE", "master_site_id_candidate": "62b7db1c-0a09-4f3c-b51d-6eeabe385a88", "master_site_name": "Elchatbyenne", "master_site_type": "infra.huilerie_inventaire_pollution", "distance_m": "0.49", "score": "0.740", "review_bucket": "VERY_CLOSE_2M", "review_action_default": "NEED_REVIEW", "suggested_decision": "NEED_REVIEW", "business_decision": "", "comments": "", "qa_color": "#f59e0b", "qa_icon": "alert", "WKT": "POINT(497736 460111)" }, "geometry": { "type": "Point", "coordinates": [ -5.423105139568862, 34.74120271772572 ] } },
{ "type": "Feature", "properties": { "review_id": "3baa8050-6cfa-4e70-9019-7fa0113fa880", "run_id": "e60088e9-cf94-4e41-ae65-a5390866b4b8", "source_layer": "infra.huilerie", "source_id": "25", "source_name": "H.ZAYTOUNA", "source_type": "HUILERIE", "master_site_id_candidate": "8a7aa555-8128-4a64-b281-defa41b6a10d", "master_site_name": "H.ZAYTOUNA", "master_site_type": "infra.huilerie_inventaire_pollution", "distance_m": "0.50", "score": "0.740", "review_bucket": "VERY_CLOSE_2M", "review_action_default": "NEED_REVIEW", "suggested_decision": "NEED_REVIEW", "business_decision": "", "comments": "", "qa_color": "#f59e0b", "qa_icon": "alert", "WKT": "POINT(476254 339437)" }, "geometry": { "type": "Point", "coordinates": [ -5.654487838826147, 33.652817119572902 ] } },
{ "type": "Feature", "properties": { "review_id": "6a76a6c1-3214-4352-ad81-c3f5f29205ef", "run_id": "e60088e9-cf94-4e41-ae65-a5390866b4b8", "source_layer": "infra.huilerie", "source_id": "33", "source_name": "H.AFRIQUIA", "source_type": "HUILERIE", "master_site_id_candidate": "7e05d762-77f8-40e8-9b7c-2ca56fda5840", "master_site_name": "H.AFRIQUIA", "master_site_type": "infra.huilerie_inventaire_pollution", "distance_m": "0.50", "score": "0.740", "review_bucket": "VERY_CLOSE_2M", "review_action_default": "NEED_REVIEW", "suggested_decision": "NEED_REVIEW", "business_decision": "", "comments": "", "qa_color": "#f59e0b", "qa_icon": "alert", "WKT": "POINT(508544 372171)" }, "geometry": { "type": "Point", "coordinates": [ -5.305941292945954, 33.948254771937314 ] } },
{ "type": "Feature", "properties": { "review_id": "ad228d6f-fce6-4b8d-b352-27ec03ada328", "run_id": "e60088e9-cf94-4e41-ae65-a5390866b4b8", "source_layer": "infra.huilerie", "source_id": "608", "source_name": "Omari Thami", "source_type": "HUILERIE", "master_site_id_candidate": "3a25f7af-3664-4a19-bcc9-32325dca413d", "master_site_name": "Omari Thami", "master_site_type": "infra.huilerie_inventaire_pollution", "distance_m": "0.50", "score": "0.740", "review_bucket": "VERY_CLOSE_2M", "review_action_default": "NEED_REVIEW", "suggested_decision": "NEED_REVIEW", "business_decision": "", "comments": "", "qa_color": "#f59e0b", "qa_icon": "alert", "WKT": "POINT(494198 379375)" }, "geometry": { "type": "Point", "coordinates": [ -5.461225341701387, 34.013240944236415 ] } },
{ "type": "Feature", "properties": { "review_id": "a9c5dd9f-cb8d-49af-be0b-b21f32a27514", "run_id": "e60088e9-cf94-4e41-ae65-a5390866b4b8", "source_layer": "infra.mine", "source_id": "18", "source_name": "HAMADA MINERALS", "source_type": "MINE", "master_site_id_candidate": "e8fc176d-c484-4855-bb1d-84ec361ffc30", "master_site_name": "HAMADA MINERALS", "master_site_type": "infra.mine_inventaire_pollution", "distance_m": "0.51", "score": "0.740", "review_bucket": "VERY_CLOSE_2M", "review_action_default": "NEED_REVIEW", "suggested_decision": "NEED_REVIEW", "business_decision": "", "comments": "", "qa_color": "#f59e0b", "qa_icon": "alert", "WKT": "POINT(461587 320335)" }, "geometry": { "type": "Point", "coordinates": [ -5.81184830267394, 33.480111729949442 ] } },
{ "type": "Feature", "properties": { "review_id": "f7c22a5c-53f0-4b3a-9473-a6743649236f", "run_id": "e60088e9-cf94-4e41-ae65-a5390866b4b8", "source_layer": "infra.decharge", "source_id": "83", "source_name": "décharge souk", "source_type": "DECHARGE", "master_site_id_candidate": "e1e55eb3-7b2c-40f9-9a91-3dad806cdda0", "master_site_name": "Décharge Souk", "master_site_type": "infra.decharge_inventaire_pollution_general", "distance_m": "0.52", "score": "0.740", "review_bucket": "VERY_CLOSE_2M", "review_action_default": "NEED_REVIEW", "suggested_decision": "NEED_REVIEW", "business_decision": "", "comments": "", "qa_color": "#f59e0b", "qa_icon": "alert", "WKT": "POINT(503845.82 440764.49)" }, "geometry": { "type": "Point", "coordinates": [ -5.356470482185015, 34.566785927023631 ] } },
{ "type": "Feature", "properties": { "review_id": "d3c7a6d3-e830-41e8-9dda-cd3c014ff1ac", "run_id": "e60088e9-cf94-4e41-ae65-a5390866b4b8", "source_layer": "infra.huilerie", "source_id": "547", "source_name": "H.EL BARAKA", "source_type": "HUILERIE", "master_site_id_candidate": "920698c1-3a10-493e-8830-3872f68e588d", "master_site_name": "H.EL BARAKA", "master_site_type": "infra.huilerie_inventaire_pollution", "distance_m": "0.52", "score": "0.740", "review_bucket": "VERY_CLOSE_2M", "review_action_default": "NEED_REVIEW", "suggested_decision": "NEED_REVIEW", "business_decision": "", "comments": "", "qa_color": "#f59e0b", "qa_icon": "alert", "WKT": "POINT(486171 390378)" }, "geometry": { "type": "Point", "coordinates": [ -5.548319827813225, 34.112390334881717 ] } },
{ "type": "Feature", "properties": { "review_id": "5dbb99d7-c420-439c-a1b0-b148cda9c02c", "run_id": "e60088e9-cf94-4e41-ae65-a5390866b4b8", "source_layer": "infra.huilerie", "source_id": "203", "source_name": "Huillerie Edahbia", "source_type": "HUILERIE", "master_site_id_candidate": "bfd6ff02-d6ce-47a8-a25f-157f54c65336", "master_site_name": "Huillerie Edahbia", "master_site_type": "infra.huilerie_inventaire_pollution", "distance_m": "0.53", "score": "0.740", "review_bucket": "VERY_CLOSE_2M", "review_action_default": "NEED_REVIEW", "suggested_decision": "NEED_REVIEW", "business_decision": "", "comments": "", "qa_color": "#f59e0b", "qa_icon": "alert", "WKT": "POINT(513609 460358)" }, "geometry": { "type": "Point", "coordinates": [ -5.249758671984003, 34.743342096389156 ] } },
{ "type": "Feature", "properties": { "review_id": "361aabdc-c812-40d1-955e-44a90a1a9803", "run_id": "e60088e9-cf94-4e41-ae65-a5390866b4b8", "source_layer": "infra.mine", "source_id": "7", "source_name": "ZMF CONSULTING", "source_type": "MINE", "master_site_id_candidate": "c390f4da-f617-4b7c-a36b-e7613d7c7eb5", "master_site_name": "ZMF CONSULTING", "master_site_type": "infra.mine_inventaire_pollution", "distance_m": "0.53", "score": "0.740", "review_bucket": "VERY_CLOSE_2M", "review_action_default": "NEED_REVIEW", "suggested_decision": "NEED_REVIEW", "business_decision": "", "comments": "", "qa_color": "#f59e0b", "qa_icon": "alert", "WKT": "POINT(612493 329071)" }, "geometry": { "type": "Point", "coordinates": [ -4.186584992399182, 33.55367851171291 ] } },
{ "type": "Feature", "properties": { "review_id": "50be0253-4588-4f03-82e1-2d6df2306da9", "run_id": "e60088e9-cf94-4e41-ae65-a5390866b4b8", "source_layer": "infra.decharge", "source_id": "34", "source_name": "imouzzer marmoucha", "source_type": "DECHARGE", "master_site_id_candidate": "68a01c0a-edee-42d0-9489-84dfe9493944", "master_site_name": "Imouzzer Marmoucha", "master_site_type": "infra.decharge_inventaire_pollution_general", "distance_m": "0.55", "score": "0.740", "review_bucket": "VERY_CLOSE_2M", "review_action_default": "NEED_REVIEW", "suggested_decision": "NEED_REVIEW", "business_decision": "", "comments": "", "qa_color": "#f59e0b", "qa_icon": "alert", "WKT": "POINT(604620.69 320925.46)" }, "geometry": { "type": "Point", "coordinates": [ -4.27232983922765, 33.48101278088604 ] } },
{ "type": "Feature", "properties": { "review_id": "5b0e6c1b-2f94-4acd-b884-8a2368f4602a", "run_id": "e60088e9-cf94-4e41-ae65-a5390866b4b8", "source_layer": "infra.huilerie", "source_id": "34", "source_name": "Huilerie Délices de Saiss", "source_type": "HUILERIE", "master_site_id_candidate": "1ee204a6-d553-43fe-9bbe-9ad1bf6de7d7", "master_site_name": "Huilerie Délices de Saiss", "master_site_type": "infra.huilerie_inventaire_pollution", "distance_m": "0.55", "score": "0.740", "review_bucket": "VERY_CLOSE_2M", "review_action_default": "NEED_REVIEW", "suggested_decision": "NEED_REVIEW", "business_decision": "", "comments": "", "qa_color": "#f59e0b", "qa_icon": "alert", "WKT": "POINT(511479 373584)" }, "geometry": { "type": "Point", "coordinates": [ -5.274163191639174, 33.960969447491237 ] } },
{ "type": "Feature", "properties": { "review_id": "bb841654-94f8-438f-8853-63075708b049", "run_id": "e60088e9-cf94-4e41-ae65-a5390866b4b8", "source_layer": "infra.huilerie", "source_id": "140", "source_name": "H,EL MASIRA", "source_type": "HUILERIE", "master_site_id_candidate": "2e1c7830-d70d-4491-8b9a-603772af536f", "master_site_name": "H,EL MASIRA", "master_site_type": "infra.huilerie_inventaire_pollution", "distance_m": "0.57", "score": "0.740", "review_bucket": "VERY_CLOSE_2M", "review_action_default": "NEED_REVIEW", "suggested_decision": "NEED_REVIEW", "business_decision": "", "comments": "", "qa_color": "#f59e0b", "qa_icon": "alert", "WKT": "POINT(531600 375663)" }, "geometry": { "type": "Point", "coordinates": [ -5.056328615803824, 33.979309711536473 ] } },
{ "type": "Feature", "properties": { "review_id": "93cf0554-f0f8-4973-bcf0-dd117c527603", "run_id": "e60088e9-cf94-4e41-ae65-a5390866b4b8", "source_layer": "infra.decharge", "source_id": "82", "source_name": "décharge public", "source_type": "DECHARGE", "master_site_id_candidate": "22d98ec2-005f-4044-bbae-9ed5f96e285e", "master_site_name": "Décharge Public", "master_site_type": "infra.decharge_inventaire_pollution_general", "distance_m": "0.58", "score": "0.740", "review_bucket": "VERY_CLOSE_2M", "review_action_default": "NEED_REVIEW", "suggested_decision": "NEED_REVIEW", "business_decision": "", "comments": "", "qa_color": "#f59e0b", "qa_icon": "alert", "WKT": "POINT(505539.31 480409.51)" }, "geometry": { "type": "Point", "coordinates": [ -5.337755964503963, 34.924163443367348 ] } },
{ "type": "Feature", "properties": { "review_id": "892adfe6-1b21-4690-a0f4-f129fdd24baf", "run_id": "e60088e9-cf94-4e41-ae65-a5390866b4b8", "source_layer": "infra.huilerie", "source_id": "120", "source_name": "H.EL OUATYA", "source_type": "HUILERIE", "master_site_id_candidate": "1ec3a544-7331-4551-b576-c267e4fe81f8", "master_site_name": "H.EL OUATYA", "master_site_type": "infra.huilerie_inventaire_pollution", "distance_m": "0.58", "score": "0.740", "review_bucket": "VERY_CLOSE_2M", "review_action_default": "NEED_REVIEW", "suggested_decision": "NEED_REVIEW", "business_decision": "", "comments": "", "qa_color": "#f59e0b", "qa_icon": "alert", "WKT": "POINT(521795 399808)" }, "geometry": { "type": "Point", "coordinates": [ -5.161869838402233, 34.197286121724879 ] } },
{ "type": "Feature", "properties": { "review_id": "94f21dac-2a1c-4806-90d3-d378e1a40314", "run_id": "e60088e9-cf94-4e41-ae65-a5390866b4b8", "source_layer": "infra.huilerie", "source_id": "542", "source_name": "H.JBEL ZARHOUN", "source_type": "HUILERIE", "master_site_id_candidate": "1194c91e-b63a-4eb8-8eeb-899f73e3b724", "master_site_name": "H.JBEL ZARHOUN", "master_site_type": "infra.huilerie_inventaire_pollution", "distance_m": "0.59", "score": "0.740", "review_bucket": "VERY_CLOSE_2M", "review_action_default": "NEED_REVIEW", "suggested_decision": "NEED_REVIEW", "business_decision": "", "comments": "", "qa_color": "#f59e0b", "qa_icon": "alert", "WKT": "POINT(484817 375835)" }, "geometry": { "type": "Point", "coordinates": [ -5.562753330146865, 33.981226626681725 ] } },
{ "type": "Feature", "properties": { "review_id": "6da07a69-604f-4ab2-9441-5334dcdf7736", "run_id": "e60088e9-cf94-4e41-ae65-a5390866b4b8", "source_layer": "infra.huilerie", "source_id": "602", "source_name": "Bakir Mustafa", "source_type": "HUILERIE", "master_site_id_candidate": "ac6176c6-6cf1-4264-97bc-436dda75cc16", "master_site_name": "Bakir Mustafa", "master_site_type": "infra.huilerie_inventaire_pollution", "distance_m": "0.59", "score": "0.740", "review_bucket": "VERY_CLOSE_2M", "review_action_default": "NEED_REVIEW", "suggested_decision": "NEED_REVIEW", "business_decision": "", "comments": "", "qa_color": "#f59e0b", "qa_icon": "alert", "WKT": "POINT(502786 370347)" }, "geometry": { "type": "Point", "coordinates": [ -5.368254716122006, 33.931836985662159 ] } },
{ "type": "Feature", "properties": { "review_id": "43714f08-70a3-4cb4-8259-a91b5c029a5d", "run_id": "e60088e9-cf94-4e41-ae65-a5390866b4b8", "source_layer": "infra.mine", "source_id": "31", "source_name": "STE MINIERE BOUHRAMAT", "source_type": "MINE", "master_site_id_candidate": "6e598f87-c726-4220-b656-8dd2cb1f3859", "master_site_name": "STE MINIERE BOUHRAMAT", "master_site_type": "infra.mine_inventaire_pollution", "distance_m": "0.62", "score": "0.740", "review_bucket": "VERY_CLOSE_2M", "review_action_default": "NEED_REVIEW", "suggested_decision": "NEED_REVIEW", "business_decision": "", "comments": "", "qa_color": "#f59e0b", "qa_icon": "alert", "WKT": "POINT(529798 389796)" }, "geometry": { "type": "Point", "coordinates": [ -5.075358996881823, 34.106809629430927 ] } },
{ "type": "Feature", "properties": { "review_id": "e76bcfc9-142c-4f08-8b9a-aba7f6834df5", "run_id": "e60088e9-cf94-4e41-ae65-a5390866b4b8", "source_layer": "infra.mine", "source_id": "39", "source_name": "STE BENI KHELEF", "source_type": "MINE", "master_site_id_candidate": "3732e36b-e2d3-49bc-abfb-3f5e9d4e74ec", "master_site_name": "STE BENI KHELEF", "master_site_type": "infra.mine_inventaire_pollution", "distance_m": "0.64", "score": "0.740", "review_bucket": "VERY_CLOSE_2M", "review_action_default": "NEED_REVIEW", "suggested_decision": "NEED_REVIEW", "business_decision": "", "comments": "", "qa_color": "#f59e0b", "qa_icon": "alert", "WKT": "POINT(492779 312243)" }, "geometry": { "type": "Point", "coordinates": [ -5.476062108367946, 33.407784441916327 ] } },
{ "type": "Feature", "properties": { "review_id": "c97e58a4-0b87-4599-bf92-f9509739286b", "run_id": "e60088e9-cf94-4e41-ae65-a5390866b4b8", "source_layer": "infra.huilerie", "source_id": "581", "source_name": "H.el ouaste Mohammed", "source_type": "HUILERIE", "master_site_id_candidate": "2243dcd3-cc81-4541-b65d-36e5ac9d8f9a", "master_site_name": "H.el ouaste Mohammed", "master_site_type": "infra.huilerie_inventaire_pollution", "distance_m": "0.66", "score": "0.740", "review_bucket": "VERY_CLOSE_2M", "review_action_default": "NEED_REVIEW", "suggested_decision": "NEED_REVIEW", "business_decision": "", "comments": "", "qa_color": "#f59e0b", "qa_icon": "alert", "WKT": "POINT(488083 383911)" }, "geometry": { "type": "Point", "coordinates": [ -5.527505297537314, 34.054095975607623 ] } },
{ "type": "Feature", "properties": { "review_id": "2bd81a36-9b1e-4b51-b256-03948c507657", "run_id": "e60088e9-cf94-4e41-ae65-a5390866b4b8", "source_layer": "infra.huilerie", "source_id": "29", "source_name": "MAASARA AIT KRAT (Ait Aziz)", "source_type": "HUILERIE", "master_site_id_candidate": "41128b7c-4675-403d-8750-289dc0c24159", "master_site_name": "MAASARA AIT KRAT (Ait Aziz)", "master_site_type": "infra.huilerie_inventaire_pollution", "distance_m": "0.67", "score": "0.740", "review_bucket": "VERY_CLOSE_2M", "review_action_default": "NEED_REVIEW", "suggested_decision": "NEED_REVIEW", "business_decision": "", "comments": "", "qa_color": "#f59e0b", "qa_icon": "alert", "WKT": "POINT(474719 356160)" }, "geometry": { "type": "Point", "coordinates": [ -5.671510990283294, 33.803602583698357 ] } },
{ "type": "Feature", "properties": { "review_id": "11e83436-bac0-4840-ae3c-951fd12c6cde", "run_id": "e60088e9-cf94-4e41-ae65-a5390866b4b8", "source_layer": "infra.huilerie", "source_id": "222", "source_name": "Al Mahmoudi", "source_type": "HUILERIE", "master_site_id_candidate": "3553520c-f5c0-4b11-b7bb-b64909203643", "master_site_name": "Al Mahmoudi", "master_site_type": "infra.huilerie_inventaire_pollution", "distance_m": "0.68", "score": "0.740", "review_bucket": "VERY_CLOSE_2M", "review_action_default": "NEED_REVIEW", "suggested_decision": "NEED_REVIEW", "business_decision": "", "comments": "", "qa_color": "#f59e0b", "qa_icon": "alert", "WKT": "POINT(486807 464649)" }, "geometry": { "type": "Point", "coordinates": [ -5.542523948312485, 34.782032660926234 ] } }
]
}
