{
"type": "FeatureCollection",
"name": "review_orphans",
"crs": { "type": "name", "properties": { "name": "urn:ogc:def:crs:OGC:1.3:CRS84" } },
"features": [
{ "type": "Feature", "properties": { "review_id": "985a534d-4dc8-4509-83a0-b12f6457268c", "run_id": "e60088e9-cf94-4e41-ae65-a5390866b4b8", "source_layer": "infra.decharge", "source_id": "1", "source_name": "abdelghaya souahel", "source_type": "DECHARGE", "master_site_id_candidate": "", "master_site_name": "", "master_site_type": "", "distance_m": "", "score": "", "review_bucket": "ORPHAN", "review_action_default": "NEED_SOURCE_FIX", "suggested_decision": "WAIT_SOURCE_FIX", "business_decision": "", "comments": "", "qa_color": "#dc2626", "qa_icon": "warning", "WKT": "POINT(567943 460094)" }, "geometry": { "type": "Point", "coordinates": [ -4.656416548529148, 34.738864398193527 ] } },
{ "type": "Feature", "properties": { "review_id": "48896de1-57f4-4708-af44-3e12f9130083", "run_id": "e60088e9-cf94-4e41-ae65-a5390866b4b8", "source_layer": "infra.decharge", "source_id": "213", "source_name": " abdellah aghazi", "source_type": "DECHARGE", "master_site_id_candidate": "", "master_site_name": "", "master_site_type": "", "distance_m": "", "score": "", "review_bucket": "ORPHAN", "review_action_default": "NEED_SOURCE_FIX", "suggested_decision": "WAIT_SOURCE_FIX", "business_decision": "", "comments": "", "qa_color": "#dc2626", "qa_icon": "warning", "WKT": "POINT(593691 423445)" }, "geometry": { "type": "Point", "coordinates": [ -4.379168804006158, 34.406503112243215 ] } },
{ "type": "Feature", "properties": { "review_id": "5248aa8a-e784-4d09-9eb9-33dcd68dfdf8", "run_id": "e60088e9-cf94-4e41-ae65-a5390866b4b8", "source_layer": "infra.decharge", "source_id": "220", "source_name": "lakriaat", "source_type": "DECHARGE", "master_site_id_candidate": "", "master_site_name": "", "master_site_type": "", "distance_m": "", "score": "", "review_bucket": "ORPHAN", "review_action_default": "NEED_SOURCE_FIX", "suggested_decision": "WAIT_SOURCE_FIX", "business_decision": "", "comments": "", "qa_color": "#dc2626", "qa_icon": "warning", "WKT": "POINT(412959 363508)" }, "geometry": { "type": "Point", "coordinates": [ -6.33939952331558, 33.866638266241061 ] } },
{ "type": "Feature", "properties": { "review_id": "26f5a3b0-b519-4fb5-a64f-cdd205e13964", "run_id": "e60088e9-cf94-4e41-ae65-a5390866b4b8", "source_layer": "infra.decharge", "source_id": "5", "source_name": "bni bouchibet", "source_type": "DECHARGE", "master_site_id_candidate": "", "master_site_name": "", "master_site_type": "", "distance_m": "", "score": "", "review_bucket": "ORPHAN", "review_action_default": "NEED_SOURCE_FIX", "suggested_decision": "WAIT_SOURCE_FIX", "business_decision": "", "comments": "", "qa_color": "#dc2626", "qa_icon": "warning", "WKT": "POINT(577069 456097)" }, "geometry": { "type": "Point", "coordinates": [ -4.557113678443428, 34.702207989477834 ] } },
{ "type": "Feature", "properties": { "review_id": "3de86d50-495e-4684-b76b-68d2db684702", "run_id": "e60088e9-cf94-4e41-ae65-a5390866b4b8", "source_layer": "infra.decharge", "source_id": "62", "source_name": "souk el arbaa", "source_type": "DECHARGE", "master_site_id_candidate": "", "master_site_name": "", "master_site_type": "", "distance_m": "", "score": "", "review_bucket": "ORPHAN", "review_action_default": "NEED_SOURCE_FIX", "suggested_decision": "WAIT_SOURCE_FIX", "business_decision": "", "comments": "", "qa_color": "#dc2626", "qa_icon": "warning", "WKT": "POINT(447951 451975)" }, "geometry": { "type": "Point", "coordinates": [ -5.966299638457361, 34.666590619556217 ] } },
{ "type": "Feature", "properties": { "review_id": "ce6f5de2-4a0a-445d-81f2-0a6baab00aa3", "run_id": "e60088e9-cf94-4e41-ae65-a5390866b4b8", "source_layer": "infra.decharge_inventaire_pollution_general", "source_id": "63b2199f-73e3-4674-a0bb-1b98da2ec4f1", "source_name": "Abdellah aghazi", "source_type": "DECHARGE", "master_site_id_candidate": "", "master_site_name": "", "master_site_type": "", "distance_m": "", "score": "", "review_bucket": "ORPHAN", "review_action_default": "NEED_SOURCE_FIX", "suggested_decision": "WAIT_SOURCE_FIX", "business_decision": "", "comments": "", "qa_color": "#dc2626", "qa_icon": "warning", "WKT": "POINT(593691 423445)" }, "geometry": { "type": "Point", "coordinates": [ -4.379168804006158, 34.406503112243215 ] } },
{ "type": "Feature", "properties": { "review_id": "76afba5f-a0ba-4402-b4e6-d3fb2019cb11", "run_id": "e60088e9-cf94-4e41-ae65-a5390866b4b8", "source_layer": "infra.decharge_inventaire_pollution_general", "source_id": "dd44f8f2-ffc0-49c7-bac3-a36217215403", "source_name": "Bni bouchibet", "source_type": "DECHARGE", "master_site_id_candidate": "", "master_site_name": "", "master_site_type": "", "distance_m": "", "score": "", "review_bucket": "ORPHAN", "review_action_default": "NEED_SOURCE_FIX", "suggested_decision": "WAIT_SOURCE_FIX", "business_decision": "", "comments": "", "qa_color": "#dc2626", "qa_icon": "warning", "WKT": "POINT(577069 456097)" }, "geometry": { "type": "Point", "coordinates": [ -4.557113678443428, 34.702207989477834 ] } },
{ "type": "Feature", "properties": { "review_id": "a027bc84-f068-4f68-b0c3-2b599f296f84", "run_id": "e60088e9-cf94-4e41-ae65-a5390866b4b8", "source_layer": "infra.decharge_inventaire_pollution_general", "source_id": "fbb5a30a-7c18-4d6c-97e0-ada925082995", "source_name": "Abdelghaya souahel", "source_type": "DECHARGE", "master_site_id_candidate": "", "master_site_name": "", "master_site_type": "", "distance_m": "", "score": "", "review_bucket": "ORPHAN", "review_action_default": "NEED_SOURCE_FIX", "suggested_decision": "WAIT_SOURCE_FIX", "business_decision": "", "comments": "", "qa_color": "#dc2626", "qa_icon": "warning", "WKT": "POINT(567943 460094)" }, "geometry": { "type": "Point", "coordinates": [ -4.656416548529148, 34.738864398193527 ] } },
{ "type": "Feature", "properties": { "review_id": "aab5aaac-dcf8-49c4-99a3-6635d5c4db9a", "run_id": "e60088e9-cf94-4e41-ae65-a5390866b4b8", "source_layer": "infra.fosses_septiques_abhs", "source_id": "7", "source_name": "", "source_type": "FOSSE_SEPTIQUE", "master_site_id_candidate": "", "master_site_name": "", "master_site_type": "", "distance_m": "", "score": "", "review_bucket": "ORPHAN", "review_action_default": "NEED_SOURCE_FIX", "suggested_decision": "WAIT_SOURCE_FIX", "business_decision": "", "comments": "", "qa_color": "#dc2626", "qa_icon": "warning", "WKT": "POINT(533825 372036)" }, "geometry": { "type": "Point", "coordinates": [ -5.032381720087598, 33.946532970226826 ] } },
{ "type": "Feature", "properties": { "review_id": "a6754450-ce31-4bdf-9a03-70ef4391446e", "run_id": "e60088e9-cf94-4e41-ae65-a5390866b4b8", "source_layer": "infra.huilerie", "source_id": "114", "source_name": "H.SOUK SABT", "source_type": "HUILERIE", "master_site_id_candidate": "", "master_site_name": "", "master_site_type": "", "distance_m": "", "score": "", "review_bucket": "ORPHAN", "review_action_default": "NEED_SOURCE_FIX", "suggested_decision": "WAIT_SOURCE_FIX", "business_decision": "", "comments": "", "qa_color": "#dc2626", "qa_icon": "warning", "WKT": "POINT(515701 383670)" }, "geometry": { "type": "Point", "coordinates": [ -5.228290607675241, 34.051869869309755 ] } },
{ "type": "Feature", "properties": { "review_id": "bab4ef94-8d5f-4d8c-b4cc-7adcc79e2310", "run_id": "e60088e9-cf94-4e41-ae65-a5390866b4b8", "source_layer": "infra.huilerie", "source_id": "12", "source_name": "Societe Hajjy Invest", "source_type": "HUILERIE", "master_site_id_candidate": "", "master_site_name": "", "master_site_type": "", "distance_m": "", "score": "", "review_bucket": "ORPHAN", "review_action_default": "NEED_SOURCE_FIX", "suggested_decision": "WAIT_SOURCE_FIX", "business_decision": "", "comments": "", "qa_color": "#dc2626", "qa_icon": "warning", "WKT": "POINT(537080 474321)" }, "geometry": { "type": "Point", "coordinates": [ -4.992841591641028, 34.868643388071071 ] } },
{ "type": "Feature", "properties": { "review_id": "67c4630a-ff85-451c-9069-5aeff33e06d4", "run_id": "e60088e9-cf94-4e41-ae65-a5390866b4b8", "source_layer": "infra.huilerie", "source_id": "16", "source_name": "Huilerie Aromane ", "source_type": "HUILERIE", "master_site_id_candidate": "", "master_site_name": "", "master_site_type": "", "distance_m": "", "score": "", "review_bucket": "ORPHAN", "review_action_default": "NEED_SOURCE_FIX", "suggested_decision": "WAIT_SOURCE_FIX", "business_decision": "", "comments": "", "qa_color": "#dc2626", "qa_icon": "warning", "WKT": "POINT(530858 476455)" }, "geometry": { "type": "Point", "coordinates": [ -5.060814003722754, 34.888079503454563 ] } },
{ "type": "Feature", "properties": { "review_id": "0873926f-d7eb-47db-9f59-0a7f4d9c8305", "run_id": "e60088e9-cf94-4e41-ae65-a5390866b4b8", "source_layer": "infra.huilerie", "source_id": "20", "source_name": "Olivier El Hmaidii", "source_type": "HUILERIE", "master_site_id_candidate": "", "master_site_name": "", "master_site_type": "", "distance_m": "", "score": "", "review_bucket": "ORPHAN", "review_action_default": "NEED_SOURCE_FIX", "suggested_decision": "WAIT_SOURCE_FIX", "business_decision": "", "comments": "", "qa_color": "#dc2626", "qa_icon": "warning", "WKT": "POINT(526718 468945)" }, "geometry": { "type": "Point", "coordinates": [ -5.106333556453545, 34.820497585266246 ] } },
{ "type": "Feature", "properties": { "review_id": "47c4f386-b086-4337-8c14-a242eb9db51e", "run_id": "e60088e9-cf94-4e41-ae65-a5390866b4b8", "source_layer": "infra.huilerie", "source_id": "237", "source_name": "Huilerie Quassemy Fréres", "source_type": "HUILERIE", "master_site_id_candidate": "", "master_site_name": "", "master_site_type": "", "distance_m": "", "score": "", "review_bucket": "ORPHAN", "review_action_default": "NEED_SOURCE_FIX", "suggested_decision": "WAIT_SOURCE_FIX", "business_decision": "", "comments": "", "qa_color": "#dc2626", "qa_icon": "warning", "WKT": "POINT(556287 444918)" }, "geometry": { "type": "Point", "coordinates": [ -4.784678637363533, 34.602739151448773 ] } },
{ "type": "Feature", "properties": { "review_id": "d68cdbbb-1fd6-4c85-845d-b10a0518a412", "run_id": "e60088e9-cf94-4e41-ae65-a5390866b4b8", "source_layer": "infra.huilerie", "source_id": "238", "source_name": "Huilerie Jaouda", "source_type": "HUILERIE", "master_site_id_candidate": "", "master_site_name": "", "master_site_type": "", "distance_m": "", "score": "", "review_bucket": "ORPHAN", "review_action_default": "NEED_SOURCE_FIX", "suggested_decision": "WAIT_SOURCE_FIX", "business_decision": "", "comments": "", "qa_color": "#dc2626", "qa_icon": "warning", "WKT": "POINT(556277 444747)" }, "geometry": { "type": "Point", "coordinates": [ -4.784798657957331, 34.601198076029803 ] } },
{ "type": "Feature", "properties": { "review_id": "3bec9bf9-459d-4fad-9696-0bea6be16738", "run_id": "e60088e9-cf94-4e41-ae65-a5390866b4b8", "source_layer": "infra.huilerie", "source_id": "257", "source_name": "Huilerie Ain jouari", "source_type": "HUILERIE", "master_site_id_candidate": "", "master_site_name": "", "master_site_type": "", "distance_m": "", "score": "", "review_bucket": "ORPHAN", "review_action_default": "NEED_SOURCE_FIX", "suggested_decision": "WAIT_SOURCE_FIX", "business_decision": "", "comments": "", "qa_color": "#dc2626", "qa_icon": "warning", "WKT": "POINT(584300 428137)" }, "geometry": { "type": "Point", "coordinates": [ -4.480873753828949, 34.449592501583318 ] } },
{ "type": "Feature", "properties": { "review_id": "da135d3c-19ce-4b8d-b593-4d981dbcc109", "run_id": "e60088e9-cf94-4e41-ae65-a5390866b4b8", "source_layer": "infra.huilerie", "source_id": "261", "source_name": "Huilerie Tamidet", "source_type": "HUILERIE", "master_site_id_candidate": "", "master_site_name": "", "master_site_type": "", "distance_m": "", "score": "", "review_bucket": "ORPHAN", "review_action_default": "NEED_SOURCE_FIX", "suggested_decision": "WAIT_SOURCE_FIX", "business_decision": "", "comments": "", "qa_color": "#dc2626", "qa_icon": "warning", "WKT": "POINT(605829 451473)" }, "geometry": { "type": "Point", "coordinates": [ -4.243757465295481, 34.658041079910767 ] } },
{ "type": "Feature", "properties": { "review_id": "1503e43f-7aed-4e75-b740-ed3d40c4cebc", "run_id": "e60088e9-cf94-4e41-ae65-a5390866b4b8", "source_layer": "infra.huilerie", "source_id": "262", "source_name": "Société Barakat allah", "source_type": "HUILERIE", "master_site_id_candidate": "", "master_site_name": "", "master_site_type": "", "distance_m": "", "score": "", "review_bucket": "ORPHAN", "review_action_default": "NEED_SOURCE_FIX", "suggested_decision": "WAIT_SOURCE_FIX", "business_decision": "", "comments": "", "qa_color": "#dc2626", "qa_icon": "warning", "WKT": "POINT(592495 449066)" }, "geometry": { "type": "Point", "coordinates": [ -4.389479782583856, 34.637590694761727 ] } },
{ "type": "Feature", "properties": { "review_id": "3e3b2eed-da59-4509-a6a3-db4bb7b4d5af", "run_id": "e60088e9-cf94-4e41-ae65-a5390866b4b8", "source_layer": "infra.huilerie", "source_id": "263", "source_name": "Huilerie Serraf Ikhouan", "source_type": "HUILERIE", "master_site_id_candidate": "", "master_site_name": "", "master_site_type": "", "distance_m": "", "score": "", "review_bucket": "ORPHAN", "review_action_default": "NEED_SOURCE_FIX", "suggested_decision": "WAIT_SOURCE_FIX", "business_decision": "", "comments": "", "qa_color": "#dc2626", "qa_icon": "warning", "WKT": "POINT(594587 449528)" }, "geometry": { "type": "Point", "coordinates": [ -4.366612555991304, 34.641570826911959 ] } },
{ "type": "Feature", "properties": { "review_id": "37d756a6-5fa9-4193-894d-866a2a8aef2f", "run_id": "e60088e9-cf94-4e41-ae65-a5390866b4b8", "source_layer": "infra.huilerie", "source_id": "314", "source_name": "Sté boulmakol", "source_type": "HUILERIE", "master_site_id_candidate": "", "master_site_name": "", "master_site_type": "", "distance_m": "", "score": "", "review_bucket": "ORPHAN", "review_action_default": "NEED_SOURCE_FIX", "suggested_decision": "WAIT_SOURCE_FIX", "business_decision": "", "comments": "", "qa_color": "#dc2626", "qa_icon": "warning", "WKT": "POINT(619603 460778)" }, "geometry": { "type": "Point", "coordinates": [ -4.092221798016878, 34.740452906822213 ] } },
{ "type": "Feature", "properties": { "review_id": "42e10973-1ea1-431c-8305-fc7566df8135", "run_id": "e60088e9-cf94-4e41-ae65-a5390866b4b8", "source_layer": "infra.huilerie", "source_id": "317", "source_name": "Meknasa olive", "source_type": "HUILERIE", "master_site_id_candidate": "", "master_site_name": "", "master_site_type": "", "distance_m": "", "score": "", "review_bucket": "ORPHAN", "review_action_default": "NEED_SOURCE_FIX", "suggested_decision": "WAIT_SOURCE_FIX", "business_decision": "", "comments": "", "qa_color": "#dc2626", "qa_icon": "warning", "WKT": "POINT(623087 408146)" }, "geometry": { "type": "Point", "coordinates": [ -4.061549595806702, 34.265569970743663 ] } },
{ "type": "Feature", "properties": { "review_id": "a0192a23-22c6-43bc-a71e-95298528f2d1", "run_id": "e60088e9-cf94-4e41-ae65-a5390866b4b8", "source_layer": "infra.huilerie", "source_id": "327", "source_name": "Barada fréro", "source_type": "HUILERIE", "master_site_id_candidate": "", "master_site_name": "", "master_site_type": "", "distance_m": "", "score": "", "review_bucket": "ORPHAN", "review_action_default": "NEED_SOURCE_FIX", "suggested_decision": "WAIT_SOURCE_FIX", "business_decision": "", "comments": "", "qa_color": "#dc2626", "qa_icon": "warning", "WKT": "POINT(624193 434462)" }, "geometry": { "type": "Point", "coordinates": [ -4.045830065206597, 34.502697973581533 ] } },
{ "type": "Feature", "properties": { "review_id": "13395266-e70e-48d9-b01b-6c663964dec2", "run_id": "e60088e9-cf94-4e41-ae65-a5390866b4b8", "source_layer": "infra.huilerie", "source_id": "329", "source_name": "Huile taza", "source_type": "HUILERIE", "master_site_id_candidate": "", "master_site_name": "", "master_site_type": "", "distance_m": "", "score": "", "review_bucket": "ORPHAN", "review_action_default": "NEED_SOURCE_FIX", "suggested_decision": "WAIT_SOURCE_FIX", "business_decision": "", "comments": "", "qa_color": "#dc2626", "qa_icon": "warning", "WKT": "POINT(630175 405032)" }, "geometry": { "type": "Point", "coordinates": [ -3.985035006399383, 34.236650323866527 ] } },
{ "type": "Feature", "properties": { "review_id": "4d40d699-28f9-4248-a245-dd7aca732323", "run_id": "e60088e9-cf94-4e41-ae65-a5390866b4b8", "source_layer": "infra.huilerie", "source_id": "332", "source_name": "Huile bouchfaa", "source_type": "HUILERIE", "master_site_id_candidate": "", "master_site_name": "", "master_site_type": "", "distance_m": "", "score": "", "review_bucket": "ORPHAN", "review_action_default": "NEED_SOURCE_FIX", "suggested_decision": "WAIT_SOURCE_FIX", "business_decision": "", "comments": "", "qa_color": "#dc2626", "qa_icon": "warning", "WKT": "POINT(602214 389774)" }, "geometry": { "type": "Point", "coordinates": [ -4.290352727805561, 34.102123596109976 ] } },
{ "type": "Feature", "properties": { "review_id": "de931fa8-d480-4c0c-b068-de6bf3601cbf", "run_id": "e60088e9-cf94-4e41-ae65-a5390866b4b8", "source_layer": "infra.huilerie", "source_id": "347", "source_name": "Najat", "source_type": "HUILERIE", "master_site_id_candidate": "", "master_site_name": "", "master_site_type": "", "distance_m": "", "score": "", "review_bucket": "ORPHAN", "review_action_default": "NEED_SOURCE_FIX", "suggested_decision": "WAIT_SOURCE_FIX", "business_decision": "", "comments": "", "qa_color": "#dc2626", "qa_icon": "warning", "WKT": "POINT(588177 384718)" }, "geometry": { "type": "Point", "coordinates": [ -4.443012760300857, 34.05778586380481 ] } },
{ "type": "Feature", "properties": { "review_id": "2cacc41b-efe6-4fb1-b384-53d77ae598c5", "run_id": "e60088e9-cf94-4e41-ae65-a5390866b4b8", "source_layer": "infra.huilerie", "source_id": "348", "source_name": "Sté oumatan", "source_type": "HUILERIE", "master_site_id_candidate": "", "master_site_name": "", "master_site_type": "", "distance_m": "", "score": "", "review_bucket": "ORPHAN", "review_action_default": "NEED_SOURCE_FIX", "suggested_decision": "WAIT_SOURCE_FIX", "business_decision": "", "comments": "", "qa_color": "#dc2626", "qa_icon": "warning", "WKT": "POINT(588666 383992)" }, "geometry": { "type": "Point", "coordinates": [ -4.43778736439132, 34.051198700410097 ] } },
{ "type": "Feature", "properties": { "review_id": "76dd8091-cb75-4a08-9a5e-99181741c40d", "run_id": "e60088e9-cf94-4e41-ae65-a5390866b4b8", "source_layer": "infra.huilerie", "source_id": "427", "source_name": "EVOO FACTORY", "source_type": "HUILERIE", "master_site_id_candidate": "", "master_site_name": "", "master_site_type": "", "distance_m": "", "score": "", "review_bucket": "ORPHAN", "review_action_default": "NEED_SOURCE_FIX", "suggested_decision": "WAIT_SOURCE_FIX", "business_decision": "", "comments": "", "qa_color": "#dc2626", "qa_icon": "warning", "WKT": "POINT(523507 370050)" }, "geometry": { "type": "Point", "coordinates": [ -5.144083139412749, 33.928900996681833 ] } },
{ "type": "Feature", "properties": { "review_id": "2e366ad3-8ee9-4aea-9266-0645952823a4", "run_id": "e60088e9-cf94-4e41-ae65-a5390866b4b8", "source_layer": "infra.huilerie", "source_id": "428", "source_name": "ALBADIYA OLIVE OIL SARL AU", "source_type": "HUILERIE", "master_site_id_candidate": "", "master_site_name": "", "master_site_type": "", "distance_m": "", "score": "", "review_bucket": "ORPHAN", "review_action_default": "NEED_SOURCE_FIX", "suggested_decision": "WAIT_SOURCE_FIX", "business_decision": "", "comments": "", "qa_color": "#dc2626", "qa_icon": "warning", "WKT": "POINT(513840 372194)" }, "geometry": { "type": "Point", "coordinates": [ -5.248632886901861, 33.948406016640135 ] } },
{ "type": "Feature", "properties": { "review_id": "2b2ddfc6-335f-4f21-9c0e-d79f22816934", "run_id": "e60088e9-cf94-4e41-ae65-a5390866b4b8", "source_layer": "infra.huilerie", "source_id": "429", "source_name": "Les huileries de meknes 1", "source_type": "HUILERIE", "master_site_id_candidate": "", "master_site_name": "", "master_site_type": "", "distance_m": "", "score": "", "review_bucket": "ORPHAN", "review_action_default": "NEED_SOURCE_FIX", "suggested_decision": "WAIT_SOURCE_FIX", "business_decision": "", "comments": "", "qa_color": "#dc2626", "qa_icon": "warning", "WKT": "POINT(482844 356834)" }, "geometry": { "type": "Point", "coordinates": [ -5.583749150255335, 33.809840889196742 ] } },
{ "type": "Feature", "properties": { "review_id": "5d4b5ef2-073c-4b7e-a59f-1c5cebef4217", "run_id": "e60088e9-cf94-4e41-ae65-a5390866b4b8", "source_layer": "infra.huilerie", "source_id": "458", "source_name": "Non-connue 7", "source_type": "HUILERIE", "master_site_id_candidate": "", "master_site_name": "", "master_site_type": "", "distance_m": "", "score": "", "review_bucket": "ORPHAN", "review_action_default": "NEED_SOURCE_FIX", "suggested_decision": "WAIT_SOURCE_FIX", "business_decision": "", "comments": "", "qa_color": "#dc2626", "qa_icon": "warning", "WKT": "POINT(538367 356657)" }, "geometry": { "type": "Point", "coordinates": [ -4.983897590138405, 33.807687057851759 ] } },
{ "type": "Feature", "properties": { "review_id": "b053f77a-b662-4e3a-ac48-935f01e3d981", "run_id": "e60088e9-cf94-4e41-ae65-a5390866b4b8", "source_layer": "infra.huilerie", "source_id": "485", "source_name": "Huilerie IDRISSIA", "source_type": "HUILERIE", "master_site_id_candidate": "", "master_site_name": "", "master_site_type": "", "distance_m": "", "score": "", "review_bucket": "ORPHAN", "review_action_default": "NEED_SOURCE_FIX", "suggested_decision": "WAIT_SOURCE_FIX", "business_decision": "", "comments": "", "qa_color": "#dc2626", "qa_icon": "warning", "WKT": "POINT(538629 379452)" }, "geometry": { "type": "Point", "coordinates": [ -4.980076089300027, 34.013246618425335 ] } },
{ "type": "Feature", "properties": { "review_id": "092c413b-f1ab-4322-ade6-c4d359b89bc2", "run_id": "e60088e9-cf94-4e41-ae65-a5390866b4b8", "source_layer": "infra.huilerie", "source_id": "557", "source_name": "ZYOUT MEKNESS", "source_type": "HUILERIE", "master_site_id_candidate": "", "master_site_name": "", "master_site_type": "", "distance_m": "", "score": "", "review_bucket": "ORPHAN", "review_action_default": "NEED_SOURCE_FIX", "suggested_decision": "WAIT_SOURCE_FIX", "business_decision": "", "comments": "", "qa_color": "#dc2626", "qa_icon": "warning", "WKT": "POINT(475724.28 361423)" }, "geometry": { "type": "Point", "coordinates": [ -5.660793004557238, 33.851089881088427 ] } },
{ "type": "Feature", "properties": { "review_id": "0b0f5be3-75ba-41c3-9aac-0060f36eb3e8", "run_id": "e60088e9-cf94-4e41-ae65-a5390866b4b8", "source_layer": "infra.huilerie", "source_id": "610", "source_name": "Conserves bio", "source_type": "HUILERIE", "master_site_id_candidate": "", "master_site_name": "", "master_site_type": "", "distance_m": "", "score": "", "review_bucket": "ORPHAN", "review_action_default": "NEED_SOURCE_FIX", "suggested_decision": "WAIT_SOURCE_FIX", "business_decision": "", "comments": "", "qa_color": "#dc2626", "qa_icon": "warning", "WKT": "POINT(473582 367767)" }, "geometry": { "type": "Point", "coordinates": [ -5.684135381217708, 33.908251583056746 ] } },
{ "type": "Feature", "properties": { "review_id": "9d84ab17-a766-43c8-8612-82c0ae3b0ea9", "run_id": "e60088e9-cf94-4e41-ae65-a5390866b4b8", "source_layer": "infra.huilerie", "source_id": "611", "source_name": "Les conserves de meknes (aicha)", "source_type": "HUILERIE", "master_site_id_candidate": "", "master_site_name": "", "master_site_type": "", "distance_m": "", "score": "", "review_bucket": "ORPHAN", "review_action_default": "NEED_SOURCE_FIX", "suggested_decision": "WAIT_SOURCE_FIX", "business_decision": "", "comments": "", "qa_color": "#dc2626", "qa_icon": "warning", "WKT": "POINT(489812 366262)" }, "geometry": { "type": "Point", "coordinates": [ -5.508574089797934, 33.894954462009679 ] } },
{ "type": "Feature", "properties": { "review_id": "b4bbec2e-9d8d-4522-a036-87fcb18419c8", "run_id": "e60088e9-cf94-4e41-ae65-a5390866b4b8", "source_layer": "infra.huilerie", "source_id": "612", "source_name": "Les coserves oualili", "source_type": "HUILERIE", "master_site_id_candidate": "", "master_site_name": "", "master_site_type": "", "distance_m": "", "score": "", "review_bucket": "ORPHAN", "review_action_default": "NEED_SOURCE_FIX", "suggested_decision": "WAIT_SOURCE_FIX", "business_decision": "", "comments": "", "qa_color": "#dc2626", "qa_icon": "warning", "WKT": "POINT(492836 367421)" }, "geometry": { "type": "Point", "coordinates": [ -5.475880494017965, 33.905430731715384 ] } },
{ "type": "Feature", "properties": { "review_id": "e10c6127-12ed-4a78-90f3-2ce9b908e24f", "run_id": "e60088e9-cf94-4e41-ae65-a5390866b4b8", "source_layer": "infra.huilerie", "source_id": "82", "source_name": "Huilerie Doukali", "source_type": "HUILERIE", "master_site_id_candidate": "", "master_site_name": "", "master_site_type": "", "distance_m": "", "score": "", "review_bucket": "ORPHAN", "review_action_default": "NEED_SOURCE_FIX", "suggested_decision": "WAIT_SOURCE_FIX", "business_decision": "", "comments": "", "qa_color": "#dc2626", "qa_icon": "warning", "WKT": "POINT(437163 359961)" }, "geometry": { "type": "Point", "coordinates": [ -6.077489421788629, 33.836341754515878 ] } },
{ "type": "Feature", "properties": { "review_id": "9edff55e-a7f2-4c4f-972b-9e939c15befe", "run_id": "e60088e9-cf94-4e41-ae65-a5390866b4b8", "source_layer": "infra.huilerie", "source_id": "87", "source_name": "Huilerie CHAIBI", "source_type": "HUILERIE", "master_site_id_candidate": "", "master_site_name": "", "master_site_type": "", "distance_m": "", "score": "", "review_bucket": "ORPHAN", "review_action_default": "NEED_SOURCE_FIX", "suggested_decision": "WAIT_SOURCE_FIX", "business_decision": "", "comments": "", "qa_color": "#dc2626", "qa_icon": "warning", "WKT": "POINT(461562 365680)" }, "geometry": { "type": "Point", "coordinates": [ -5.81405367640714, 33.889067953205753 ] } },
{ "type": "Feature", "properties": { "review_id": "95ca5c18-8607-4ef1-b1cc-dd7787c4f7d1", "run_id": "e60088e9-cf94-4e41-ae65-a5390866b4b8", "source_layer": "infra.huilerie", "source_id": "90", "source_name": "Huilerie IHYHAA", "source_type": "HUILERIE", "master_site_id_candidate": "", "master_site_name": "", "master_site_type": "", "distance_m": "", "score": "", "review_bucket": "ORPHAN", "review_action_default": "NEED_SOURCE_FIX", "suggested_decision": "WAIT_SOURCE_FIX", "business_decision": "", "comments": "", "qa_color": "#dc2626", "qa_icon": "warning", "WKT": "POINT(450981 365027)" }, "geometry": { "type": "Point", "coordinates": [ -5.928435810853228, 33.882748183841592 ] } },
{ "type": "Feature", "properties": { "review_id": "9847fcfd-6605-44df-80b3-5bd643de331a", "run_id": "e60088e9-cf94-4e41-ae65-a5390866b4b8", "source_layer": "infra.huilerie_inventaire_pollution", "source_id": "3ee1833e-4611-425e-82e4-558231a78bdf", "source_name": "Sté boulmakol", "source_type": "HUILERIE", "master_site_id_candidate": "", "master_site_name": "", "master_site_type": "", "distance_m": "", "score": "", "review_bucket": "ORPHAN", "review_action_default": "NEED_SOURCE_FIX", "suggested_decision": "WAIT_SOURCE_FIX", "business_decision": "", "comments": "", "qa_color": "#dc2626", "qa_icon": "warning", "WKT": "POINT(619603 460778)" }, "geometry": { "type": "Point", "coordinates": [ -4.092221798016878, 34.740452906822213 ] } },
{ "type": "Feature", "properties": { "review_id": "8c544a50-5592-492a-ba3f-4bc184346ed7", "run_id": "e60088e9-cf94-4e41-ae65-a5390866b4b8", "source_layer": "infra.huilerie_inventaire_pollution", "source_id": "4143059d-4ad8-418b-bd22-d82174f26e45", "source_name": "Societe Hajjy Invest", "source_type": "HUILERIE", "master_site_id_candidate": "", "master_site_name": "", "master_site_type": "", "distance_m": "", "score": "", "review_bucket": "ORPHAN", "review_action_default": "NEED_SOURCE_FIX", "suggested_decision": "WAIT_SOURCE_FIX", "business_decision": "", "comments": "", "qa_color": "#dc2626", "qa_icon": "warning", "WKT": "POINT(537080 474321)" }, "geometry": { "type": "Point", "coordinates": [ -4.992841591641028, 34.868643388071071 ] } },
{ "type": "Feature", "properties": { "review_id": "9bc91fca-619a-40ee-bc67-91b76a8d670c", "run_id": "e60088e9-cf94-4e41-ae65-a5390866b4b8", "source_layer": "infra.huilerie_inventaire_pollution", "source_id": "4bf6a654-fff4-4538-b8fd-5af64004b5aa", "source_name": "Huilerie CHAIBI", "source_type": "HUILERIE", "master_site_id_candidate": "", "master_site_name": "", "master_site_type": "", "distance_m": "", "score": "", "review_bucket": "ORPHAN", "review_action_default": "NEED_SOURCE_FIX", "suggested_decision": "WAIT_SOURCE_FIX", "business_decision": "", "comments": "", "qa_color": "#dc2626", "qa_icon": "warning", "WKT": "POINT(461562 365680)" }, "geometry": { "type": "Point", "coordinates": [ -5.81405367640714, 33.889067953205753 ] } },
{ "type": "Feature", "properties": { "review_id": "d67f70a6-47e4-40ee-9866-5970930cc29e", "run_id": "e60088e9-cf94-4e41-ae65-a5390866b4b8", "source_layer": "infra.huilerie_inventaire_pollution", "source_id": "5232a595-5fbb-4993-b058-cfd5d954b3a2", "source_name": "Huile taza", "source_type": "HUILERIE", "master_site_id_candidate": "", "master_site_name": "", "master_site_type": "", "distance_m": "", "score": "", "review_bucket": "ORPHAN", "review_action_default": "NEED_SOURCE_FIX", "suggested_decision": "WAIT_SOURCE_FIX", "business_decision": "", "comments": "", "qa_color": "#dc2626", "qa_icon": "warning", "WKT": "POINT(630175 405032)" }, "geometry": { "type": "Point", "coordinates": [ -3.985035006399383, 34.236650323866527 ] } },
{ "type": "Feature", "properties": { "review_id": "6a61b4c5-919d-4826-bb47-85f3f4675247", "run_id": "e60088e9-cf94-4e41-ae65-a5390866b4b8", "source_layer": "infra.huilerie_inventaire_pollution", "source_id": "73607441-f39a-4bf6-a5af-af7b19fa0b02", "source_name": "Huilerie Tamidet", "source_type": "HUILERIE", "master_site_id_candidate": "", "master_site_name": "", "master_site_type": "", "distance_m": "", "score": "", "review_bucket": "ORPHAN", "review_action_default": "NEED_SOURCE_FIX", "suggested_decision": "WAIT_SOURCE_FIX", "business_decision": "", "comments": "", "qa_color": "#dc2626", "qa_icon": "warning", "WKT": "POINT(605829 451473)" }, "geometry": { "type": "Point", "coordinates": [ -4.243757465295481, 34.658041079910767 ] } },
{ "type": "Feature", "properties": { "review_id": "c9ccfe66-5132-4d10-bdf5-5782af4a3fb2", "run_id": "e60088e9-cf94-4e41-ae65-a5390866b4b8", "source_layer": "infra.huilerie_inventaire_pollution", "source_id": "80bb765f-d3a9-4fe5-8322-071356943836", "source_name": "Olivier El Hmaidii", "source_type": "HUILERIE", "master_site_id_candidate": "", "master_site_name": "", "master_site_type": "", "distance_m": "", "score": "", "review_bucket": "ORPHAN", "review_action_default": "NEED_SOURCE_FIX", "suggested_decision": "WAIT_SOURCE_FIX", "business_decision": "", "comments": "", "qa_color": "#dc2626", "qa_icon": "warning", "WKT": "POINT(526718 468945)" }, "geometry": { "type": "Point", "coordinates": [ -5.106333556453545, 34.820497585266246 ] } },
{ "type": "Feature", "properties": { "review_id": "7ed5e587-2834-4130-a6e6-501f420bd073", "run_id": "e60088e9-cf94-4e41-ae65-a5390866b4b8", "source_layer": "infra.huilerie_inventaire_pollution", "source_id": "88d988b5-bc19-4a19-838e-aab54ada5555", "source_name": "Huilerie Serraf Ikhouan", "source_type": "HUILERIE", "master_site_id_candidate": "", "master_site_name": "", "master_site_type": "", "distance_m": "", "score": "", "review_bucket": "ORPHAN", "review_action_default": "NEED_SOURCE_FIX", "suggested_decision": "WAIT_SOURCE_FIX", "business_decision": "", "comments": "", "qa_color": "#dc2626", "qa_icon": "warning", "WKT": "POINT(594587 449528)" }, "geometry": { "type": "Point", "coordinates": [ -4.366612555991304, 34.641570826911959 ] } },
{ "type": "Feature", "properties": { "review_id": "2b8f3e22-6604-4149-826b-244c9beac815", "run_id": "e60088e9-cf94-4e41-ae65-a5390866b4b8", "source_layer": "infra.huilerie_inventaire_pollution", "source_id": "8a735aab-52b1-43c2-9ae8-04359e0df138", "source_name": "Najat", "source_type": "HUILERIE", "master_site_id_candidate": "", "master_site_name": "", "master_site_type": "", "distance_m": "", "score": "", "review_bucket": "ORPHAN", "review_action_default": "NEED_SOURCE_FIX", "suggested_decision": "WAIT_SOURCE_FIX", "business_decision": "", "comments": "", "qa_color": "#dc2626", "qa_icon": "warning", "WKT": "POINT(588177 384718)" }, "geometry": { "type": "Point", "coordinates": [ -4.443012760300857, 34.05778586380481 ] } },
{ "type": "Feature", "properties": { "review_id": "214a93ad-5966-41f6-96f0-4442ffcc2c71", "run_id": "e60088e9-cf94-4e41-ae65-a5390866b4b8", "source_layer": "infra.huilerie_inventaire_pollution", "source_id": "8e0de048-4d65-4c79-818b-31b01696a92e", "source_name": "Huilerie Aromane", "source_type": "HUILERIE", "master_site_id_candidate": "", "master_site_name": "", "master_site_type": "", "distance_m": "", "score": "", "review_bucket": "ORPHAN", "review_action_default": "NEED_SOURCE_FIX", "suggested_decision": "WAIT_SOURCE_FIX", "business_decision": "", "comments": "", "qa_color": "#dc2626", "qa_icon": "warning", "WKT": "POINT(530858 476455)" }, "geometry": { "type": "Point", "coordinates": [ -5.060814003722754, 34.888079503454563 ] } },
{ "type": "Feature", "properties": { "review_id": "48764998-faa9-47d9-ba65-72c1fb299bab", "run_id": "e60088e9-cf94-4e41-ae65-a5390866b4b8", "source_layer": "infra.huilerie_inventaire_pollution", "source_id": "8f8ae2fb-0414-48ba-81f2-e97e45205bd4", "source_name": "Huilerie Quassemy Fréres", "source_type": "HUILERIE", "master_site_id_candidate": "", "master_site_name": "", "master_site_type": "", "distance_m": "", "score": "", "review_bucket": "ORPHAN", "review_action_default": "NEED_SOURCE_FIX", "suggested_decision": "WAIT_SOURCE_FIX", "business_decision": "", "comments": "", "qa_color": "#dc2626", "qa_icon": "warning", "WKT": "POINT(556287 444918)" }, "geometry": { "type": "Point", "coordinates": [ -4.784678637363533, 34.602739151448773 ] } },
{ "type": "Feature", "properties": { "review_id": "f6814483-a5ab-4a21-976f-036fe076d36b", "run_id": "e60088e9-cf94-4e41-ae65-a5390866b4b8", "source_layer": "infra.huilerie_inventaire_pollution", "source_id": "a2478ab2-0ed4-41c8-a76a-66b785dd7247", "source_name": "Société Barakat allah", "source_type": "HUILERIE", "master_site_id_candidate": "", "master_site_name": "", "master_site_type": "", "distance_m": "", "score": "", "review_bucket": "ORPHAN", "review_action_default": "NEED_SOURCE_FIX", "suggested_decision": "WAIT_SOURCE_FIX", "business_decision": "", "comments": "", "qa_color": "#dc2626", "qa_icon": "warning", "WKT": "POINT(592495 449066)" }, "geometry": { "type": "Point", "coordinates": [ -4.389479782583856, 34.637590694761727 ] } },
{ "type": "Feature", "properties": { "review_id": "b519b0e1-9c5e-4999-a664-dd1d4e4467cc", "run_id": "e60088e9-cf94-4e41-ae65-a5390866b4b8", "source_layer": "infra.huilerie_inventaire_pollution", "source_id": "a394a40d-c29a-4f74-9365-98fe3ad509b6", "source_name": "Barada fréro", "source_type": "HUILERIE", "master_site_id_candidate": "", "master_site_name": "", "master_site_type": "", "distance_m": "", "score": "", "review_bucket": "ORPHAN", "review_action_default": "NEED_SOURCE_FIX", "suggested_decision": "WAIT_SOURCE_FIX", "business_decision": "", "comments": "", "qa_color": "#dc2626", "qa_icon": "warning", "WKT": "POINT(624193 434462)" }, "geometry": { "type": "Point", "coordinates": [ -4.045830065206597, 34.502697973581533 ] } },
{ "type": "Feature", "properties": { "review_id": "849144ff-6727-4105-be6c-fee66610d038", "run_id": "e60088e9-cf94-4e41-ae65-a5390866b4b8", "source_layer": "infra.huilerie_inventaire_pollution", "source_id": "bee862d4-e639-46aa-9510-d12768d716b7", "source_name": "Huilerie IHYHAA", "source_type": "HUILERIE", "master_site_id_candidate": "", "master_site_name": "", "master_site_type": "", "distance_m": "", "score": "", "review_bucket": "ORPHAN", "review_action_default": "NEED_SOURCE_FIX", "suggested_decision": "WAIT_SOURCE_FIX", "business_decision": "", "comments": "", "qa_color": "#dc2626", "qa_icon": "warning", "WKT": "POINT(450981 365027)" }, "geometry": { "type": "Point", "coordinates": [ -5.928435810853228, 33.882748183841592 ] } },
{ "type": "Feature", "properties": { "review_id": "dc59ef73-a4bb-4f3a-a71d-bcc174dec596", "run_id": "e60088e9-cf94-4e41-ae65-a5390866b4b8", "source_layer": "infra.huilerie_inventaire_pollution", "source_id": "c193b12b-dea4-4bdf-b1cc-12ce2cfff8db", "source_name": "H.SOUK SABT", "source_type": "HUILERIE", "master_site_id_candidate": "", "master_site_name": "", "master_site_type": "", "distance_m": "", "score": "", "review_bucket": "ORPHAN", "review_action_default": "NEED_SOURCE_FIX", "suggested_decision": "WAIT_SOURCE_FIX", "business_decision": "", "comments": "", "qa_color": "#dc2626", "qa_icon": "warning", "WKT": "POINT(515701.18 383670.43)" }, "geometry": { "type": "Point", "coordinates": [ -5.228288649905072, 34.051873744273877 ] } },
{ "type": "Feature", "properties": { "review_id": "69f52103-f95b-4fc8-abe3-12a21549e895", "run_id": "e60088e9-cf94-4e41-ae65-a5390866b4b8", "source_layer": "infra.huilerie_inventaire_pollution", "source_id": "cf2c8e07-4ebf-4fa5-95b8-8761f3b90d8c", "source_name": "Huile bouchfaa", "source_type": "HUILERIE", "master_site_id_candidate": "", "master_site_name": "", "master_site_type": "", "distance_m": "", "score": "", "review_bucket": "ORPHAN", "review_action_default": "NEED_SOURCE_FIX", "suggested_decision": "WAIT_SOURCE_FIX", "business_decision": "", "comments": "", "qa_color": "#dc2626", "qa_icon": "warning", "WKT": "POINT(602214 389774)" }, "geometry": { "type": "Point", "coordinates": [ -4.290352727805561, 34.102123596109976 ] } },
{ "type": "Feature", "properties": { "review_id": "7aceea8c-3cd0-46bb-bb59-4fc4d30e0ea5", "run_id": "e60088e9-cf94-4e41-ae65-a5390866b4b8", "source_layer": "infra.huilerie_inventaire_pollution", "source_id": "d1672de6-95e8-4a18-b4cd-d63555e9c986", "source_name": "Non-connue 7", "source_type": "HUILERIE", "master_site_id_candidate": "", "master_site_name": "", "master_site_type": "", "distance_m": "", "score": "", "review_bucket": "ORPHAN", "review_action_default": "NEED_SOURCE_FIX", "suggested_decision": "WAIT_SOURCE_FIX", "business_decision": "", "comments": "", "qa_color": "#dc2626", "qa_icon": "warning", "WKT": "POINT(538367 356657)" }, "geometry": { "type": "Point", "coordinates": [ -4.983897590138405, 33.807687057851759 ] } },
{ "type": "Feature", "properties": { "review_id": "4497cc10-0387-4bdf-83e5-2a7d4e3af4f2", "run_id": "e60088e9-cf94-4e41-ae65-a5390866b4b8", "source_layer": "infra.huilerie_inventaire_pollution", "source_id": "d72727de-e1f7-4a38-9680-b4d0f3fae5de", "source_name": "Huilerie Ain jouari", "source_type": "HUILERIE", "master_site_id_candidate": "", "master_site_name": "", "master_site_type": "", "distance_m": "", "score": "", "review_bucket": "ORPHAN", "review_action_default": "NEED_SOURCE_FIX", "suggested_decision": "WAIT_SOURCE_FIX", "business_decision": "", "comments": "", "qa_color": "#dc2626", "qa_icon": "warning", "WKT": "POINT(584300 428137)" }, "geometry": { "type": "Point", "coordinates": [ -4.480873753828949, 34.449592501583318 ] } },
{ "type": "Feature", "properties": { "review_id": "37506668-ee5b-40c4-8506-e7ec4765ee4b", "run_id": "e60088e9-cf94-4e41-ae65-a5390866b4b8", "source_layer": "infra.huilerie_inventaire_pollution", "source_id": "e5a6e526-4fdd-4a7e-985a-62ad199178ee", "source_name": "Huilerie Doukali", "source_type": "HUILERIE", "master_site_id_candidate": "", "master_site_name": "", "master_site_type": "", "distance_m": "", "score": "", "review_bucket": "ORPHAN", "review_action_default": "NEED_SOURCE_FIX", "suggested_decision": "WAIT_SOURCE_FIX", "business_decision": "", "comments": "", "qa_color": "#dc2626", "qa_icon": "warning", "WKT": "POINT(437163 359961)" }, "geometry": { "type": "Point", "coordinates": [ -6.077489421788629, 33.836341754515878 ] } },
{ "type": "Feature", "properties": { "review_id": "1ae673cb-80c4-4f84-85fc-473fe208b393", "run_id": "e60088e9-cf94-4e41-ae65-a5390866b4b8", "source_layer": "infra.huilerie_inventaire_pollution", "source_id": "ea9bdacc-9717-4ba3-a1db-3523ba30a836", "source_name": "Sté oumatan", "source_type": "HUILERIE", "master_site_id_candidate": "", "master_site_name": "", "master_site_type": "", "distance_m": "", "score": "", "review_bucket": "ORPHAN", "review_action_default": "NEED_SOURCE_FIX", "suggested_decision": "WAIT_SOURCE_FIX", "business_decision": "", "comments": "", "qa_color": "#dc2626", "qa_icon": "warning", "WKT": "POINT(588666 383992)" }, "geometry": { "type": "Point", "coordinates": [ -4.43778736439132, 34.051198700410097 ] } },
{ "type": "Feature", "properties": { "review_id": "e75d77b4-bcef-4a97-a85e-1000a9b7a051", "run_id": "e60088e9-cf94-4e41-ae65-a5390866b4b8", "source_layer": "infra.huilerie_inventaire_pollution", "source_id": "fe92cdf1-ccb9-41ae-be30-9da27435169d", "source_name": "Meknasa olive", "source_type": "HUILERIE", "master_site_id_candidate": "", "master_site_name": "", "master_site_type": "", "distance_m": "", "score": "", "review_bucket": "ORPHAN", "review_action_default": "NEED_SOURCE_FIX", "suggested_decision": "WAIT_SOURCE_FIX", "business_decision": "", "comments": "", "qa_color": "#dc2626", "qa_icon": "warning", "WKT": "POINT(623087 408146)" }, "geometry": { "type": "Point", "coordinates": [ -4.061549595806702, 34.265569970743663 ] } },
{ "type": "Feature", "properties": { "review_id": "ef91165f-13b5-4714-90ef-427ace2305ca", "run_id": "e60088e9-cf94-4e41-ae65-a5390866b4b8", "source_layer": "infra.huilerie_inventaire_pollution", "source_id": "feddb89f-d453-40d6-ae48-f1535dad056e", "source_name": "Huilerie Jaouda", "source_type": "HUILERIE", "master_site_id_candidate": "", "master_site_name": "", "master_site_type": "", "distance_m": "", "score": "", "review_bucket": "ORPHAN", "review_action_default": "NEED_SOURCE_FIX", "suggested_decision": "WAIT_SOURCE_FIX", "business_decision": "", "comments": "", "qa_color": "#dc2626", "qa_icon": "warning", "WKT": "POINT(556277 444747)" }, "geometry": { "type": "Point", "coordinates": [ -4.784798657957331, 34.601198076029803 ] } },
{ "type": "Feature", "properties": { "review_id": "02cec24b-ca11-4c4e-a8d6-fe9a6d4640c2", "run_id": "e60088e9-cf94-4e41-ae65-a5390866b4b8", "source_layer": "infra.mine", "source_id": "10", "source_name": "", "source_type": "MINE", "master_site_id_candidate": "", "master_site_name": "", "master_site_type": "", "distance_m": "", "score": "", "review_bucket": "ORPHAN", "review_action_default": "NEED_SOURCE_FIX", "suggested_decision": "WAIT_SOURCE_FIX", "business_decision": "", "comments": "", "qa_color": "#dc2626", "qa_icon": "warning", "WKT": "POINT(459111 479577)" }, "geometry": { "type": "Point", "coordinates": [ -5.845818659354394, 34.91589067494435 ] } },
{ "type": "Feature", "properties": { "review_id": "4afd7d20-f4d6-4884-a846-a6e1f88b4649", "run_id": "e60088e9-cf94-4e41-ae65-a5390866b4b8", "source_layer": "infra.mine", "source_id": "23", "source_name": "Ste miniere de Taza", "source_type": "MINE", "master_site_id_candidate": "", "master_site_name": "", "master_site_type": "", "distance_m": "", "score": "", "review_bucket": "ORPHAN", "review_action_default": "NEED_SOURCE_FIX", "suggested_decision": "WAIT_SOURCE_FIX", "business_decision": "", "comments": "", "qa_color": "#dc2626", "qa_icon": "warning", "WKT": "POINT(617834.22 397719.4)" }, "geometry": { "type": "Point", "coordinates": [ -4.119982797256629, 34.172153517034452 ] } },
{ "type": "Feature", "properties": { "review_id": "de2eecb3-952c-4438-afb3-a4d7bdfd6220", "run_id": "e60088e9-cf94-4e41-ae65-a5390866b4b8", "source_layer": "infra.mine", "source_id": "24", "source_name": "STE HERIIERS LAFQUIH 1", "source_type": "MINE", "master_site_id_candidate": "", "master_site_name": "", "master_site_type": "", "distance_m": "", "score": "", "review_bucket": "ORPHAN", "review_action_default": "NEED_SOURCE_FIX", "suggested_decision": "WAIT_SOURCE_FIX", "business_decision": "", "comments": "", "qa_color": "#dc2626", "qa_icon": "warning", "WKT": "POINT(613695 418365)" }, "geometry": { "type": "Point", "coordinates": [ -4.16222919378089, 34.358750414000525 ] } },
{ "type": "Feature", "properties": { "review_id": "94bbefa1-a99b-4198-8493-e8de8f9ea393", "run_id": "e60088e9-cf94-4e41-ae65-a5390866b4b8", "source_layer": "infra.mine", "source_id": "27", "source_name": "Salt factory", "source_type": "MINE", "master_site_id_candidate": "", "master_site_name": "", "master_site_type": "", "distance_m": "", "score": "", "review_bucket": "ORPHAN", "review_action_default": "NEED_SOURCE_FIX", "suggested_decision": "WAIT_SOURCE_FIX", "business_decision": "", "comments": "", "qa_color": "#dc2626", "qa_icon": "warning", "WKT": "POINT(623340 407981)" }, "geometry": { "type": "Point", "coordinates": [ -4.058825111045813, 34.264053008411729 ] } },
{ "type": "Feature", "properties": { "review_id": "9d55ee24-8e42-42a0-a1bd-1f65f88ba5c4", "run_id": "e60088e9-cf94-4e41-ae65-a5390866b4b8", "source_layer": "infra.mine", "source_id": "40", "source_name": "STE SORECH  MINES", "source_type": "MINE", "master_site_id_candidate": "", "master_site_name": "", "master_site_type": "", "distance_m": "", "score": "", "review_bucket": "ORPHAN", "review_action_default": "NEED_SOURCE_FIX", "suggested_decision": "WAIT_SOURCE_FIX", "business_decision": "", "comments": "", "qa_color": "#dc2626", "qa_icon": "warning", "WKT": "POINT(568166 339256)" }, "geometry": { "type": "Point", "coordinates": [ -4.663297116961899, 33.649269365095819 ] } },
{ "type": "Feature", "properties": { "review_id": "54afa4e8-a7e3-4ad1-9261-b27deef41954", "run_id": "e60088e9-cf94-4e41-ae65-a5390866b4b8", "source_layer": "infra.mine", "source_id": "41", "source_name": "", "source_type": "MINE", "master_site_id_candidate": "", "master_site_name": "", "master_site_type": "", "distance_m": "", "score": "", "review_bucket": "ORPHAN", "review_action_default": "NEED_SOURCE_FIX", "suggested_decision": "WAIT_SOURCE_FIX", "business_decision": "", "comments": "", "qa_color": "#dc2626", "qa_icon": "warning", "WKT": "POINT(437228 483487)" }, "geometry": { "type": "Point", "coordinates": [ -6.085555891967552, 34.950064222531374 ] } },
{ "type": "Feature", "properties": { "review_id": "f8247bbb-6dea-44e6-9bce-6b65ddd940a0", "run_id": "e60088e9-cf94-4e41-ae65-a5390866b4b8", "source_layer": "infra.mine", "source_id": "42", "source_name": "", "source_type": "MINE", "master_site_id_candidate": "", "master_site_name": "", "master_site_type": "", "distance_m": "", "score": "", "review_bucket": "ORPHAN", "review_action_default": "NEED_SOURCE_FIX", "suggested_decision": "WAIT_SOURCE_FIX", "business_decision": "", "comments": "", "qa_color": "#dc2626", "qa_icon": "warning", "WKT": "POINT(481544 444521)" }, "geometry": { "type": "Point", "coordinates": [ -5.599605724140937, 34.600502498486776 ] } },
{ "type": "Feature", "properties": { "review_id": "24099dfc-a8a3-4c57-abca-ce79a9fabd8d", "run_id": "e60088e9-cf94-4e41-ae65-a5390866b4b8", "source_layer": "infra.mine_inventaire_pollution", "source_id": "240d9b88-6e84-4c1d-a578-105427919c46", "source_name": "", "source_type": "MINE", "master_site_id_candidate": "", "master_site_name": "", "master_site_type": "", "distance_m": "", "score": "", "review_bucket": "ORPHAN", "review_action_default": "NEED_SOURCE_FIX", "suggested_decision": "WAIT_SOURCE_FIX", "business_decision": "", "comments": "", "qa_color": "#dc2626", "qa_icon": "warning", "WKT": "POINT(459111 479577)" }, "geometry": { "type": "Point", "coordinates": [ -5.845818659354394, 34.91589067494435 ] } },
{ "type": "Feature", "properties": { "review_id": "b2b901fd-b3d0-489a-a419-03ae6144e9df", "run_id": "e60088e9-cf94-4e41-ae65-a5390866b4b8", "source_layer": "infra.mine_inventaire_pollution", "source_id": "6b770e03-98c2-450b-bde5-52d7afd2f7b1", "source_name": "Salt factory", "source_type": "MINE", "master_site_id_candidate": "", "master_site_name": "", "master_site_type": "", "distance_m": "", "score": "", "review_bucket": "ORPHAN", "review_action_default": "NEED_SOURCE_FIX", "suggested_decision": "WAIT_SOURCE_FIX", "business_decision": "", "comments": "", "qa_color": "#dc2626", "qa_icon": "warning", "WKT": "POINT(623340 407981)" }, "geometry": { "type": "Point", "coordinates": [ -4.058825111045813, 34.264053008411729 ] } },
{ "type": "Feature", "properties": { "review_id": "45d6ad2d-7448-4e44-9438-5cd453592861", "run_id": "e60088e9-cf94-4e41-ae65-a5390866b4b8", "source_layer": "infra.mine_inventaire_pollution", "source_id": "825a0aeb-4429-42d1-b7e5-cafede78085a", "source_name": "STE SORECH  MINES", "source_type": "MINE", "master_site_id_candidate": "", "master_site_name": "", "master_site_type": "", "distance_m": "", "score": "", "review_bucket": "ORPHAN", "review_action_default": "NEED_SOURCE_FIX", "suggested_decision": "WAIT_SOURCE_FIX", "business_decision": "", "comments": "", "qa_color": "#dc2626", "qa_icon": "warning", "WKT": "POINT(568166.06 339255.9)" }, "geometry": { "type": "Point", "coordinates": [ -4.663296477554175, 33.649268459401654 ] } },
{ "type": "Feature", "properties": { "review_id": "3f17adfe-ce36-4c81-aca1-aaf2f6cad08a", "run_id": "e60088e9-cf94-4e41-ae65-a5390866b4b8", "source_layer": "infra.mine_inventaire_pollution", "source_id": "d1702768-81c2-4650-91a3-d0467ea4d0eb", "source_name": "STE HERIIERS LAFQUIH 1", "source_type": "MINE", "master_site_id_candidate": "", "master_site_name": "", "master_site_type": "", "distance_m": "", "score": "", "review_bucket": "ORPHAN", "review_action_default": "NEED_SOURCE_FIX", "suggested_decision": "WAIT_SOURCE_FIX", "business_decision": "", "comments": "", "qa_color": "#dc2626", "qa_icon": "warning", "WKT": "POINT(613695 418365)" }, "geometry": { "type": "Point", "coordinates": [ -4.16222919378089, 34.358750414000525 ] } },
{ "type": "Feature", "properties": { "review_id": "1a424b29-bbd1-4a4a-ba88-4ff58eb0d757", "run_id": "e60088e9-cf94-4e41-ae65-a5390866b4b8", "source_layer": "infra.rejet_domestique", "source_id": "157", "source_name": "", "source_type": "REJET_DOMESTIQUE", "master_site_id_candidate": "", "master_site_name": "", "master_site_type": "", "distance_m": "", "score": "", "review_bucket": "ORPHAN", "review_action_default": "NEED_SOURCE_FIX", "suggested_decision": "WAIT_SOURCE_FIX", "business_decision": "", "comments": "", "qa_color": "#dc2626", "qa_icon": "warning", "WKT": "POINT(519597 418906)" }, "geometry": { "type": "Point", "coordinates": [ -5.185296208780549, 34.369532954939487 ] } },
{ "type": "Feature", "properties": { "review_id": "36c60ba6-f003-447c-bb01-53daddae271c", "run_id": "e60088e9-cf94-4e41-ae65-a5390866b4b8", "source_layer": "infra.rejet_domestique", "source_id": "172", "source_name": "", "source_type": "REJET_DOMESTIQUE", "master_site_id_candidate": "", "master_site_name": "", "master_site_type": "", "distance_m": "", "score": "", "review_bucket": "ORPHAN", "review_action_default": "NEED_SOURCE_FIX", "suggested_decision": "WAIT_SOURCE_FIX", "business_decision": "", "comments": "", "qa_color": "#dc2626", "qa_icon": "warning", "WKT": "POINT(554938 437628)" }, "geometry": { "type": "Point", "coordinates": [ -4.799843776933958, 34.537087645301476 ] } },
{ "type": "Feature", "properties": { "review_id": "b6a1a4ab-4f61-4049-9a4b-1fcd7578649e", "run_id": "e60088e9-cf94-4e41-ae65-a5390866b4b8", "source_layer": "infra.rejet_domestique", "source_id": "209", "source_name": "", "source_type": "REJET_DOMESTIQUE", "master_site_id_candidate": "", "master_site_name": "", "master_site_type": "", "distance_m": "", "score": "", "review_bucket": "ORPHAN", "review_action_default": "NEED_SOURCE_FIX", "suggested_decision": "WAIT_SOURCE_FIX", "business_decision": "", "comments": "", "qa_color": "#dc2626", "qa_icon": "warning", "WKT": "POINT(601549 391046)" }, "geometry": { "type": "Point", "coordinates": [ -4.297415369653858, 34.113656852963111 ] } },
{ "type": "Feature", "properties": { "review_id": "c8694bdd-ff72-40f7-8e7d-19b98fe1d593", "run_id": "e60088e9-cf94-4e41-ae65-a5390866b4b8", "source_layer": "infra.rejet_domestique", "source_id": "231", "source_name": "", "source_type": "REJET_DOMESTIQUE", "master_site_id_candidate": "", "master_site_name": "", "master_site_type": "", "distance_m": "", "score": "", "review_bucket": "ORPHAN", "review_action_default": "NEED_SOURCE_FIX", "suggested_decision": "WAIT_SOURCE_FIX", "business_decision": "", "comments": "", "qa_color": "#dc2626", "qa_icon": "warning", "WKT": "POINT(616159.555 402362.123)" }, "geometry": { "type": "Point", "coordinates": [ -4.137540488791573, 34.214198899681229 ] } },
{ "type": "Feature", "properties": { "review_id": "fb2a2045-16f5-4d3b-8cac-88e4c02417da", "run_id": "e60088e9-cf94-4e41-ae65-a5390866b4b8", "source_layer": "infra.rejet_domestique", "source_id": "280", "source_name": "", "source_type": "REJET_DOMESTIQUE", "master_site_id_candidate": "", "master_site_name": "", "master_site_type": "", "distance_m": "", "score": "", "review_bucket": "ORPHAN", "review_action_default": "NEED_SOURCE_FIX", "suggested_decision": "WAIT_SOURCE_FIX", "business_decision": "", "comments": "", "qa_color": "#dc2626", "qa_icon": "warning", "WKT": "POINT(440519 360410)" }, "geometry": { "type": "Point", "coordinates": [ -6.041251248707864, 33.840582183610522 ] } },
{ "type": "Feature", "properties": { "review_id": "e201811e-f443-43f3-bcde-9f932cfba20d", "run_id": "e60088e9-cf94-4e41-ae65-a5390866b4b8", "source_layer": "infra.rejet_domestique", "source_id": "309", "source_name": "", "source_type": "REJET_DOMESTIQUE", "master_site_id_candidate": "", "master_site_name": "", "master_site_type": "", "distance_m": "", "score": "", "review_bucket": "ORPHAN", "review_action_default": "NEED_SOURCE_FIX", "suggested_decision": "WAIT_SOURCE_FIX", "business_decision": "", "comments": "", "qa_color": "#dc2626", "qa_icon": "warning", "WKT": "POINT(471260 401609)" }, "geometry": { "type": "Point", "coordinates": [ -5.710338505435889, 34.213368663525557 ] } },
{ "type": "Feature", "properties": { "review_id": "c56a00d0-411c-40f9-946d-f5cddfd25ae0", "run_id": "e60088e9-cf94-4e41-ae65-a5390866b4b8", "source_layer": "infra.rejet_domestique", "source_id": "311", "source_name": "", "source_type": "REJET_DOMESTIQUE", "master_site_id_candidate": "", "master_site_name": "", "master_site_type": "", "distance_m": "", "score": "", "review_bucket": "ORPHAN", "review_action_default": "NEED_SOURCE_FIX", "suggested_decision": "WAIT_SOURCE_FIX", "business_decision": "", "comments": "", "qa_color": "#dc2626", "qa_icon": "warning", "WKT": "POINT(487160 442957)" }, "geometry": { "type": "Point", "coordinates": [ -5.538353084341759, 34.586484311337522 ] } },
{ "type": "Feature", "properties": { "review_id": "c8adceb8-057e-4ddb-843a-14f3b9d90445", "run_id": "e60088e9-cf94-4e41-ae65-a5390866b4b8", "source_layer": "infra.rejet_domestique", "source_id": "331", "source_name": "", "source_type": "REJET_DOMESTIQUE", "master_site_id_candidate": "", "master_site_name": "", "master_site_type": "", "distance_m": "", "score": "", "review_bucket": "ORPHAN", "review_action_default": "NEED_SOURCE_FIX", "suggested_decision": "WAIT_SOURCE_FIX", "business_decision": "", "comments": "", "qa_color": "#dc2626", "qa_icon": "warning", "WKT": "POINT(466013 410732)" }, "geometry": { "type": "Point", "coordinates": [ -5.767638444375276, 34.295476630487606 ] } },
{ "type": "Feature", "properties": { "review_id": "3af968db-7c35-472a-8d6c-4637acea73c8", "run_id": "e60088e9-cf94-4e41-ae65-a5390866b4b8", "source_layer": "infra.rejet_domestique", "source_id": "332", "source_name": "", "source_type": "REJET_DOMESTIQUE", "master_site_id_candidate": "", "master_site_name": "", "master_site_type": "", "distance_m": "", "score": "", "review_bucket": "ORPHAN", "review_action_default": "NEED_SOURCE_FIX", "suggested_decision": "WAIT_SOURCE_FIX", "business_decision": "", "comments": "", "qa_color": "#dc2626", "qa_icon": "warning", "WKT": "POINT(465969 410163)" }, "geometry": { "type": "Point", "coordinates": [ -5.7680946729059, 34.290344683237308 ] } },
{ "type": "Feature", "properties": { "review_id": "51d2b7f6-e070-494a-a870-e77026e4a046", "run_id": "e60088e9-cf94-4e41-ae65-a5390866b4b8", "source_layer": "infra.rejet_domestique", "source_id": "360", "source_name": "", "source_type": "REJET_DOMESTIQUE", "master_site_id_candidate": "", "master_site_name": "", "master_site_type": "", "distance_m": "", "score": "", "review_bucket": "ORPHAN", "review_action_default": "NEED_SOURCE_FIX", "suggested_decision": "WAIT_SOURCE_FIX", "business_decision": "", "comments": "", "qa_color": "#dc2626", "qa_icon": "warning", "WKT": "POINT(532011 400361)" }, "geometry": { "type": "Point", "coordinates": [ -5.050985409160831, 34.202013448557203 ] } },
{ "type": "Feature", "properties": { "review_id": "44842d50-51fa-4df7-a6d2-e6fd7387e397", "run_id": "e60088e9-cf94-4e41-ae65-a5390866b4b8", "source_layer": "infra.rejet_domestique", "source_id": "362", "source_name": "", "source_type": "REJET_DOMESTIQUE", "master_site_id_candidate": "", "master_site_name": "", "master_site_type": "", "distance_m": "", "score": "", "review_bucket": "ORPHAN", "review_action_default": "NEED_SOURCE_FIX", "suggested_decision": "WAIT_SOURCE_FIX", "business_decision": "", "comments": "", "qa_color": "#dc2626", "qa_icon": "warning", "WKT": "POINT(533970 411506)" }, "geometry": { "type": "Point", "coordinates": [ -5.029295445214977, 34.302446434935341 ] } },
{ "type": "Feature", "properties": { "review_id": "87767fb7-71f3-4263-b3c8-a50b727094c6", "run_id": "e60088e9-cf94-4e41-ae65-a5390866b4b8", "source_layer": "infra.rejet_industriel", "source_id": "1", "source_name": "ROY AGRI MAROC", "source_type": "REJET_INDUSTRIEL", "master_site_id_candidate": "", "master_site_name": "", "master_site_type": "", "distance_m": "", "score": "", "review_bucket": "ORPHAN", "review_action_default": "NEED_SOURCE_FIX", "suggested_decision": "WAIT_SOURCE_FIX", "business_decision": "", "comments": "", "qa_color": "#dc2626", "qa_icon": "warning", "WKT": "POINT(437547 472892)" }, "geometry": { "type": "Point", "coordinates": [ -6.081306705561738, 34.854584343113984 ] } },
{ "type": "Feature", "properties": { "review_id": "3f264bf8-5c1c-4074-b47e-0160fb3f0d06", "run_id": "e60088e9-cf94-4e41-ae65-a5390866b4b8", "source_layer": "infra.rejet_industriel", "source_id": "10", "source_name": "Sotrameg", "source_type": "REJET_INDUSTRIEL", "master_site_id_candidate": "", "master_site_name": "", "master_site_type": "", "distance_m": "", "score": "", "review_bucket": "ORPHAN", "review_action_default": "NEED_SOURCE_FIX", "suggested_decision": "WAIT_SOURCE_FIX", "business_decision": "", "comments": "", "qa_color": "#dc2626", "qa_icon": "warning", "WKT": "POINT(409219.14 436698.92)" }, "geometry": { "type": "Point", "coordinates": [ -6.387314326199203, 34.526274718531454 ] } },
{ "type": "Feature", "properties": { "review_id": "45d47c7c-d6e9-4edb-b174-0e34433305b4", "run_id": "e60088e9-cf94-4e41-ae65-a5390866b4b8", "source_layer": "infra.rejet_industriel", "source_id": "11", "source_name": "Sunabel", "source_type": "REJET_INDUSTRIEL", "master_site_id_candidate": "", "master_site_name": "", "master_site_type": "", "distance_m": "", "score": "", "review_bucket": "ORPHAN", "review_action_default": "NEED_SOURCE_FIX", "suggested_decision": "WAIT_SOURCE_FIX", "business_decision": "", "comments": "", "qa_color": "#dc2626", "qa_icon": "warning", "WKT": "POINT(447099.59 442451.78)" }, "geometry": { "type": "Point", "coordinates": [ -5.975016884856593, 34.580695302281612 ] } },
{ "type": "Feature", "properties": { "review_id": "2b70fb6b-dc30-4d9c-aaec-e8d6f3a8b4f0", "run_id": "e60088e9-cf94-4e41-ae65-a5390866b4b8", "source_layer": "infra.rejet_industriel", "source_id": "2", "source_name": "UNIMER", "source_type": "REJET_INDUSTRIEL", "master_site_id_candidate": "", "master_site_name": "", "master_site_type": "", "distance_m": "", "score": "", "review_bucket": "ORPHAN", "review_action_default": "NEED_SOURCE_FIX", "suggested_decision": "WAIT_SOURCE_FIX", "business_decision": "", "comments": "", "qa_color": "#dc2626", "qa_icon": "warning", "WKT": "POINT(383581 407758)" }, "geometry": { "type": "Point", "coordinates": [ -6.662766897286474, 34.26285513035053 ] } },
{ "type": "Feature", "properties": { "review_id": "3433afab-b61b-474f-b7e3-fdb6d71a1b5c", "run_id": "e60088e9-cf94-4e41-ae65-a5390866b4b8", "source_layer": "infra.rejet_industriel", "source_id": "3", "source_name": "NATBERRY MAROC", "source_type": "REJET_INDUSTRIEL", "master_site_id_candidate": "", "master_site_name": "", "master_site_type": "", "distance_m": "", "score": "", "review_bucket": "ORPHAN", "review_action_default": "NEED_SOURCE_FIX", "suggested_decision": "WAIT_SOURCE_FIX", "business_decision": "", "comments": "", "qa_color": "#dc2626", "qa_icon": "warning", "WKT": "POINT(433381 484949)" }, "geometry": { "type": "Point", "coordinates": [ -6.127780141166822, 34.963006787489228 ] } },
{ "type": "Feature", "properties": { "review_id": "eb61f343-84ec-4d1c-9a72-ee9c5091cc4a", "run_id": "e60088e9-cf94-4e41-ae65-a5390866b4b8", "source_layer": "infra.rejet_industriel", "source_id": "4", "source_name": "MAZARIA BASSITA", "source_type": "REJET_INDUSTRIEL", "master_site_id_candidate": "", "master_site_name": "", "master_site_type": "", "distance_m": "", "score": "", "review_bucket": "ORPHAN", "review_action_default": "NEED_SOURCE_FIX", "suggested_decision": "WAIT_SOURCE_FIX", "business_decision": "", "comments": "", "qa_color": "#dc2626", "qa_icon": "warning", "WKT": "POINT(425361 484320)" }, "geometry": { "type": "Point", "coordinates": [ -6.215532996674381, 34.956803049298266 ] } },
{ "type": "Feature", "properties": { "review_id": "9c0bc52d-a51a-49c5-bed4-8328a21ff884", "run_id": "e60088e9-cf94-4e41-ae65-a5390866b4b8", "source_layer": "infra.rejet_industriel", "source_id": "5", "source_name": "Exta Nouvelle", "source_type": "REJET_INDUSTRIEL", "master_site_id_candidate": "", "master_site_name": "", "master_site_type": "", "distance_m": "", "score": "", "review_bucket": "ORPHAN", "review_action_default": "NEED_SOURCE_FIX", "suggested_decision": "WAIT_SOURCE_FIX", "business_decision": "", "comments": "", "qa_color": "#dc2626", "qa_icon": "warning", "WKT": "POINT(421547 439765)" }, "geometry": { "type": "Point", "coordinates": [ -6.253299211895094, 34.554896616619558 ] } },
{ "type": "Feature", "properties": { "review_id": "996b2191-1941-4989-a356-bec74d21de35", "run_id": "e60088e9-cf94-4e41-ae65-a5390866b4b8", "source_layer": "infra.rejet_industriel", "source_id": "6", "source_name": "Tannerie Tazi", "source_type": "REJET_INDUSTRIEL", "master_site_id_candidate": "", "master_site_name": "", "master_site_type": "", "distance_m": "", "score": "", "review_bucket": "ORPHAN", "review_action_default": "NEED_SOURCE_FIX", "suggested_decision": "WAIT_SOURCE_FIX", "business_decision": "", "comments": "", "qa_color": "#dc2626", "qa_icon": "warning", "WKT": "POINT(547689 382609)" }, "geometry": { "type": "Point", "coordinates": [ -4.881795801479938, 34.041348451793937 ] } },
{ "type": "Feature", "properties": { "review_id": "e6be3130-2402-45b0-8384-f0a7dfb929e5", "run_id": "e60088e9-cf94-4e41-ae65-a5390866b4b8", "source_layer": "infra.rejet_industriel", "source_id": "7", "source_name": "EnviroPack", "source_type": "REJET_INDUSTRIEL", "master_site_id_candidate": "", "master_site_name": "", "master_site_type": "", "distance_m": "", "score": "", "review_bucket": "ORPHAN", "review_action_default": "NEED_SOURCE_FIX", "suggested_decision": "WAIT_SOURCE_FIX", "business_decision": "", "comments": "", "qa_color": "#dc2626", "qa_icon": "warning", "WKT": "POINT(547879 382521)" }, "geometry": { "type": "Point", "coordinates": [ -4.879742383683156, 34.040546369405426 ] } },
{ "type": "Feature", "properties": { "review_id": "c7f174c7-7ae2-48a2-9b88-3466c1693d73", "run_id": "e60088e9-cf94-4e41-ae65-a5390866b4b8", "source_layer": "infra.rejet_industriel", "source_id": "8", "source_name": "Dépôt Arab Huiler", "source_type": "REJET_INDUSTRIEL", "master_site_id_candidate": "", "master_site_name": "", "master_site_type": "", "distance_m": "", "score": "", "review_bucket": "ORPHAN", "review_action_default": "NEED_SOURCE_FIX", "suggested_decision": "WAIT_SOURCE_FIX", "business_decision": "", "comments": "", "qa_color": "#dc2626", "qa_icon": "warning", "WKT": "POINT(546960 382880)" }, "geometry": { "type": "Point", "coordinates": [ -4.889678323656919, 34.04382464317537 ] } },
{ "type": "Feature", "properties": { "review_id": "59c9b232-998f-4a01-9a4b-b60c3ba7d14c", "run_id": "e60088e9-cf94-4e41-ae65-a5390866b4b8", "source_layer": "infra.rejet_industriel", "source_id": "9", "source_name": "GASTROMIXTE ", "source_type": "REJET_INDUSTRIEL", "master_site_id_candidate": "", "master_site_name": "", "master_site_type": "", "distance_m": "", "score": "", "review_bucket": "ORPHAN", "review_action_default": "NEED_SOURCE_FIX", "suggested_decision": "WAIT_SOURCE_FIX", "business_decision": "", "comments": "", "qa_color": "#dc2626", "qa_icon": "warning", "WKT": "POINT(393129 414559)" }, "geometry": { "type": "Point", "coordinates": [ -6.559899940349371, 34.325173752366076 ] } },
{ "type": "Feature", "properties": { "review_id": "dc0709c7-cabc-4dee-bc04-03892b4389bb", "run_id": "e60088e9-cf94-4e41-ae65-a5390866b4b8", "source_layer": "infra.rejet_inventaire_pollution", "source_id": "29b0b172-8fd1-48e0-90b5-b20cf40cd113", "source_name": "", "source_type": "REJET", "master_site_id_candidate": "", "master_site_name": "", "master_site_type": "", "distance_m": "", "score": "", "review_bucket": "ORPHAN", "review_action_default": "NEED_SOURCE_FIX", "suggested_decision": "WAIT_SOURCE_FIX", "business_decision": "", "comments": "", "qa_color": "#dc2626", "qa_icon": "warning", "WKT": "POINT(465969 410163)" }, "geometry": { "type": "Point", "coordinates": [ -5.7680946729059, 34.290344683237308 ] } },
{ "type": "Feature", "properties": { "review_id": "2a6ea0dc-17a5-4df8-b6a9-ad7e901393ca", "run_id": "e60088e9-cf94-4e41-ae65-a5390866b4b8", "source_layer": "infra.rejet_inventaire_pollution", "source_id": "462f7ec1-92b4-4d6c-9784-0382911ab0f2", "source_name": "", "source_type": "REJET", "master_site_id_candidate": "", "master_site_name": "", "master_site_type": "", "distance_m": "", "score": "", "review_bucket": "ORPHAN", "review_action_default": "NEED_SOURCE_FIX", "suggested_decision": "WAIT_SOURCE_FIX", "business_decision": "", "comments": "", "qa_color": "#dc2626", "qa_icon": "warning", "WKT": "POINT(554938 437628)" }, "geometry": { "type": "Point", "coordinates": [ -4.799843776933958, 34.537087645301476 ] } },
{ "type": "Feature", "properties": { "review_id": "af1fc9df-a1ab-4008-805f-fddde13ea283", "run_id": "e60088e9-cf94-4e41-ae65-a5390866b4b8", "source_layer": "infra.rejet_inventaire_pollution", "source_id": "778547ee-220a-43fa-9123-3ed3f2406316", "source_name": "", "source_type": "REJET", "master_site_id_candidate": "", "master_site_name": "", "master_site_type": "", "distance_m": "", "score": "", "review_bucket": "ORPHAN", "review_action_default": "NEED_SOURCE_FIX", "suggested_decision": "WAIT_SOURCE_FIX", "business_decision": "", "comments": "", "qa_color": "#dc2626", "qa_icon": "warning", "WKT": "POINT(466013 410732)" }, "geometry": { "type": "Point", "coordinates": [ -5.767638444375276, 34.295476630487606 ] } },
{ "type": "Feature", "properties": { "review_id": "992cfc85-9ad8-498e-839e-4d32abdf501c", "run_id": "e60088e9-cf94-4e41-ae65-a5390866b4b8", "source_layer": "infra.rejet_inventaire_pollution", "source_id": "8d6f3db5-3a75-47c8-8bf5-693dd953c212", "source_name": "", "source_type": "REJET", "master_site_id_candidate": "", "master_site_name": "", "master_site_type": "", "distance_m": "", "score": "", "review_bucket": "ORPHAN", "review_action_default": "NEED_SOURCE_FIX", "suggested_decision": "WAIT_SOURCE_FIX", "business_decision": "", "comments": "", "qa_color": "#dc2626", "qa_icon": "warning", "WKT": "POINT(487160 442957)" }, "geometry": { "type": "Point", "coordinates": [ -5.538353084341759, 34.586484311337522 ] } },
{ "type": "Feature", "properties": { "review_id": "e98e18fe-7730-4c59-ba25-918e468015ef", "run_id": "e60088e9-cf94-4e41-ae65-a5390866b4b8", "source_layer": "infra.rejet_inventaire_pollution", "source_id": "b27bff10-0d5a-4343-a832-9918ff29326d", "source_name": "", "source_type": "REJET", "master_site_id_candidate": "", "master_site_name": "", "master_site_type": "", "distance_m": "", "score": "", "review_bucket": "ORPHAN", "review_action_default": "NEED_SOURCE_FIX", "suggested_decision": "WAIT_SOURCE_FIX", "business_decision": "", "comments": "", "qa_color": "#dc2626", "qa_icon": "warning", "WKT": "POINT(471260 401609)" }, "geometry": { "type": "Point", "coordinates": [ -5.710338505435889, 34.213368663525557 ] } },
{ "type": "Feature", "properties": { "review_id": "27358f5e-f9b2-4f68-ad18-b4ec394a049a", "run_id": "e60088e9-cf94-4e41-ae65-a5390866b4b8", "source_layer": "infra.rejet_inventaire_pollution", "source_id": "c8f8cfe5-d07f-4754-a9fc-e05babff954d", "source_name": "", "source_type": "REJET", "master_site_id_candidate": "", "master_site_name": "", "master_site_type": "", "distance_m": "", "score": "", "review_bucket": "ORPHAN", "review_action_default": "NEED_SOURCE_FIX", "suggested_decision": "WAIT_SOURCE_FIX", "business_decision": "", "comments": "", "qa_color": "#dc2626", "qa_icon": "warning", "WKT": "POINT(601549 391046)" }, "geometry": { "type": "Point", "coordinates": [ -4.297415369653858, 34.113656852963111 ] } },
{ "type": "Feature", "properties": { "review_id": "0d9fc650-6a67-4dc6-821c-56563269ddf7", "run_id": "e60088e9-cf94-4e41-ae65-a5390866b4b8", "source_layer": "infra.rejet_inventaire_pollution", "source_id": "d00ee170-d1b3-4df9-8a11-b78755c76d0f", "source_name": "", "source_type": "REJET", "master_site_id_candidate": "", "master_site_name": "", "master_site_type": "", "distance_m": "", "score": "", "review_bucket": "ORPHAN", "review_action_default": "NEED_SOURCE_FIX", "suggested_decision": "WAIT_SOURCE_FIX", "business_decision": "", "comments": "", "qa_color": "#dc2626", "qa_icon": "warning", "WKT": "POINT(616159.555 402362.123)" }, "geometry": { "type": "Point", "coordinates": [ -4.137540488791573, 34.214198899681229 ] } },
{ "type": "Feature", "properties": { "review_id": "df77bc58-0158-409b-b7ab-1d4202e4b27c", "run_id": "e60088e9-cf94-4e41-ae65-a5390866b4b8", "source_layer": "infra.step", "source_id": "8", "source_name": "", "source_type": "STEP", "master_site_id_candidate": "", "master_site_name": "", "master_site_type": "", "distance_m": "", "score": "", "review_bucket": "ORPHAN", "review_action_default": "NEED_SOURCE_FIX", "suggested_decision": "WAIT_SOURCE_FIX", "business_decision": "", "comments": "", "qa_color": "#dc2626", "qa_icon": "warning", "WKT": "POINT(487435 396459)" }, "geometry": { "type": "Point", "coordinates": [ -5.534701282922692, 34.16724083765547 ] } },
{ "type": "Feature", "properties": { "review_id": "c6ef02bc-cda7-4834-b5ff-e4a79d764d46", "run_id": "e60088e9-cf94-4e41-ae65-a5390866b4b8", "source_layer": "infra.step", "source_id": "9", "source_name": "", "source_type": "STEP", "master_site_id_candidate": "", "master_site_name": "", "master_site_type": "", "distance_m": "", "score": "", "review_bucket": "ORPHAN", "review_action_default": "NEED_SOURCE_FIX", "suggested_decision": "WAIT_SOURCE_FIX", "business_decision": "", "comments": "", "qa_color": "#dc2626", "qa_icon": "warning", "WKT": "POINT(485909 397983)" }, "geometry": { "type": "Point", "coordinates": [ -5.551279782386381, 34.18096436687577 ] } },
{ "type": "Feature", "properties": { "review_id": "ce90186c-fe09-4352-afa5-e94ea9f1ded6", "run_id": "e60088e9-cf94-4e41-ae65-a5390866b4b8", "source_layer": "infra.step_inventaire_pollution", "source_id": "5db5b9da-f1d7-4812-b80b-914178feec97", "source_name": "", "source_type": "STEP", "master_site_id_candidate": "", "master_site_name": "", "master_site_type": "", "distance_m": "", "score": "", "review_bucket": "ORPHAN", "review_action_default": "NEED_SOURCE_FIX", "suggested_decision": "WAIT_SOURCE_FIX", "business_decision": "", "comments": "", "qa_color": "#dc2626", "qa_icon": "warning", "WKT": "POINT(487435 396459)" }, "geometry": { "type": "Point", "coordinates": [ -5.534701282922692, 34.16724083765547 ] } }
]
}
