{"type": "FeatureCollection", "features": [{"type": "Feature", "geometry": {"type": "LineString", "coordinates": [[-4.930472168, 34.190416046], [-4.929895783, 34.190535228], [-4.928522496, 34.19010933], [-4.926290898, 34.190393187], [-4.925775881, 34.191387134], [-4.926119253, 34.192806872], [-4.925947519, 34.194652583], [-4.92629078, 34.196640194], [-4.927621049, 34.197995848], [-4.92825943, 34.198891614], [-4.927836919, 34.199562577], [-4.926286411, 34.200252425], [-4.925672813, 34.200256116], [-4.925005116, 34.200250008], [-4.92425411, 34.200666779], [-4.924838783, 34.201994424], [-4.928153929, 34.204220364], [-4.930042225, 34.204118592], [-4.930175706, 34.20508035], [-4.929397882, 34.206483474], [-4.927835566, 34.207571402], [-4.92801753, 34.209444016], [-4.928661314, 34.21020309], [-4.927616796, 34.211338623], [-4.926493993, 34.21172319], [-4.924562793, 34.21205405], [-4.923307589, 34.212520311], [-4.921655696, 34.212397595], [-4.920539502, 34.212270986], [-4.919479506, 34.212345469], [-4.918114794, 34.213156714], [-4.917052093, 34.213415387], [-4.916505782, 34.214100848], [-4.917192464, 34.214952517], [-4.917473149, 34.215635889], [-4.917192434, 34.216513944], [-4.917403179, 34.21702046]]}, "properties": {"seq": 1, "edge_id": 504, "length_m": 5000.000005019027}}, {"type": "Feature", "geometry": {"type": "LineString", "coordinates": [[-4.917403179, 34.21702046], [-4.917513418, 34.217285412], [-4.916887913, 34.217650487], [-4.91492992, 34.217653161], [-4.914208343, 34.216621399], [-4.91272928, 34.214952459], [-4.9115277, 34.214100782], [-4.910225404, 34.214082866], [-4.908950199, 34.214577426], [-4.908609386, 34.215378285], [-4.909654061, 34.216475847], [-4.909772548, 34.217187815], [-4.909327327, 34.218334756], [-4.908734125, 34.218518939], [-4.90831032, 34.218856018], [-4.907961614, 34.219272994], [-4.908045707, 34.219573581], [-4.908089259, 34.219619633]]}, "properties": {"seq": 2, "edge_id": 505, "length_m": 1711.385502595175}}, {"type": "Feature", "geometry": {"type": "LineString", "coordinates": [[-4.908089261, 34.219619635], [-4.908106166, 34.219636208], [-4.908123254, 34.219653096], [-4.908298102, 34.219840472], [-4.908952588, 34.22048795], [-4.909467555, 34.222049183], [-4.909982527, 34.223468523], [-4.909967115, 34.224082095], [-4.910009788, 34.22549483], [-4.908803897, 34.225294623], [-4.907472697, 34.225531495], [-4.905836485, 34.226415831], [-4.90434838, 34.226958687], [-4.903225076, 34.227392352], [-4.902722963, 34.228191608], [-4.902950422, 34.230262714], [-4.903049095, 34.231686248], [-4.903459288, 34.23198364], [-4.903900851, 34.233892957], [-4.903459202, 34.236524728], [-4.90397419, 34.237092308], [-4.905604542, 34.239269427], [-4.905015518, 34.240662655], [-4.902772418, 34.241065507], [-4.901227515, 34.241491166], [-4.898995895, 34.242910171], [-4.896592585, 34.243903393], [-4.891735311, 34.243420652], [-4.888696213, 34.243903289], [-4.887533887, 34.245432803], [-4.885834427, 34.248954216], [-4.886464474, 34.251565102], [-4.886880583, 34.251947029]]}, "properties": {"seq": 3, "edge_id": 422, "length_m": 5528.680736399386}}, {"type": "Feature", "geometry": {"type": "LineString", "coordinates": [[-4.886880583, 34.251947029], [-4.889752906, 34.254583404], [-4.894185655, 34.256494674], [-4.900368918, 34.25724032], [-4.906720299, 34.25709851], [-4.909981874, 34.257807919], [-4.912805826, 34.259821862], [-4.915288725, 34.259398214], [-4.917019976, 34.256389278], [-4.919251596, 34.254970574], [-4.922513185, 34.254970616], [-4.923886534, 34.252133067], [-4.924615807, 34.248139763], [-4.92677008, 34.243907489], [-4.929082965, 34.244275702], [-4.929277603, 34.244247518]]}, "properties": {"seq": 4, "edge_id": 423, "length_m": 5362.050309041374}}, {"type": "Feature", "geometry": {"type": "LineString", "coordinates": [[-4.929277603, 34.244247518], [-4.931548063, 34.24391875], [-4.933834656, 34.243903881], [-4.934318341, 34.244574456], [-4.93556253, 34.250211309], [-4.935411293, 34.252198614], [-4.935902711, 34.256389526], [-4.937445272, 34.258132864], [-4.94053747, 34.257708225], [-4.942617728, 34.254259613], [-4.944268148, 34.252870599], [-4.94824899, 34.250045083], [-4.949037585, 34.250076593], [-4.951429507, 34.253774751], [-4.955217204, 34.25850578], [-4.955852075, 34.259900124], [-4.955323846, 34.261505342], [-4.952137405, 34.26428317], [-4.950425204, 34.265100411]]}, "properties": {"seq": 5, "edge_id": 424, "length_m": 5613.274173874414}}, {"type": "Feature", "geometry": {"type": "LineString", "coordinates": [[-4.950425204, 34.265100411], [-4.949868792, 34.26536599], [-4.946565095, 34.265811926], [-4.94318519, 34.266659442], [-4.941738969, 34.268022259], [-4.942652841, 34.269320911], [-4.941395498, 34.271852176], [-4.939894179, 34.273052101], [-4.93876155, 34.274835203], [-4.939678815, 34.276532936], [-4.945253751, 34.278857], [-4.95318948, 34.2811097], [-4.956069569, 34.281160836], [-4.958917043, 34.281979335], [-4.960539213, 34.283295495], [-4.960483689, 34.284580434], [-4.958217983, 34.285326669], [-4.957531333, 34.288021235], [-4.959934614, 34.288588541], [-4.963411342, 34.287796214]]}, "properties": {"seq": 6, "edge_id": 425, "length_m": 5318.210911446616}}, {"type": "Feature", "geometry": {"type": "LineString", "coordinates": [[-4.963411342, 34.287796214], [-4.964912719, 34.287454059], [-4.971092503, 34.287170453], [-4.976242331, 34.290006889], [-4.980362201, 34.290857804], [-4.983452138, 34.288305163], [-4.98482548, 34.285894293], [-4.988773674, 34.285468864], [-4.993580157, 34.285468927], [-4.998043353, 34.284901712], [-5.001991526, 34.285610831], [-5.004394783, 34.287454577], [-5.006538824, 34.290094082], [-5.008317687, 34.291794127], [-5.011396769, 34.292118552], [-5.012035178, 34.292069477]]}, "properties": {"seq": 7, "edge_id": 426, "length_m": 5215.020364854591}}, {"type": "Feature", "geometry": {"type": "LineString", "coordinates": [[-5.012035178, 34.292069477], [-5.017898457, 34.291618761], [-5.020857491, 34.28923811], [-5.026953669, 34.289333886], [-5.030230092, 34.292779968], [-5.03542921, 34.29615508], [-5.039070602, 34.295915838], [-5.040958855, 34.298055364], [-5.047529088, 34.300396841], [-5.050384982, 34.300197389], [-5.051149002, 34.299014353], [-5.050831529, 34.297614115], [-5.047890061, 34.289537749]]}, "properties": {"seq": 8, "edge_id": 427, "length_m": 5371.848226548561}}, {"type": "Feature", "geometry": {"type": "LineString", "coordinates": [[-5.047890061, 34.289537749], [-5.047634508, 34.28883608], [-5.044411575, 34.285900375], [-5.047141007, 34.283726911], [-5.057449366, 34.278839275], [-5.060977016, 34.275543374], [-5.063075609, 34.275506204], [-5.065077564, 34.277514936], [-5.063817917, 34.280167297], [-5.064261983, 34.287180576], [-5.065249037, 34.289415985], [-5.06842254, 34.293946916], [-5.074726709, 34.294450376], [-5.075178128, 34.294289856]]}, "properties": {"seq": 9, "edge_id": 428, "length_m": 5502.660317712901}}, {"type": "Feature", "geometry": {"type": "LineString", "coordinates": [[-5.075178128, 34.294289856], [-5.081037429, 34.292206362], [-5.086253823, 34.29159666], [-5.088723636, 34.290510042], [-5.091206279, 34.287767702], [-5.094259731, 34.284479195], [-5.096248959, 34.282717104], [-5.096356309, 34.280048929], [-5.092852287, 34.276591644], [-5.090374028, 34.27489489], [-5.090502767, 34.272864787], [-5.096448781, 34.265742196], [-5.098418584, 34.265259944], [-5.100004392, 34.264557698], [-5.101360498, 34.264006242], [-5.102785291, 34.264116255], [-5.103630622, 34.264508609]]}, "properties": {"seq": 10, "edge_id": 429, "length_m": 5431.611799230884}}, {"type": "Feature", "geometry": {"type": "LineString", "coordinates": [[-5.103630622, 34.264508609], [-5.10447397, 34.264900041], [-5.106606846, 34.265795528], [-5.107639898, 34.268115033], [-5.108138257, 34.270192242], [-5.109089312, 34.272402252], [-5.111144969, 34.274290492], [-5.113301457, 34.274531708], [-5.114882864, 34.273893459], [-5.116597345, 34.274618647], [-5.119575612, 34.275767533], [-5.120633479, 34.277295875], [-5.11920216, 34.278588297], [-5.116949125, 34.280829262], [-5.115032907, 34.28206318], [-5.111606096, 34.28325448], [-5.108177181, 34.284685069], [-5.107375157, 34.286100892], [-5.108000037, 34.286952261], [-5.110367317, 34.287658259], [-5.116956026, 34.291268278], [-5.119236306, 34.29186918], [-5.119897629, 34.292407042]]}, "properties": {"seq": 11, "edge_id": 430, "length_m": 5382.690342211057}}, {"type": "Feature", "geometry": {"type": "LineString", "coordinates": [[-5.119897629, 34.292407042], [-5.121172769, 34.293444132], [-5.120995755, 34.294259592], [-5.121596538, 34.295065262], [-5.123205816, 34.295940042], [-5.125029703, 34.296269751], [-5.12642451, 34.2956245], [-5.128441524, 34.294580475], [-5.130115222, 34.294355407], [-5.131796707, 34.294879905], [-5.132744489, 34.295655881], [-5.133190057, 34.297202216], [-5.132931432, 34.29853155], [-5.132281316, 34.299553394], [-5.131514091, 34.301002417], [-5.130946568, 34.302287449], [-5.131702934, 34.303947283], [-5.133247812, 34.30485116], [-5.135243399, 34.305126874], [-5.136816193, 34.305179992], [-5.138740989, 34.305056024], [-5.140598183, 34.305060448], [-5.142008973, 34.305286256], [-5.144007732, 34.307071198], [-5.144584935, 34.306844417], [-5.145592356, 34.305550591], [-5.145582777, 34.304459642], [-5.145543088, 34.303880067], [-5.146336994, 34.303413099], [-5.146852011, 34.30245865], [-5.147989237, 34.300930837], [-5.149274656, 34.299680412], [-5.151389253, 34.29946505], [-5.152881645, 34.29965826], [-5.155357799, 34.301573404], [-5.155436935, 34.301696042]]}, "properties": {"seq": 12, "edge_id": 431, "length_m": 5417.99507630379}}, {"type": "Feature", "geometry": {"type": "LineString", "coordinates": [[-5.155436935, 34.301696042], [-5.156379166, 34.303156244], [-5.157430491, 34.306854286], [-5.158160066, 34.308091338], [-5.159208239, 34.309305396], [-5.160581542, 34.308868534], [-5.162043835, 34.309015645], [-5.16408232, 34.309455253], [-5.166847111, 34.309406491], [-5.168631294, 34.309961289], [-5.170315166, 34.311144156], [-5.171153048, 34.311992128], [-5.173067834, 34.312333838], [-5.174760845, 34.311496498], [-5.176673339, 34.311438925], [-5.177201133, 34.311700321], [-5.177625228, 34.311860319], [-5.178253123, 34.312042818], [-5.179066921, 34.312000731], [-5.179716219, 34.311978941], [-5.180764207, 34.312380036], [-5.181314599, 34.312775224], [-5.182052186, 34.31330201], [-5.18257247, 34.314038783], [-5.182973149, 34.31509014], [-5.183564341, 34.315434832], [-5.185636349, 34.314660494], [-5.186321651, 34.314365817], [-5.187121244, 34.314591317], [-5.188210438, 34.314735824], [-5.188786636, 34.314737132], [-5.189237243, 34.314335257], [-5.189702453, 34.313668794], [-5.190683168, 34.31272085], [-5.191894377, 34.312034798], [-5.192333382, 34.311652322], [-5.193014693, 34.311005461], [-5.193610104, 34.3103161], [-5.194073618, 34.309457246], [-5.194382642, 34.308251406], [-5.195444756, 34.307253566], [-5.196678681, 34.305794951], [-5.197657523, 34.305493906]]}, "properties": {"seq": 13, "edge_id": 432, "length_m": 5384.744202432365}}, {"type": "Feature", "geometry": {"type": "LineString", "coordinates": [[-5.197657523, 34.305493906], [-5.198603386, 34.305203003], [-5.20015368, 34.305180825], [-5.202223081, 34.30479807], [-5.202972179, 34.304744882], [-5.204132982, 34.304409913], [-5.205376493, 34.303591967], [-5.207020988, 34.30355889]]}, "properties": {"seq": 14, "edge_id": 433, "length_m": 910.400779734626}}, {"type": "Feature", "geometry": {"type": "LineString", "coordinates": [[-5.207020988, 34.30355889], [-5.208103784, 34.303537106], [-5.209385886, 34.303261535], [-5.210384702, 34.302241496], [-5.211753736, 34.300203208], [-5.213563758, 34.298732], [-5.214032567, 34.298259029], [-5.214896292, 34.29675991], [-5.215765301, 34.296097452], [-5.2167524, 34.296023469], [-5.217460482, 34.29681884], [-5.218200763, 34.297712209], [-5.220071862, 34.297409147], [-5.221061067, 34.296969381], [-5.222006248, 34.297794455], [-5.223840833, 34.298260658], [-5.225082193, 34.300168785], [-5.225993085, 34.300400087], [-5.226858886, 34.300217506], [-5.227191493, 34.29979483], [-5.227241899, 34.299451847], [-5.227555213, 34.298706486], [-5.228021929, 34.297745836], [-5.228062645, 34.296901176], [-5.227889974, 34.295414942], [-5.227159393, 34.294547273], [-5.225260444, 34.292165659], [-5.224999769, 34.290941712], [-5.225318378, 34.290396543], [-5.226636988, 34.289676892], [-5.227868695, 34.289047638], [-5.228739816, 34.287836806], [-5.229203329, 34.287064848], [-5.228318265, 34.285308018], [-5.227762311, 34.284703848]]}, "properties": {"seq": 15, "edge_id": 353, "length_m": 4554.494194368464}}, {"type": "Feature", "geometry": {"type": "LineString", "coordinates": [[-5.227762311, 34.284703848], [-5.226354913, 34.283174391], [-5.224106161, 34.28105576], [-5.223333584, 34.2799853], [-5.222898109, 34.278694354], [-5.222984922, 34.278043985], [-5.223852041, 34.276871751], [-5.226372246, 34.276134218], [-5.229187445, 34.275698076], [-5.231260244, 34.275449915], [-5.234221407, 34.276832889], [-5.23672547, 34.278311553], [-5.239090036, 34.279738718], [-5.240894638, 34.27933456], [-5.24159846, 34.277980932], [-5.241795972, 34.277316066], [-5.241624282, 34.276902083], [-5.241185904, 34.275823628], [-5.241343612, 34.275346952], [-5.24216381, 34.275330663], [-5.243052805, 34.275429971], [-5.244861505, 34.27508571], [-5.246080903, 34.274975632], [-5.247489892, 34.275330732], [-5.248151987, 34.275445036], [-5.24858079, 34.275250651], [-5.248507711, 34.274097804], [-5.249377325, 34.273256855], [-5.250026428, 34.272966576], [-5.250537829, 34.272815091], [-5.252885224, 34.272726125], [-5.253651325, 34.272489247], [-5.254786431, 34.271999884], [-5.256854928, 34.271831419], [-5.260659424, 34.271397089], [-5.26122935, 34.271524213]]}, "properties": {"seq": 16, "edge_id": 354, "length_m": 5309.39141051889}}, {"type": "Feature", "geometry": {"type": "LineString", "coordinates": [[-5.26122935, 34.271524213], [-5.264459495, 34.2722447], [-5.267727561, 34.273409588], [-5.270059964, 34.272900742], [-5.271433275, 34.2720497], [-5.271744403, 34.270537275], [-5.270989632, 34.269080233], [-5.27099346, 34.2676382], [-5.27299978, 34.26626229], [-5.274390282, 34.265924925], [-5.27522338, 34.265942234], [-5.276208778, 34.265813254], [-5.277214587, 34.265192595], [-5.278152297, 34.264477641], [-5.280059407, 34.263660203], [-5.2817245, 34.263677025], [-5.28424569, 34.263815451], [-5.28669018, 34.26388768], [-5.287520069, 34.264323471], [-5.288252768, 34.264238284], [-5.288611673, 34.263967902], [-5.289082675, 34.263758618], [-5.289876075, 34.263601735], [-5.290710774, 34.263489152], [-5.291421069, 34.263626154], [-5.292242865, 34.263717961], [-5.292978865, 34.263563678], [-5.293647268, 34.263311999], [-5.294101267, 34.263263107], [-5.297934671, 34.262427996], [-5.30059646, 34.262517627], [-5.302977157, 34.262261369], [-5.304566149, 34.262422783], [-5.306218325, 34.263362561], [-5.307872781, 34.264648163]]}, "properties": {"seq": 17, "edge_id": 355, "length_m": 5204.3571157117}}, {"type": "Feature", "geometry": {"type": "LineString", "coordinates": [[-5.307872781, 34.264648163], [-5.309235272, 34.265706892], [-5.311024742, 34.266966757], [-5.313091098, 34.268893294], [-5.314957843, 34.271461599], [-5.314997533, 34.271947476], [-5.313703614, 34.273162004], [-5.312827092, 34.274468731], [-5.312631071, 34.275630175], [-5.311717625, 34.278190144], [-5.312525508, 34.278935719], [-5.313630602, 34.279074028], [-5.314994204, 34.27877616], [-5.316440508, 34.278259403], [-5.317397542, 34.276326905], [-5.318946761, 34.275099082], [-5.321345814, 34.271904962], [-5.323262076, 34.268295856], [-5.324206184, 34.267686796], [-5.324720149, 34.264166966], [-5.323792195, 34.261929158], [-5.324714858, 34.258496931], [-5.326710457, 34.258167971], [-5.329463437, 34.25878158], [-5.331388222, 34.259194785], [-5.333414317, 34.259004755]]}, "properties": {"seq": 18, "edge_id": 356, "length_m": 5581.571318139001}}, {"type": "Feature", "geometry": {"type": "LineString", "coordinates": [[-5.333414317, 34.259004755], [-5.333883718, 34.258960729], [-5.336559534, 34.257731822], [-5.338104453, 34.256442601], [-5.339413339, 34.256976494], [-5.342556948, 34.255921285], [-5.343539757, 34.255312126], [-5.346197235, 34.255984329], [-5.348854733, 34.25563768], [-5.350491947, 34.254580751], [-5.352953193, 34.251808812], [-5.353800299, 34.251310047], [-5.355635392, 34.251384068], [-5.358345464, 34.252425155], [-5.360270232, 34.253695021], [-5.361156404, 34.255064968], [-5.361536182, 34.256153023], [-5.361113466, 34.257045876], [-5.358345308, 34.260557076], [-5.35814479, 34.261571426], [-5.358898941, 34.264020322], [-5.359583422, 34.264854593], [-5.361142311, 34.265172898], [-5.362787005, 34.265211018], [-5.364482112, 34.264554071], [-5.367393922, 34.263542555], [-5.370424385, 34.263697745]]}, "properties": {"seq": 19, "edge_id": 357, "length_m": 5346.800248937029}}, {"type": "Feature", "geometry": {"type": "LineString", "coordinates": [[-5.370424385, 34.263697745], [-5.370526809, 34.26370299], [-5.373236899, 34.263725224], [-5.374009282, 34.264534697], [-5.375510378, 34.269727476], [-5.377066945, 34.271161929], [-5.378881127, 34.271837521], [-5.380513018, 34.271997136], [-5.381920619, 34.271715167], [-5.382255336, 34.270766615], [-5.383508549, 34.269853475], [-5.388737782, 34.267209766], [-5.389495206, 34.26583914], [-5.390868568, 34.262377819], [-5.396367404, 34.259514024], [-5.399259692, 34.259688653], [-5.402008369, 34.260421156], [-5.402578758, 34.26092434], [-5.404297833, 34.261921316], [-5.406006906, 34.263011088], [-5.407433863, 34.265065311], [-5.407476731, 34.266764033], [-5.406668809, 34.267958267], [-5.405092697, 34.268899802], [-5.40506249, 34.269039753]]}, "properties": {"seq": 20, "edge_id": 358, "length_m": 5442.379740402924}}, {"type": "Feature", "geometry": {"type": "LineString", "coordinates": [[-5.40506249, 34.269039753], [-5.404800873, 34.270251836], [-5.404880236, 34.272160548], [-5.404941412, 34.273375092], [-5.405680595, 34.274198664], [-5.407140789, 34.274179184], [-5.408192194, 34.273772316], [-5.408828415, 34.27257988], [-5.410574019, 34.272043628], [-5.412566345, 34.270397331], [-5.4134891, 34.267303187], [-5.414974028, 34.265623084], [-5.416599431, 34.265173626], [-5.417497429, 34.265110741], [-5.419173317, 34.265452047], [-5.420514392, 34.266553214], [-5.423414372, 34.267130425], [-5.425626565, 34.267123354], [-5.425626565, 34.267123354]]}, "properties": {"seq": 21, "edge_id": 359, "length_m": 3049.308050875955}}, {"type": "Feature", "geometry": {"type": "LineString", "coordinates": [[-5.425626565, 34.267123354], [-5.426166563, 34.26716386], [-5.426998858, 34.267226268], [-5.430137001, 34.269668795], [-5.430715174, 34.270986242], [-5.431651851, 34.272086403], [-5.432320239, 34.27254119], [-5.4327386, 34.274543004], [-5.433950954, 34.276740617], [-5.435114947, 34.276930323], [-5.437120237, 34.277097042], [-5.437160877, 34.280242197], [-5.43866502, 34.283006988], [-5.438785551, 34.283928385]]}, "properties": {"seq": 22, "edge_id": 21, "length_m": 2483.589436316934}}, {"type": "Feature", "geometry": {"type": "LineString", "coordinates": [[-5.438785551, 34.283928385], [-5.439145648, 34.286681124], [-5.439582181, 34.290092771], [-5.441990745, 34.291588934], [-5.443189262, 34.290461502], [-5.443718169, 34.290036928], [-5.444453056, 34.290605112], [-5.444799626, 34.292134046], [-5.445530181, 34.294337353], [-5.445745765, 34.295186416], [-5.445154648, 34.296127665], [-5.443124752, 34.296294331], [-5.441708539, 34.297186771], [-5.441436021, 34.298171422], [-5.442470195, 34.299404177], [-5.445998846, 34.301338834], [-5.449504984, 34.304018757], [-5.457922785, 34.307742595], [-5.459493445, 34.309600929], [-5.458952611, 34.311445837], [-5.459410778, 34.313102866], [-5.460447142, 34.314774902], [-5.461243108, 34.316438035], [-5.462650792, 34.317092924], [-5.463531779, 34.316879033]]}, "properties": {"seq": 23, "edge_id": 22, "length_m": 5558.096832073008}}, {"type": "Feature", "geometry": {"type": "LineString", "coordinates": [[-5.463531779, 34.316879033], [-5.464340594, 34.316682665], [-5.465371602, 34.316103206], [-5.46595852, 34.315040762], [-5.466065846, 34.313691327], [-5.467105468, 34.312317004], [-5.467983081, 34.31157445], [-5.469609588, 34.310887703], [-5.470281184, 34.310935509], [-5.471849739, 34.313047133], [-5.47507142, 34.318751711], [-5.477062686, 34.32020837], [-5.478892938, 34.322342795], [-5.480751217, 34.323217379], [-5.482644823, 34.322565234], [-5.485852751, 34.320531871], [-5.486438574, 34.319258737], [-5.486952511, 34.317244737], [-5.487033648, 34.315316626], [-5.485484396, 34.313027412], [-5.484941515, 34.312110248], [-5.485337428, 34.311384087], [-5.486050439, 34.310676529], [-5.48706264, 34.310462552], [-5.488450937, 34.310403673], [-5.489354827, 34.310743969], [-5.489821517, 34.311216253], [-5.490232487, 34.312741688], [-5.49102477, 34.313467865], [-5.493156546, 34.314326953], [-5.495338724, 34.314740044]]}, "properties": {"seq": 24, "edge_id": 23, "length_m": 5540.093188153436}}, {"type": "Feature", "geometry": {"type": "LineString", "coordinates": [[-5.495338724, 34.314740044], [-5.496176125, 34.314898566], [-5.498700599, 34.315889154], [-5.499784166, 34.317463795], [-5.501545823, 34.319416629], [-5.502673403, 34.320198107], [-5.503158385, 34.32112757], [-5.503225836, 34.323680953], [-5.5032741, 34.325506169], [-5.502833108, 34.330458535], [-5.500611049, 34.333853248], [-5.499079027, 34.335297262], [-5.491760815, 34.33713258], [-5.490812406, 34.337781038], [-5.490535581, 34.339126572], [-5.491481832, 34.341473176], [-5.496431975, 34.343656641], [-5.501269613, 34.346124491], [-5.505112676, 34.347423882], [-5.505545698, 34.348294862]]}, "properties": {"seq": 25, "edge_id": 24, "length_m": 5500.117138546451}}, {"type": "Feature", "geometry": {"type": "LineString", "coordinates": [[-5.505545698, 34.348294862], [-5.506499818, 34.350213971], [-5.512276132, 34.353684186], [-5.51552912, 34.353819723], [-5.516438795, 34.354938684], [-5.516372387, 34.355386962], [-5.516872873, 34.356021939], [-5.518442948, 34.357070512], [-5.517891537, 34.357725473], [-5.51702893, 34.358213439], [-5.516745586, 34.360579827], [-5.517123258, 34.36192677], [-5.518648845, 34.362414768], [-5.525519623, 34.362488354], [-5.529202647, 34.360618389], [-5.535080192, 34.357217024], [-5.539182315, 34.355337265], [-5.5410744, 34.350613007], [-5.541514105, 34.35023953], [-5.54247401, 34.349865961], [-5.543936065, 34.350373874]]}, "properties": {"seq": 26, "edge_id": 25, "length_m": 5380.125333181277}}, {"type": "Feature", "geometry": {"type": "LineString", "coordinates": [[-5.543936065, 34.350373874], [-5.543990995, 34.350392956], [-5.545115377, 34.351123737], [-5.545004264, 34.351831303], [-5.544799908, 34.354751866], [-5.546764172, 34.356368817], [-5.54671056, 34.356963989], [-5.545240626, 34.358974377], [-5.541901271, 34.362437173], [-5.541648047, 34.36373981], [-5.54310712, 34.364876877], [-5.545510307, 34.365162995], [-5.548883558, 34.361944988], [-5.549229175, 34.360992536], [-5.55036858, 34.360489074], [-5.552192259, 34.36131036], [-5.55232065, 34.361835638], [-5.552454934, 34.362570006], [-5.553609499, 34.364262844], [-5.554717774, 34.36530961], [-5.555991246, 34.366660964], [-5.558640117, 34.367696151], [-5.560925387, 34.368865927], [-5.563643998, 34.373070269], [-5.565552229, 34.376335545], [-5.567121768, 34.37926013], [-5.567023418, 34.379509304]]}, "properties": {"seq": 27, "edge_id": 26, "length_m": 5594.452795633752}}, {"type": "Feature", "geometry": {"type": "LineString", "coordinates": [[-5.567023418, 34.379509304], [-5.56561, 34.383090234], [-5.56645229, 34.383472927], [-5.566864578, 34.384021908], [-5.568436265, 34.384364613], [-5.569949763, 34.384288236], [-5.572052981, 34.382946326], [-5.573598009, 34.381288022], [-5.577117088, 34.376631783], [-5.578575205, 34.375454157], [-5.579835804, 34.375323979], [-5.58114118, 34.376330449], [-5.583006795, 34.380460084], [-5.586951739, 34.382719532], [-5.586820805, 34.384529248], [-5.583169788, 34.386004132], [-5.581194574, 34.387069156], [-5.581401615, 34.39009602], [-5.583777971, 34.391987865], [-5.587051339, 34.393090057], [-5.586164455, 34.396925145]]}, "properties": {"seq": 28, "edge_id": 27, "length_m": 5538.775510996004}}, {"type": "Feature", "geometry": {"type": "LineString", "coordinates": [[-5.586164455, 34.396925145], [-5.585979454, 34.39772513], [-5.585807692, 34.400982578], [-5.585636031, 34.404240026], [-5.582717729, 34.404806462], [-5.58026027, 34.40304801], [-5.57735392, 34.400934169], [-5.574821416, 34.401549007], [-5.574438765, 34.404310975], [-5.578746375, 34.40826845], [-5.583003533, 34.409775837], [-5.584965785, 34.411932765], [-5.584154817, 34.415609284], [-5.584949097, 34.416560151], [-5.588382369, 34.417409858], [-5.591955469, 34.416802233], [-5.593888827, 34.413471011], [-5.592471699, 34.410960888]]}, "properties": {"seq": 29, "edge_id": 28, "length_m": 5535.007029420394}}, {"type": "Feature", "geometry": {"type": "LineString", "coordinates": [[-5.592471699, 34.410960888], [-5.592444781, 34.410913209], [-5.592344048, 34.407433068], [-5.595174367, 34.405951473], [-5.599768366, 34.405300964], [-5.603185527, 34.406727743], [-5.605361306, 34.407450939], [-5.607059727, 34.406113522], [-5.607265271, 34.403815431], [-5.606248747, 34.399996293], [-5.607547983, 34.397901906], [-5.612359871, 34.397732977], [-5.615213803, 34.395596014], [-5.614913439, 34.393763593], [-5.611453365, 34.392944685], [-5.610479682, 34.392313302], [-5.610224396, 34.391541834], [-5.613445323, 34.389652063], [-5.614818664, 34.387243992], [-5.616946693, 34.385449003], [-5.618132225, 34.385635649]]}, "properties": {"seq": 30, "edge_id": 29, "length_m": 5444.196982587988}}, {"type": "Feature", "geometry": {"type": "LineString", "coordinates": [[-5.618132225, 34.385635649], [-5.620270673, 34.385972323], [-5.62185675, 34.386819204], [-5.623603791, 34.389602999], [-5.624560724, 34.392997955], [-5.623968456, 34.396617682], [-5.626470448, 34.396670012], [-5.627886674, 34.394999607], [-5.62741464, 34.391653356], [-5.630053983, 34.389014312], [-5.635425847, 34.389959839], [-5.638816139, 34.389862588], [-5.643236396, 34.391433073], [-5.645932622, 34.389562496], [-5.647134212, 34.389947594], [-5.647527973, 34.39188821], [-5.647906591, 34.396091322], [-5.645503252, 34.398545977], [-5.645015271, 34.398786311]]}, "properties": {"seq": 31, "edge_id": 30, "length_m": 5513.062703069191}}, {"type": "Feature", "geometry": {"type": "LineString", "coordinates": [[-5.645015271, 34.398786311], [-5.643142436, 34.399708692], [-5.643021611, 34.401084627], [-5.647863537, 34.404107553], [-5.649644553, 34.402979828], [-5.651339701, 34.400186278], [-5.652268844, 34.397821099], [-5.654587374, 34.395868319], [-5.65640376, 34.396350821], [-5.658170805, 34.398906428], [-5.659965246, 34.401691723], [-5.661432235, 34.402018727], [-5.664600061, 34.400133856], [-5.667648837, 34.40090756], [-5.669178425, 34.401295663], [-5.67101422, 34.401263289], [-5.672647121, 34.400976123], [-5.673693234, 34.400094377], [-5.673869759, 34.398717744], [-5.672862905, 34.39653763], [-5.671015944, 34.394797286], [-5.668720046, 34.395035144], [-5.666698658, 34.396785834]]}, "properties": {"seq": 32, "edge_id": 31, "length_m": 5444.168753259772}}, {"type": "Feature", "geometry": {"type": "LineString", "coordinates": [[-5.666698658, 34.396785834], [-5.665616605, 34.39772298], [-5.664827203, 34.397957159], [-5.6639783, 34.398208935], [-5.663706712, 34.397650959], [-5.663398525, 34.397017982], [-5.664064155, 34.395363868], [-5.666946996, 34.392735627], [-5.667010415, 34.391769671], [-5.666274328, 34.391121792], [-5.665749345, 34.390333721], [-5.665572771, 34.389020079], [-5.666067388, 34.388043631], [-5.668172987, 34.38780137], [-5.670058479, 34.387931189], [-5.675593431, 34.389523088], [-5.677861508, 34.390394279], [-5.680522137, 34.393631664], [-5.685607618, 34.393807923], [-5.689319377, 34.395318703], [-5.692044861, 34.395714821], [-5.693375289, 34.394021317], [-5.693375552, 34.390722967], [-5.696482391, 34.388180326], [-5.696684092, 34.38815123], [-5.697813158, 34.388033963]]}, "properties": {"seq": 33, "edge_id": 32, "length_m": 5393.270746321944}}, {"type": "Feature", "geometry": {"type": "LineString", "coordinates": [[-5.697813158, 34.388033963], [-5.698589189, 34.387953363], [-5.699790759, 34.389369914], [-5.700820712, 34.391636223], [-5.702151494, 34.39233331], [-5.703395609, 34.39135297], [-5.703760829, 34.390248526], [-5.705069761, 34.38837963], [-5.706700582, 34.387009214], [-5.709361452, 34.382946435], [-5.710605548, 34.38299565], [-5.713008719, 34.38412893], [-5.716549677, 34.385721203], [-5.717471895, 34.384553969], [-5.716471422, 34.383373309], [-5.714897061, 34.381579072], [-5.714210501, 34.379595854], [-5.714780713, 34.378934191], [-5.716700005, 34.379003014], [-5.719467984, 34.37964142], [-5.722793471, 34.37973766], [-5.723416138, 34.381422891], [-5.722793399, 34.383562485], [-5.723187576, 34.384665039], [-5.724875235, 34.386573873], [-5.724617705, 34.388189596], [-5.723737877, 34.389759212], [-5.723783715, 34.390174163]]}, "properties": {"seq": 34, "edge_id": 33, "length_m": 5542.468145165153}}, {"type": "Feature", "geometry": {"type": "LineString", "coordinates": [[-5.723783715, 34.390174163], [-5.723845157, 34.390730369], [-5.724875151, 34.390947272], [-5.726634667, 34.389814148], [-5.731505656, 34.384370363], [-5.732406675, 34.383217227], [-5.73359327, 34.383296939], [-5.733222019, 34.386044208], [-5.73408029, 34.387427955], [-5.735603777, 34.387835157], [-5.736555388, 34.387150001], [-5.738028511, 34.385696287], [-5.740302829, 34.384412576], [-5.74219772, 34.384570194], [-5.744150391, 34.385736265], [-5.745517116, 34.389389917], [-5.746375501, 34.390054797], [-5.747362501, 34.389937016], [-5.74796985, 34.387309444], [-5.748285254, 34.386958064], [-5.749851638, 34.387589256], [-5.751289005, 34.389087206], [-5.75174626, 34.391327909], [-5.754014294, 34.394394498], [-5.755844572, 34.39530008], [-5.757340206, 34.393217097], [-5.758252253, 34.392411213]]}, "properties": {"seq": 35, "edge_id": 34, "length_m": 5560.323345081155}}, {"type": "Feature", "geometry": {"type": "LineString", "coordinates": [[-5.758252253, 34.392411213], [-5.758327021, 34.39234515], [-5.76008681, 34.39261786], [-5.760586777, 34.39428299], [-5.759164003, 34.398323086], [-5.760129582, 34.399264956], [-5.76369155, 34.400342353], [-5.763784827, 34.4015222], [-5.761996304, 34.402993309], [-5.759163908, 34.40323586], [-5.755323032, 34.402690535], [-5.75423625, 34.401860259], [-5.754901512, 34.398511621], [-5.754035452, 34.396594297], [-5.751975561, 34.396452577], [-5.749749649, 34.397448702], [-5.746524538, 34.398608307], [-5.743434671, 34.397309725], [-5.741675874, 34.397443895], [-5.740474153, 34.398718622], [-5.739100914, 34.400984599], [-5.737810205, 34.401712449], [-5.737104608, 34.401650543], [-5.73621652, 34.401087957], [-5.736010939, 34.400134798], [-5.735180962, 34.399075535], [-5.734196265, 34.399102921], [-5.733840133, 34.399351568]]}, "properties": {"seq": 36, "edge_id": 35, "length_m": 5419.2022132395905}}, {"type": "Feature", "geometry": {"type": "LineString", "coordinates": [[-5.733840133, 34.399351568], [-5.731954742, 34.40066792], [-5.731376125, 34.401692665], [-5.731333802, 34.402833412], [-5.731446383, 34.403837168], [-5.732339555, 34.405111821], [-5.733941332, 34.406104497], [-5.736213721, 34.406289918], [-5.741317451, 34.403954593], [-5.744127851, 34.403394356], [-5.746758046, 34.403315593], [-5.748018627, 34.404026377], [-5.750087088, 34.405800024], [-5.751183059, 34.407102178], [-5.751565524, 34.408853402], [-5.750916893, 34.410619513], [-5.750448063, 34.412188334], [-5.750686752, 34.412761812], [-5.752190036, 34.413348805], [-5.756352108, 34.414104524], [-5.76025807, 34.415508412], [-5.762952316, 34.417886739], [-5.765425276, 34.419607193], [-5.768631898, 34.41787753]]}, "properties": {"seq": 37, "edge_id": 36, "length_m": 5375.815355436663}}, {"type": "Feature", "geometry": {"type": "LineString", "coordinates": [[-5.768631898, 34.41787753], [-5.768969501, 34.417695426], [-5.774012313, 34.416214862], [-5.779170837, 34.414166924], [-5.785277411, 34.414580384], [-5.791457179, 34.415288434], [-5.796302058, 34.415565884], [-5.79705303, 34.416938032], [-5.795233362, 34.420771333], [-5.793437889, 34.424842023], [-5.794890131, 34.427607116], [-5.798838221, 34.432703933], [-5.797919107, 34.438935559]]}, "properties": {"seq": 38, "edge_id": 37, "length_m": 5444.644381381613}}, {"type": "Feature", "geometry": {"type": "LineString", "coordinates": [[-5.797919107, 34.438935559], [-5.797293124, 34.443179735], [-5.803982678, 34.444530761], [-5.808468452, 34.445176191], [-5.810423212, 34.446920437], [-5.807215768, 34.449714167], [-5.798494571, 34.450964995], [-5.792979677, 34.451554195], [-5.791113058, 34.452804912], [-5.791434681, 34.456758336], [-5.797121115, 34.459315594], [-5.800705385, 34.460254199], [-5.802177988, 34.46011647]]}, "properties": {"seq": 39, "edge_id": 38, "length_m": 5276.971963262259}}, {"type": "Feature", "geometry": {"type": "LineString", "coordinates": [[-5.802177988, 34.46011647], [-5.805726479, 34.459784587], [-5.8134289, 34.457475894], [-5.819344398, 34.45662811], [-5.826267841, 34.458508417], [-5.82796301, 34.459848578], [-5.825445019, 34.46497691], [-5.82292753, 34.46997285], [-5.819501756, 34.474346205], [-5.818406713, 34.476722082], [-5.820981556, 34.479269], [-5.824852732, 34.481548273]]}, "properties": {"seq": 40, "edge_id": 39, "length_m": 5396.222549488539}}, {"type": "Feature", "geometry": {"type": "LineString", "coordinates": [[-5.824852732, 34.481548273], [-5.825787988, 34.482098934], [-5.832562813, 34.484929194], [-5.834263596, 34.485547189], [-5.837179573, 34.486246995], [-5.840159675, 34.485631163], [-5.843259689, 34.484465757], [-5.847178732, 34.48159724], [-5.853912683, 34.477961094], [-5.859382119, 34.475162894], [-5.864427248, 34.472895064], [-5.866647269, 34.471430261], [-5.867260904, 34.469568754], [-5.865549647, 34.467594321], [-5.862547678, 34.466459233], [-5.862268421, 34.466374249]]}, "properties": {"seq": 41, "edge_id": 40, "length_m": 5257.862882971084}}, {"type": "Feature", "geometry": {"type": "LineString", "coordinates": [[-5.862268421, 34.466374249], [-5.858390915, 34.465194236], [-5.85687354, 34.464068567], [-5.858708876, 34.461981287], [-5.861445417, 34.459351443], [-5.86468854, 34.457656763], [-5.869845045, 34.456636478], [-5.873496046, 34.456006954], [-5.876085153, 34.455212226], [-5.880042663, 34.454130127], [-5.882559049, 34.454419847], [-5.884133922, 34.455580715], [-5.88422088, 34.457783316], [-5.882279366, 34.463936209], [-5.880258016, 34.466897747], [-5.880685487, 34.468326988], [-5.881747876, 34.468740482], [-5.8835847, 34.46715908], [-5.884356298, 34.467209856]]}, "properties": {"seq": 42, "edge_id": 41, "length_m": 5396.453130503011}}, {"type": "Feature", "geometry": {"type": "LineString", "coordinates": [[-5.884356298, 34.467209856], [-5.887200385, 34.467397016], [-5.890882467, 34.467760648], [-5.896142043, 34.468216696], [-5.909162224, 34.467141718], [-5.908969723, 34.467242011], [-5.912801012, 34.467187964], [-5.917283603, 34.466959333], [-5.918140786, 34.467704011], [-5.918473254, 34.46935684], [-5.918433811, 34.471560739], [-5.917949777, 34.473432247], [-5.91693315, 34.474897966], [-5.91655614, 34.475540933], [-5.914952528, 34.476406372], [-5.913025719, 34.477159913], [-5.911058225, 34.477161586], [-5.908056045, 34.476586973], [-5.905482949, 34.475855178]]}, "properties": {"seq": 43, "edge_id": 42, "length_m": 5184.559608035077}}, {"type": "Feature", "geometry": {"type": "LineString", "coordinates": [[-5.905482949, 34.475855178], [-5.904447076, 34.475560572], [-5.901952287, 34.475383347], [-5.899908086, 34.475748503], [-5.898687871, 34.476642147], [-5.897942844, 34.478231964], [-5.897274389, 34.481156222], [-5.897446968, 34.482196677], [-5.898057851, 34.483062145], [-5.900116331, 34.483719443], [-5.902982998, 34.485013222], [-5.906297686, 34.485103162], [-5.910416383, 34.484615839], [-5.912604376, 34.484651465], [-5.914021658, 34.485354352], [-5.914804807, 34.487910546], [-5.91341002, 34.492637613], [-5.911539768, 34.500779817], [-5.910609519, 34.503456883], [-5.909064589, 34.505243581], [-5.90698322, 34.503963413], [-5.90664874, 34.503924201]]}, "properties": {"seq": 44, "edge_id": 43, "length_m": 5534.403828512422}}, {"type": "Feature", "geometry": {"type": "LineString", "coordinates": [[-5.90664874, 34.503924201], [-5.905617427, 34.503803302], [-5.89908354, 34.504228096], [-5.897470739, 34.50454246], [-5.896063833, 34.505033219], [-5.895407728, 34.505386594], [-5.895042819, 34.505895467], [-5.894966911, 34.506291148], [-5.895112906, 34.506589336], [-5.895997088, 34.507329415], [-5.89703557, 34.508104192], [-5.898692239, 34.509463452], [-5.902059983, 34.511849389], [-5.902569577, 34.512091685], [-5.903122071, 34.512304682], [-5.903940361, 34.512683475], [-5.905416447, 34.513193472], [-5.907098038, 34.513411985], [-5.908347032, 34.513516096], [-5.911067728, 34.513313541], [-5.91263262, 34.513431457], [-5.913401514, 34.513668256], [-5.913866103, 34.514135141], [-5.914414582, 34.515142402], [-5.91464456, 34.516208058], [-5.914707617, 34.518455156], [-5.915737537, 34.52241509], [-5.917308183, 34.524986993], [-5.921650665, 34.525293737], [-5.925136854, 34.525278384], [-5.926342085, 34.525285481]]}, "properties": {"seq": 45, "edge_id": 44, "length_m": 5315.8471828339725}}, {"type": "Feature", "geometry": {"type": "LineString", "coordinates": [[-5.926342085, 34.525285481], [-5.927655746, 34.525293217], [-5.930740652, 34.524551991], [-5.933761978, 34.522698115], [-5.938638207, 34.520425183], [-5.94033881, 34.520021624], [-5.942172493, 34.520685118], [-5.943422747, 34.522822638], [-5.942858987, 34.526020386], [-5.937270101, 34.531370168], [-5.933708065, 34.533714415], [-5.932044991, 34.537828806], [-5.929058656, 34.540104564], [-5.925157061, 34.540438096], [-5.921916966, 34.540692542], [-5.921047944, 34.541940775], [-5.920716611, 34.544717676]]}, "properties": {"seq": 46, "edge_id": 45, "length_m": 5426.5171373360035}}, {"type": "Feature", "geometry": {"type": "LineString", "coordinates": [[-5.920716611, 34.544717676], [-5.920661683, 34.545178023], [-5.921273142, 34.547199339], [-5.925983046, 34.551402311], [-5.928815411, 34.552798786], [-5.931762099, 34.552961817], [-5.934812825, 34.551105542], [-5.938027772, 34.548239214], [-5.940134408, 34.546051341], [-5.942104819, 34.545212805], [-5.942859508, 34.545605297], [-5.943825642, 34.548814965], [-5.943091719, 34.550166793], [-5.940012491, 34.552089866], [-5.93279572, 34.556856055], [-5.931218487, 34.558853643], [-5.931347214, 34.562590776], [-5.931604479, 34.56472589]]}, "properties": {"seq": 47, "edge_id": 46, "length_m": 5518.527433277516}}, {"type": "Feature", "geometry": {"type": "LineString", "coordinates": [[-5.931604479, 34.56472589], [-5.932119587, 34.569000896], [-5.930774656, 34.570832595], [-5.928128348, 34.571642623], [-5.92484916, 34.571529985], [-5.923075674, 34.571074082], [-5.92073361, 34.569581618], [-5.920017433, 34.568508758], [-5.92069346, 34.567048433], [-5.922208881, 34.565688014], [-5.922710506, 34.564294384], [-5.921959538, 34.562843739], [-5.920404967, 34.561503579], [-5.917464186, 34.561091359], [-5.915533973, 34.562002292], [-5.912775656, 34.563303897], [-5.911262808, 34.566009854], [-5.911627579, 34.567446294], [-5.913591435, 34.56942693], [-5.915972673, 34.572216636], [-5.918847944, 34.573333624], [-5.921948529, 34.573600453], [-5.923728213, 34.573671703]]}, "properties": {"seq": 48, "edge_id": 47, "length_m": 5439.180409881576}}, {"type": "Feature", "geometry": {"type": "LineString", "coordinates": [[-5.923728213, 34.573671703], [-5.928514604, 34.573863328], [-5.931911898, 34.573652282], [-5.935981912, 34.572301297], [-5.939161923, 34.571260287], [-5.939345323, 34.571202892], [-5.942344031, 34.57034357], [-5.947643733, 34.569448481], [-5.95020835, 34.568151973], [-5.951377369, 34.566952944], [-5.953182041, 34.562961648], [-5.954166958, 34.561975705], [-5.956639952, 34.56194304], [-5.959253924, 34.56291783], [-5.960883488, 34.564548677], [-5.962905251, 34.566118934], [-5.964488303, 34.568365054], [-5.968104222, 34.571979638], [-5.969741052, 34.572371764]]}, "properties": {"seq": 49, "edge_id": 48, "length_m": 5279.349436463907}}, {"type": "Feature", "geometry": {"type": "LineString", "coordinates": [[-5.969741052, 34.572371764], [-5.970798302, 34.572625044], [-5.977877845, 34.569354586], [-5.980430235, 34.569463614], [-5.98762815, 34.572670365], [-5.991919601, 34.574604934], [-5.994159809, 34.573874397], [-5.996310358, 34.570977857], [-5.999066232, 34.566780983], [-6.000859503, 34.56274099], [-6.002425502, 34.562570218], [-6.005092687, 34.562975234], [-6.006745976, 34.563338341], [-6.009832644, 34.564499229], [-6.01152987, 34.567988793], [-6.011685718, 34.569915244]]}, "properties": {"seq": 50, "edge_id": 49, "length_m": 5376.302833633704}}, {"type": "Feature", "geometry": {"type": "LineString", "coordinates": [[-6.011685718, 34.569915244], [-6.011835596, 34.571767927], [-6.010511499, 34.577006072], [-6.009183202, 34.582210319], [-6.010149831, 34.585749073], [-6.014269542, 34.589705849], [-6.01856108, 34.59224939], [-6.023226235, 34.593849081], [-6.024910326, 34.594031094], [-6.027991629, 34.59350216], [-6.029754434, 34.59291221], [-6.031274758, 34.591499193], [-6.033263425, 34.587708191], [-6.03451435, 34.586189076], [-6.036712762, 34.585282046], [-6.03912936, 34.584971592], [-6.041877193, 34.585194875]]}, "properties": {"seq": 51, "edge_id": 50, "length_m": 5512.5910777891395}}, {"type": "Feature", "geometry": {"type": "LineString", "coordinates": [[-6.041877193, 34.585194875], [-6.044815635, 34.585433647], [-6.046941514, 34.586164041], [-6.049034686, 34.587347616], [-6.050490055, 34.588717174], [-6.05162572, 34.590334516], [-6.052206553, 34.593662873], [-6.052385723, 34.595181307], [-6.052922088, 34.596965134], [-6.053780358, 34.598360382], [-6.055262323, 34.599908431], [-6.056129219, 34.599957941], [-6.058246831, 34.59904931], [-6.063549231, 34.598288815], [-6.06647412, 34.59836915], [-6.070780188, 34.599392061], [-6.073047483, 34.599336094], [-6.074947782, 34.59908033], [-6.075868101, 34.597952294], [-6.075896536, 34.596159675], [-6.076285465, 34.594566052], [-6.078827487, 34.593069153], [-6.080556902, 34.592016424], [-6.08133961, 34.591478658], [-6.082339016, 34.591042391], [-6.082635116, 34.591047695], [-6.08274701, 34.59101813]]}, "properties": {"seq": 52, "edge_id": 51, "length_m": 5367.506135045705}}, {"type": "Feature", "geometry": {"type": "LineString", "coordinates": [[-6.08274701, 34.59101813], [-6.085246721, 34.59035766], [-6.086253111, 34.59068026], [-6.087789089, 34.591648136], [-6.088858968, 34.592581208], [-6.089537451, 34.593327184], [-6.089912431, 34.594331744], [-6.089998186, 34.596582843], [-6.089635546, 34.598721642], [-6.088712307, 34.600825134], [-6.087895282, 34.602289658], [-6.087221963, 34.6033699], [-6.087178549, 34.604090467], [-6.087241239, 34.604597344], [-6.087291733, 34.604881633], [-6.087439227, 34.605145222], [-6.088345813, 34.605727608], [-6.0899015, 34.606223807], [-6.091255392, 34.606366018], [-6.092402891, 34.60623444], [-6.093894201, 34.60556209], [-6.094853406, 34.60517892], [-6.096071114, 34.604566963], [-6.097157922, 34.603978504], [-6.098327933, 34.603229253], [-6.099277448, 34.602364305], [-6.100309766, 34.60122207], [-6.101379775, 34.600611512], [-6.102049781, 34.60017574], [-6.102672087, 34.599777466], [-6.103331391, 34.599499388], [-6.104302892, 34.59929411], [-6.105753387, 34.599268931], [-6.107647978, 34.599548743], [-6.107739878, 34.599565643], [-6.108932565, 34.600010239], [-6.111220632, 34.601335509], [-6.114228985, 34.603253663], [-6.116231051, 34.604762023], [-6.117110242, 34.605128118], [-6.117573148, 34.60520367]]}, "properties": {"seq": 53, "edge_id": 52, "length_m": 5402.282201272788}}, {"type": "Feature", "geometry": {"type": "LineString", "coordinates": [[-6.117573148, 34.60520367], [-6.118286034, 34.605320024], [-6.119472432, 34.605250243], [-6.120390032, 34.60513776], [-6.121357239, 34.604581398], [-6.122356649, 34.60396114], [-6.123351759, 34.603263084], [-6.125218596, 34.601082906], [-6.12636502, 34.599752182], [-6.127259835, 34.598809536], [-6.127777546, 34.598171472], [-6.128418554, 34.597667704], [-6.12905806, 34.597262331], [-6.129866959, 34.597145145], [-6.130382153, 34.597390642], [-6.131243135, 34.598205417], [-6.131836723, 34.598727401], [-6.13260809, 34.60028964], [-6.132585575, 34.601076804], [-6.131980446, 34.602652226], [-6.130774527, 34.603821257], [-6.128939768, 34.607150583], [-6.126561812, 34.610387806], [-6.126056382, 34.612017826], [-6.125919762, 34.613040778], [-6.126220248, 34.613692853], [-6.126684736, 34.614277432], [-6.128241922, 34.614749532], [-6.129381114, 34.615023435], [-6.130601512, 34.614924555], [-6.13201721, 34.614854376], [-6.133537516, 34.614314521], [-6.135119525, 34.613590975], [-6.137569947, 34.612098874], [-6.139115966, 34.610822552], [-6.140172785, 34.609767015], [-6.140977503, 34.608706172], [-6.14175002, 34.607684529], [-6.141942772, 34.606918462]]}, "properties": {"seq": 54, "edge_id": 53, "length_m": 5504.98139792614}}, {"type": "Feature", "geometry": {"type": "LineString", "coordinates": [[-6.141942772, 34.606918462], [-6.142104046, 34.606277497], [-6.142329369, 34.605069554], [-6.142296707, 34.603171539], [-6.141613848, 34.601114523], [-6.141117195, 34.598783221], [-6.140784624, 34.597325682], [-6.140621555, 34.595810749], [-6.1406291, 34.593470855], [-6.14056692, 34.592426101], [-6.141095839, 34.591357556], [-6.141675263, 34.590001025], [-6.142984184, 34.588749599], [-6.143831783, 34.588671014], [-6.145285484, 34.588447142], [-6.146849379, 34.588403365], [-6.147644971, 34.588734361], [-6.150084146, 34.58968445], [-6.152304718, 34.59078553], [-6.155451976, 34.592462396], [-6.157891148, 34.593563479], [-6.160496416, 34.594844456], [-6.162454795, 34.595600048], [-6.163477085, 34.595942246], [-6.164718476, 34.596250449], [-6.166015573, 34.596193068], [-6.167090575, 34.595932594], [-6.16821178, 34.595532528], [-6.169251393, 34.594720978], [-6.16995731, 34.593731831], [-6.170314629, 34.592637686], [-6.170479847, 34.59169623], [-6.170534682, 34.589909612], [-6.170193904, 34.588125142]]}, "properties": {"seq": 55, "edge_id": 54, "length_m": 5538.7578538849575}}, {"type": "Feature", "geometry": {"type": "LineString", "coordinates": [[-6.170193904, 34.588125142], [-6.170192118, 34.588115788], [-6.170393245, 34.586647657], [-6.170924163, 34.585661809], [-6.171654886, 34.584387376], [-6.172735803, 34.583326638], [-6.174371132, 34.581609638], [-6.175516449, 34.580580399], [-6.175889605, 34.577605738], [-6.176801664, 34.574447492], [-6.178164178, 34.573513352], [-6.180234851, 34.57463073], [-6.18147138, 34.57807389], [-6.182029246, 34.57979812], [-6.182440625, 34.580767681], [-6.183437203, 34.581739351], [-6.184460086, 34.582459033], [-6.185273177, 34.582833326], [-6.186226068, 34.583150024], [-6.187554962, 34.583286836], [-6.188752658, 34.583294052], [-6.190405059, 34.582991788], [-6.191454168, 34.582365629], [-6.192162278, 34.581717867], [-6.192651889, 34.581106102], [-6.192859895, 34.580815418], [-6.1931404, 34.580463838], [-6.193391507, 34.580077858], [-6.19349702, 34.579369392], [-6.19372355, 34.577849163], [-6.193833877, 34.57640803], [-6.193592502, 34.575191481], [-6.193403914, 34.574599306], [-6.192791943, 34.57320296], [-6.191978985, 34.571165841], [-6.191305815, 34.569675699], [-6.190518946, 34.568164058], [-6.189907071, 34.567019501], [-6.189907085, 34.566285235], [-6.18999983, 34.565742091]]}, "properties": {"seq": 56, "edge_id": 55, "length_m": 5702.5395248285495}}, {"type": "Feature", "geometry": {"type": "LineString", "coordinates": [[-6.18999983, 34.565742091], [-6.190143111, 34.564903], [-6.190361725, 34.564139938], [-6.191332156, 34.562426627], [-6.192521177, 34.561123602], [-6.195196414, 34.558819842], [-6.19815145, 34.556573683], [-6.200101064, 34.555500957], [-6.201263879, 34.554601013], [-6.202889985, 34.554003462], [-6.203825484, 34.553931477], [-6.204708475, 34.554248275], [-6.205469065, 34.554629867], [-6.206360742, 34.55571703], [-6.207348697, 34.557862546], [-6.208222851, 34.560115856], [-6.2090271, 34.562621254], [-6.209656532, 34.566076705], [-6.210111091, 34.568135518], [-6.211168961, 34.56953207], [-6.212812541, 34.570280657], [-6.214053937, 34.570338272], [-6.215898636, 34.570108006], [-6.217236241, 34.569647245], [-6.218783748, 34.569085791], [-6.219692958, 34.568366035], [-6.220418595, 34.566393534], [-6.220995724, 34.564773814], [-6.221144338, 34.564097148], [-6.221362862, 34.56277981], [-6.221179376, 34.562117437], [-6.220978301, 34.560814393], [-6.220802929, 34.560282132]]}, "properties": {"seq": 57, "edge_id": 56, "length_m": 5610.801515272908}}, {"type": "Feature", "geometry": {"type": "LineString", "coordinates": [[-6.220802929, 34.560282132], [-6.220200249, 34.558452989], [-6.219290989, 34.556530764], [-6.21893261, 34.555551604], [-6.218032134, 34.554406844], [-6.216781971, 34.552650106], [-6.215112222, 34.550288391], [-6.214036848, 34.549136429], [-6.212314584, 34.547465882], [-6.210706007, 34.546608999], [-6.209009923, 34.545946606], [-6.207357632, 34.545759393], [-6.206334734, 34.545773779], [-6.204332741, 34.545788152], [-6.20214704, 34.54607611], [-6.201246546, 34.545939304], [-6.200643356, 34.545500016], [-6.200407269, 34.544837543], [-6.200354887, 34.543951882], [-6.200765808, 34.54281424], [-6.201334028, 34.541705297], [-6.20232205, 34.54038757], [-6.203327465, 34.539487424], [-6.205198382, 34.538306501], [-6.206876896, 34.537363167], [-6.208135901, 34.536887904], [-6.2092899, 34.536779825], [-6.210137897, 34.536815834], [-6.211545489, 34.537046342], [-6.213145374, 34.537557642], [-6.214850146, 34.538760309], [-6.21665981, 34.540402159], [-6.217429187, 34.541403023], [-6.21846074, 34.543728932], [-6.218578123, 34.544483994]]}, "properties": {"seq": 58, "edge_id": 57, "length_m": 5472.154014842943}}, {"type": "Feature", "geometry": {"type": "LineString", "coordinates": [[-6.218578123, 34.544483994], [-6.218644316, 34.544909781], [-6.219020168, 34.547350776], [-6.219116341, 34.548697216], [-6.219396113, 34.550094056], [-6.220375188, 34.551224518], [-6.221529272, 34.551908503], [-6.22390714, 34.553240574], [-6.226564908, 34.554507753], [-6.229379974, 34.555839729], [-6.231032354, 34.556602917], [-6.232125143, 34.557020512], [-6.233620133, 34.557315719], [-6.23475663, 34.557322934], [-6.235692133, 34.55699176], [-6.236461442, 34.556437396], [-6.237326953, 34.55571744], [-6.237947767, 34.554997481], [-6.238507288, 34.553795143], [-6.238848314, 34.55239111], [-6.238970738, 34.55112397], [-6.23876087, 34.54950394], [-6.238402502, 34.547955905], [-6.238061518, 34.547135037], [-6.237423339, 34.546098176], [-6.236278072, 34.54458603], [-6.234477212, 34.542814686], [-6.233672833, 34.541784922], [-6.233069658, 34.540661564], [-6.233060968, 34.540128688], [-6.233393177, 34.539588617], [-6.23403139, 34.53883976], [-6.235491407, 34.537737929], [-6.236802819, 34.536938683], [-6.237895624, 34.536485017], [-6.238979727, 34.536196945], [-6.240334827, 34.535995372], [-6.241882224, 34.535901696], [-6.242304971, 34.53584719]]}, "properties": {"seq": 59, "edge_id": 58, "length_m": 5515.841391485174}}, {"type": "Feature", "geometry": {"type": "LineString", "coordinates": [[-6.242304971, 34.53584719], [-6.244338924, 34.535584943], [-6.246017523, 34.535354476], [-6.247573725, 34.535001612], [-6.248850132, 34.534461554], [-6.250117842, 34.533799001], [-6.250904653, 34.533100443], [-6.251481667, 34.532279487], [-6.251752681, 34.531487328], [-6.252058713, 34.529830906], [-6.251866442, 34.528332871], [-6.251612967, 34.527094124], [-6.250738706, 34.525192798], [-6.249619647, 34.523305769], [-6.248797882, 34.521562738], [-6.248229712, 34.520100596], [-6.247687636, 34.518912143], [-6.24678718, 34.516787227], [-6.246052908, 34.515483476], [-6.245414729, 34.514453414], [-6.244251953, 34.513372948], [-6.242564686, 34.511924992], [-6.241637904, 34.511118216], [-6.240597631, 34.509907957], [-6.240580144, 34.509238086], [-6.240667552, 34.508813007], [-6.241069759, 34.508359234], [-6.241681762, 34.508078254], [-6.242512265, 34.507840576], [-6.24504766, 34.507703716], [-6.246140454, 34.507869422], [-6.247303241, 34.508337717], [-6.248815624, 34.509043705], [-6.252461267, 34.511456944], [-6.254979128, 34.513077704], [-6.25581328, 34.513761649]]}, "properties": {"seq": 60, "edge_id": 59, "length_m": 5516.6772199744955}}, {"type": "Feature", "geometry": {"type": "LineString", "coordinates": [[-6.25581328, 34.513761649], [-6.258572262, 34.516023818], [-6.263642863, 34.520345689], [-6.267548476, 34.524284562], [-6.269904814, 34.527154264], [-6.272312481, 34.528518734], [-6.27362727, 34.528912633], [-6.274668866, 34.528968944], [-6.275607966, 34.528800065], [-6.27774247, 34.528279717], [-6.279159679, 34.527618565], [-6.281003891, 34.52671833], [-6.282113804, 34.525888383], [-6.283087122, 34.524833444], [-6.283513943, 34.5237081], [-6.284278986, 34.521327318], [-6.28414791, 34.520084872], [-6.283863739, 34.518689332], [-6.281809301, 34.515754038], [-6.280301246, 34.513602115], [-6.278716701, 34.511071908], [-6.277634838, 34.509270976], [-6.276596776, 34.507425046], [-6.276476555, 34.506987076]]}, "properties": {"seq": 61, "edge_id": 60, "length_m": 5556.12549306353}}, {"type": "Feature", "geometry": {"type": "LineString", "coordinates": [[-6.276476555, 34.506987076], [-6.276181507, 34.505912209], [-6.276356328, 34.50484956], [-6.276782548, 34.50366092], [-6.277591265, 34.502706373], [-6.278170474, 34.502139007], [-6.278738776, 34.501931923], [-6.279438173, 34.502031028], [-6.279995459, 34.502661408], [-6.280815137, 34.50370597], [-6.282246711, 34.504840638], [-6.283929582, 34.506092404], [-6.28587476, 34.506893793], [-6.288246249, 34.507128014], [-6.290136845, 34.507064941], [-6.291710447, 34.506767875], [-6.292803341, 34.506857886], [-6.293655731, 34.507272179], [-6.294136522, 34.507632369], [-6.294333208, 34.508361738], [-6.294136493, 34.509163099], [-6.293426159, 34.511063104], [-6.290781388, 34.515060888], [-6.290606555, 34.516897702], [-6.290737628, 34.518212144], [-6.291480699, 34.519553693], [-6.292212881, 34.520400065], [-6.294103455, 34.521525539], [-6.295764539, 34.522110734], [-6.297283534, 34.522101755], [-6.298529434, 34.521966677], [-6.299687839, 34.521507514], [-6.301327048, 34.520814367], [-6.303261361, 34.519860036], [-6.304376083, 34.51855451], [-6.304747601, 34.517555159], [-6.30540031, 34.515619453]]}, "properties": {"seq": 62, "edge_id": 61, "length_m": 5492.710166402596}}, {"type": "Feature", "geometry": {"type": "LineString", "coordinates": [[-6.30540031, 34.515619453], [-6.305567346, 34.51512408], [-6.30540339, 34.512864081], [-6.305272343, 34.510099704], [-6.304922686, 34.508010695], [-6.304671339, 34.505309214], [-6.304704157, 34.504318659], [-6.304857186, 34.502805829], [-6.305283417, 34.501112812], [-6.305786129, 34.500464448], [-6.306321632, 34.500284263], [-6.30690083, 34.500203275], [-6.308343328, 34.5000772], [-6.310966117, 34.500275325], [-6.313239202, 34.500752733], [-6.314163994, 34.501017234], [-6.315665274, 34.501860415], [-6.316462953, 34.502823982], [-6.317402823, 34.504264829], [-6.317511997, 34.50558857], [-6.317697773, 34.506831217], [-6.31806932, 34.509478602], [-6.318397091, 34.51092834], [-6.319806857, 34.512477089], [-6.321456923, 34.514070838], [-6.323085296, 34.515160311], [-6.324156181, 34.515808596], [-6.325554966, 34.516375888], [-6.329205026, 34.517942566], [-6.332264889, 34.51940124], [-6.334275662, 34.520481618], [-6.334520499, 34.520717341]]}, "properties": {"seq": 63, "edge_id": 62, "length_m": 5576.437642311323}}, {"type": "Feature", "geometry": {"type": "LineString", "coordinates": [[-6.334520499, 34.520717341], [-6.335248242, 34.521417989], [-6.335543325, 34.522273353], [-6.335379308, 34.523083615], [-6.334756384, 34.524407046], [-6.333619858, 34.525937463], [-6.332811137, 34.527188895], [-6.330548983, 34.530303724], [-6.328865945, 34.532509202], [-6.328767621, 34.533742445], [-6.329106308, 34.53439962], [-6.329619996, 34.534903704], [-6.330852181, 34.535480594], [-6.331707275, 34.535731894], [-6.333291764, 34.536020002], [-6.335051256, 34.536173018], [-6.336690452, 34.53619104], [-6.341116448, 34.535741019], [-6.344536949, 34.535191989], [-6.345924846, 34.535156009], [-6.348788043, 34.534885959], [-6.352973536, 34.534651925], [-6.356885925, 34.534624978], [-6.359497721, 34.534499018], [-6.361093223, 34.534192953], [-6.361552227, 34.533850875], [-6.361650636, 34.533409796], [-6.361716153, 34.532527637], [-6.361727166, 34.531825469], [-6.361967599, 34.530124049], [-6.362172037, 34.528668508]]}, "properties": {"seq": 64, "edge_id": 63, "length_m": 5354.017427047376}}, {"type": "Feature", "geometry": {"type": "LineString", "coordinates": [[-6.362172037, 34.528668508], [-6.362459465, 34.526622113], [-6.362678043, 34.522588799], [-6.363246397, 34.519689737], [-6.363104351, 34.516871563], [-6.362481502, 34.514323471], [-6.362142752, 34.511802279], [-6.361519911, 34.508839906], [-6.361465363, 34.506165427], [-6.361443525, 34.502977671], [-6.361509167, 34.500735273], [-6.362623898, 34.498988267], [-6.364044617, 34.497871537], [-6.365935134, 34.496664816], [-6.368503349, 34.495521102], [-6.371388376, 34.493719922], [-6.3744702, 34.492017741], [-6.379857843, 34.488991548], [-6.383114567, 34.487352367], [-6.383703201, 34.487086992]]}, "properties": {"seq": 65, "edge_id": 64, "length_m": 5684.734703870652}}, {"type": "Feature", "geometry": {"type": "LineString", "coordinates": [[-6.383703201, 34.487086992], [-6.388228996, 34.485046639], [-6.3908243, 34.484547295], [-6.3916932, 34.484380115], [-6.395037293, 34.484317162], [-6.397386886, 34.484308194], [-6.399823875, 34.484497316], [-6.403025856, 34.485019835], [-6.405397243, 34.485353151], [-6.407134836, 34.485488269], [-6.409191627, 34.485670188], [-6.411173292, 34.485621158]]}, "properties": {"seq": 66, "edge_id": 65, "length_m": 2600.696927974731}}]}