{
"type": "FeatureCollection",
"name": "review_different_object",
"crs": { "type": "name", "properties": { "name": "urn:ogc:def:crs:OGC:1.3:CRS84" } },
"features": [
{ "type": "Feature", "properties": { "review_id": "59d48d54-3ed5-49a3-83b4-ed61ad6fe113", "run_id": "e60088e9-cf94-4e41-ae65-a5390866b4b8", "source_layer": "qualite.source_pollution_prelevement", "source_id": "03299489-8e2e-45f0-88dc-0182a20ab9b2", "source_name": "", "source_type": "PRELEVEMENT_QUALITE", "master_site_id_candidate": "56ad27c6-b56f-4fd3-813e-0c721be594cf", "master_site_name": "Guigou", "master_site_type": "infra.rejet_abattoir_inventaire_pollution", "distance_m": "0.00", "score": "0.770", "review_bucket": "DIFFERENT_OBJECT", "suggested_decision": "SAME_SITE_DIFFERENT_OBJECT", "business_decision": "SAME_SITE_DIFFERENT_OBJECT", "comments": "" }, "geometry": { "type": "Point", "coordinates": [ -4.8260936420598, 33.38047153817007 ] } },
{ "type": "Feature", "properties": { "review_id": "5e4423eb-50f9-4baf-ace9-887bdda9a870", "run_id": "e60088e9-cf94-4e41-ae65-a5390866b4b8", "source_layer": "qualite.source_pollution_prelevement", "source_id": "0a8ef114-de35-44c4-afa1-8251972f57ea", "source_name": "", "source_type": "PRELEVEMENT_QUALITE", "master_site_id_candidate": "22331a12-c927-4ef1-ad9a-c5e09d484c4a", "master_site_name": "Bab Marzouka", "master_site_type": "infra.rejet_abattoir_inventaire_pollution", "distance_m": "0.00", "score": "0.770", "review_bucket": "DIFFERENT_OBJECT", "suggested_decision": "SAME_SITE_DIFFERENT_OBJECT", "business_decision": "SAME_SITE_DIFFERENT_OBJECT", "comments": "" }, "geometry": { "type": "Point", "coordinates": [ -4.136068182351543, 34.209872463812459 ] } },
{ "type": "Feature", "properties": { "review_id": "edf55ed6-8dec-4a49-8e75-912690bc3dfa", "run_id": "e60088e9-cf94-4e41-ae65-a5390866b4b8", "source_layer": "qualite.source_pollution_prelevement", "source_id": "1084ee38-427d-4082-8643-41f32c70114d", "source_name": "", "source_type": "PRELEVEMENT_QUALITE", "master_site_id_candidate": "64163890-e1e2-4b04-9e8e-6f3ca3839454", "master_site_name": "MNZ_DOM_R10", "master_site_type": "infra.rejet_inventaire_pollution", "distance_m": "0.00", "score": "0.770", "review_bucket": "DIFFERENT_OBJECT", "suggested_decision": "SAME_SITE_DIFFERENT_OBJECT", "business_decision": "SAME_SITE_DIFFERENT_OBJECT", "comments": "" }, "geometry": { "type": "Point", "coordinates": [ -4.54882053320506, 33.835207728398856 ] } },
{ "type": "Feature", "properties": { "review_id": "e403af10-f76c-4ec5-ba45-ea66b9dee407", "run_id": "e60088e9-cf94-4e41-ae65-a5390866b4b8", "source_layer": "qualite.source_pollution_prelevement", "source_id": "10df2245-7f17-478b-9ef3-252d0a4b8f90", "source_name": "", "source_type": "PRELEVEMENT_QUALITE", "master_site_id_candidate": "04afe25e-61cb-4ff2-b200-40b23f91c313", "master_site_name": "LOD_DOM_R1", "master_site_type": "infra.rejet_inventaire_pollution", "distance_m": "0.00", "score": "0.770", "review_bucket": "DIFFERENT_OBJECT", "suggested_decision": "SAME_SITE_DIFFERENT_OBJECT", "business_decision": "SAME_SITE_DIFFERENT_OBJECT", "comments": "" }, "geometry": { "type": "Point", "coordinates": [ -4.938361099460448, 34.196870793620413 ] } },
{ "type": "Feature", "properties": { "review_id": "8aa338c1-3c65-40f3-a8a3-c440fc420fea", "run_id": "e60088e9-cf94-4e41-ae65-a5390866b4b8", "source_layer": "qualite.source_pollution_prelevement", "source_id": "17196d75-1407-4e5b-a0b8-b38f14e05d3e", "source_name": "", "source_type": "PRELEVEMENT_QUALITE", "master_site_id_candidate": "48d578f6-18d0-47d0-b221-162b39cf673b", "master_site_name": "THS_PDS_R1", "master_site_type": "infra.rejet_inventaire_pollution", "distance_m": "0.00", "score": "0.770", "review_bucket": "DIFFERENT_OBJECT", "suggested_decision": "SAME_SITE_DIFFERENT_OBJECT", "business_decision": "SAME_SITE_DIFFERENT_OBJECT", "comments": "" }, "geometry": { "type": "Point", "coordinates": [ -4.28445240652676, 34.655666367593824 ] } },
{ "type": "Feature", "properties": { "review_id": "f41143e2-d1cf-4f27-a5f3-3e36ee30fe91", "run_id": "e60088e9-cf94-4e41-ae65-a5390866b4b8", "source_layer": "qualite.source_pollution_prelevement", "source_id": "172eb839-799a-4899-bbe9-82b8432fb8a9", "source_name": "", "source_type": "PRELEVEMENT_QUALITE", "master_site_id_candidate": "feced0ab-c40b-410e-a622-3975ff17b8cb", "master_site_name": "AZA_DOM_R1", "master_site_type": "infra.rejet_inventaire_pollution", "distance_m": "0.00", "score": "0.770", "review_bucket": "DIFFERENT_OBJECT", "suggested_decision": "SAME_SITE_DIFFERENT_OBJECT", "business_decision": "SAME_SITE_DIFFERENT_OBJECT", "comments": "" }, "geometry": { "type": "Point", "coordinates": [ -4.70149402311066, 33.829912806731073 ] } },
{ "type": "Feature", "properties": { "review_id": "294bab9e-1303-47ec-8e7c-b9bf6c28d859", "run_id": "e60088e9-cf94-4e41-ae65-a5390866b4b8", "source_layer": "qualite.source_pollution_prelevement", "source_id": "19dcacad-6a38-4cfc-b1cb-7b798d4be1af", "source_name": "", "source_type": "PRELEVEMENT_QUALITE", "master_site_id_candidate": "573d8dcf-531e-4fae-8318-be3e6691bb28", "master_site_name": "CHQ_DOM_R1", "master_site_type": "infra.rejet_inventaire_pollution", "distance_m": "0.00", "score": "0.770", "review_bucket": "DIFFERENT_OBJECT", "suggested_decision": "SAME_SITE_DIFFERENT_OBJECT", "business_decision": "SAME_SITE_DIFFERENT_OBJECT", "comments": "" }, "geometry": { "type": "Point", "coordinates": [ -5.386215966673778, 34.125164860121373 ] } },
{ "type": "Feature", "properties": { "review_id": "0233ded8-d285-496b-8da4-87b975be230d", "run_id": "e60088e9-cf94-4e41-ae65-a5390866b4b8", "source_layer": "qualite.source_pollution_prelevement", "source_id": "1d05534e-2578-4f77-93c9-41819ba9b232", "source_name": "", "source_type": "PRELEVEMENT_QUALITE", "master_site_id_candidate": "28a74eb9-4da2-4ab3-990a-6a18f42a7203", "master_site_name": "OA_DOM_R3", "master_site_type": "infra.rejet_inventaire_pollution", "distance_m": "0.00", "score": "0.770", "review_bucket": "DIFFERENT_OBJECT", "suggested_decision": "SAME_SITE_DIFFERENT_OBJECT", "business_decision": "SAME_SITE_DIFFERENT_OBJECT", "comments": "" }, "geometry": { "type": "Point", "coordinates": [ -4.270769519299661, 34.184986194103743 ] } },
{ "type": "Feature", "properties": { "review_id": "521a2dd9-2c04-4b4a-b134-d79896424fc3", "run_id": "e60088e9-cf94-4e41-ae65-a5390866b4b8", "source_layer": "qualite.source_pollution_prelevement", "source_id": "24c89e3d-bccf-4239-96fe-b858f0d75a01", "source_name": "", "source_type": "PRELEVEMENT_QUALITE", "master_site_id_candidate": "d7f761d9-a9fe-4357-bdd8-108b326c7e26", "master_site_name": "Oued Amlil", "master_site_type": "infra.rejet_abattoir_inventaire_pollution", "distance_m": "0.00", "score": "0.770", "review_bucket": "DIFFERENT_OBJECT", "suggested_decision": "SAME_SITE_DIFFERENT_OBJECT", "business_decision": "SAME_SITE_DIFFERENT_OBJECT", "comments": "" }, "geometry": { "type": "Point", "coordinates": [ -4.271709232363124, 34.188655864509023 ] } },
{ "type": "Feature", "properties": { "review_id": "71b60600-cb1e-44a4-b933-8be217134a55", "run_id": "e60088e9-cf94-4e41-ae65-a5390866b4b8", "source_layer": "qualite.source_pollution_prelevement", "source_id": "2f985d34-17ac-414b-ba06-8ceb1d2ebb71", "source_name": "", "source_type": "PRELEVEMENT_QUALITE", "master_site_id_candidate": "df82349f-52e4-403a-ae69-e18630fea11a", "master_site_name": "MOG_DOM_R1", "master_site_type": "infra.rejet_inventaire_pollution", "distance_m": "0.00", "score": "0.770", "review_bucket": "DIFFERENT_OBJECT", "suggested_decision": "SAME_SITE_DIFFERENT_OBJECT", "business_decision": "SAME_SITE_DIFFERENT_OBJECT", "comments": "" }, "geometry": { "type": "Point", "coordinates": [ -6.431023021904641, 34.414076071400636 ] } }
]
}
