{
"type": "FeatureCollection",
"name": "review_very_close_2m",
"crs": { "type": "name", "properties": { "name": "urn:ogc:def:crs:OGC:1.3:CRS84" } },
"features": [
{ "type": "Feature", "properties": { "review_id": "04bc2b52-9fae-4a3d-90a6-24e235323ce3", "run_id": "e60088e9-cf94-4e41-ae65-a5390866b4b8", "source_layer": "infra.huilerie", "source_id": "208", "source_name": "Cooperative Almoumnia Essatia", "source_type": "HUILERIE", "master_site_id_candidate": "b065bd4d-cc7f-450d-8b10-a8947e19b6d2", "master_site_name": "Cooperative Almoumnia Essatia", "master_site_type": "infra.huilerie_inventaire_pollution", "distance_m": "0.04", "score": "0.740", "review_bucket": "VERY_CLOSE_2M", "suggested_decision": "NEED_REVIEW", "business_decision": "NEED_REVIEW", "comments": "" }, "geometry": { "type": "Point", "coordinates": [ -5.362583852470773, 34.563898485035878 ] } },
{ "type": "Feature", "properties": { "review_id": "7bb2c1ad-6dd2-4a99-a975-4cb952939f6c", "run_id": "e60088e9-cf94-4e41-ae65-a5390866b4b8", "source_layer": "infra.huilerie", "source_id": "227", "source_name": "Zoyout Chefchaouen", "source_type": "HUILERIE", "master_site_id_candidate": "fbfcfcbb-a262-4edf-aa1d-2faecddf1581", "master_site_name": "Zoyout Chefchaouen", "master_site_type": "infra.huilerie_inventaire_pollution", "distance_m": "0.06", "score": "0.740", "review_bucket": "VERY_CLOSE_2M", "suggested_decision": "NEED_REVIEW", "business_decision": "NEED_REVIEW", "comments": "" }, "geometry": { "type": "Point", "coordinates": [ -5.347979150242361, 34.927065846823488 ] } },
{ "type": "Feature", "properties": { "review_id": "b4335a1d-a5e3-40cb-908b-95a008256c8f", "run_id": "e60088e9-cf94-4e41-ae65-a5390866b4b8", "source_layer": "infra.huilerie", "source_id": "549", "source_name": "H,OUERYAGHLI ADNAN", "source_type": "HUILERIE", "master_site_id_candidate": "6ec91ed0-6f67-44c8-a99b-cdc4f9df2806", "master_site_name": "H,OUERYAGHLI ADNAN", "master_site_type": "infra.huilerie_inventaire_pollution", "distance_m": "0.06", "score": "0.740", "review_bucket": "VERY_CLOSE_2M", "suggested_decision": "NEED_REVIEW", "business_decision": "NEED_REVIEW", "comments": "" }, "geometry": { "type": "Point", "coordinates": [ -5.521994592160855, 34.056878928258264 ] } },
{ "type": "Feature", "properties": { "review_id": "acd8f58f-3aae-4814-9bad-b641694a6fb4", "run_id": "e60088e9-cf94-4e41-ae65-a5390866b4b8", "source_layer": "infra.huilerie", "source_id": "201", "source_name": "Ste Huillerie Dalila", "source_type": "HUILERIE", "master_site_id_candidate": "163544a2-145a-46bd-b391-e7a181fda013", "master_site_name": "Ste Huillerie Dalila", "master_site_type": "infra.huilerie_inventaire_pollution", "distance_m": "0.08", "score": "0.740", "review_bucket": "VERY_CLOSE_2M", "suggested_decision": "NEED_REVIEW", "business_decision": "NEED_REVIEW", "comments": "" }, "geometry": { "type": "Point", "coordinates": [ -5.199948659824293, 34.747978721741184 ] } },
{ "type": "Feature", "properties": { "review_id": "4099fb59-8327-40ec-b28d-dfdc8d1efd69", "run_id": "e60088e9-cf94-4e41-ae65-a5390866b4b8", "source_layer": "infra.huilerie", "source_id": "31", "source_name": "Société Ouled Anajate", "source_type": "HUILERIE", "master_site_id_candidate": "8b72a167-17e9-4b5c-978d-2b7f21d6decf", "master_site_name": "Société Ouled Anajate", "master_site_type": "infra.huilerie_inventaire_pollution", "distance_m": "0.08", "score": "0.740", "review_bucket": "VERY_CLOSE_2M", "suggested_decision": "NEED_REVIEW", "business_decision": "NEED_REVIEW", "comments": "" }, "geometry": { "type": "Point", "coordinates": [ -5.229862791377295, 33.984860018185259 ] } },
{ "type": "Feature", "properties": { "review_id": "770bbf34-d936-4c2f-b8c9-94e6e5b59564", "run_id": "e60088e9-cf94-4e41-ae65-a5390866b4b8", "source_layer": "infra.decharge", "source_id": "13", "source_name": "décharge guigou", "source_type": "DECHARGE", "master_site_id_candidate": "d2329708-0407-4b9c-9857-5e49e1880334", "master_site_name": "Décharge Guigou", "master_site_type": "infra.decharge_inventaire_pollution_general", "distance_m": "0.11", "score": "0.740", "review_bucket": "VERY_CLOSE_2M", "suggested_decision": "NEED_REVIEW", "business_decision": "NEED_REVIEW", "comments": "" }, "geometry": { "type": "Point", "coordinates": [ -4.811293888003674, 33.379996580410271 ] } },
{ "type": "Feature", "properties": { "review_id": "e473b7af-5450-4f7d-aa40-fc5e650fa33f", "run_id": "e60088e9-cf94-4e41-ae65-a5390866b4b8", "source_layer": "infra.huilerie", "source_id": "513", "source_name": "H,YOUSSEF MKDAD", "source_type": "HUILERIE", "master_site_id_candidate": "5c292b4b-1a7f-4eef-b58f-de87a83a43d4", "master_site_name": "H,YOUSSEF MKDAD", "master_site_type": "infra.huilerie_inventaire_pollution", "distance_m": "0.12", "score": "0.740", "review_bucket": "VERY_CLOSE_2M", "suggested_decision": "NEED_REVIEW", "business_decision": "NEED_REVIEW", "comments": "" }, "geometry": { "type": "Point", "coordinates": [ -5.248861363492799, 33.978824274802932 ] } },
{ "type": "Feature", "properties": { "review_id": "f8417848-d914-4f02-b92b-1cca062cb1e0", "run_id": "e60088e9-cf94-4e41-ae65-a5390866b4b8", "source_layer": "infra.huilerie", "source_id": "207", "source_name": "Huilerie Modèrene Ouannana", "source_type": "HUILERIE", "master_site_id_candidate": "86cb4918-ce01-4dc4-a0a9-09a88d676d02", "master_site_name": "Huilerie Modèrene Ouannana", "master_site_type": "infra.huilerie_inventaire_pollution", "distance_m": "0.14", "score": "0.740", "review_bucket": "VERY_CLOSE_2M", "suggested_decision": "NEED_REVIEW", "business_decision": "NEED_REVIEW", "comments": "" }, "geometry": { "type": "Point", "coordinates": [ -5.35926279070743, 34.650057425718693 ] } },
{ "type": "Feature", "properties": { "review_id": "1d94de6b-10b3-45c9-923c-96b81808f26c", "run_id": "e60088e9-cf94-4e41-ae65-a5390866b4b8", "source_layer": "infra.huilerie", "source_id": "539", "source_name": "OLEA SAISS", "source_type": "HUILERIE", "master_site_id_candidate": "96a8eb10-c5a6-45ba-abb9-fb5ecb2d30c8", "master_site_name": "OLEA SAISS", "master_site_type": "infra.huilerie_inventaire_pollution", "distance_m": "0.14", "score": "0.740", "review_bucket": "VERY_CLOSE_2M", "suggested_decision": "NEED_REVIEW", "business_decision": "NEED_REVIEW", "comments": "" }, "geometry": { "type": "Point", "coordinates": [ -5.563477747709872, 33.980765764337441 ] } },
{ "type": "Feature", "properties": { "review_id": "de917302-ac85-4700-8666-3190a1f29dd4", "run_id": "e60088e9-cf94-4e41-ae65-a5390866b4b8", "source_layer": "infra.huilerie", "source_id": "206", "source_name": "Lhaj Abdessalam", "source_type": "HUILERIE", "master_site_id_candidate": "6ffab696-7e78-43a4-9927-a28e29cae370", "master_site_name": "Lhaj Abdessalam", "master_site_type": "infra.huilerie_inventaire_pollution", "distance_m": "0.16", "score": "0.740", "review_bucket": "VERY_CLOSE_2M", "suggested_decision": "NEED_REVIEW", "business_decision": "NEED_REVIEW", "comments": "" }, "geometry": { "type": "Point", "coordinates": [ -5.353476809694991, 34.920307765216499 ] } },
{ "type": "Feature", "properties": { "review_id": "e258ee17-ae4f-4544-81a7-87619006567d", "run_id": "e60088e9-cf94-4e41-ae65-a5390866b4b8", "source_layer": "infra.huilerie", "source_id": "118", "source_name": "H.MOULAY DRISS EL AZHAR", "source_type": "HUILERIE", "master_site_id_candidate": "a8f1aa7d-ab3f-4481-b88d-eecf17acb649", "master_site_name": "H.MOULAY DRISS EL AZHAR", "master_site_type": "infra.huilerie_inventaire_pollution", "distance_m": "0.17", "score": "0.740", "review_bucket": "VERY_CLOSE_2M", "suggested_decision": "NEED_REVIEW", "business_decision": "NEED_REVIEW", "comments": "" }, "geometry": { "type": "Point", "coordinates": [ -5.072508992235914, 34.118002073099973 ] } },
{ "type": "Feature", "properties": { "review_id": "51018de5-685f-44bd-9fce-1049cdc3c103", "run_id": "e60088e9-cf94-4e41-ae65-a5390866b4b8", "source_layer": "infra.huilerie", "source_id": "212", "source_name": "El Ibrahimi", "source_type": "HUILERIE", "master_site_id_candidate": "7807374e-ce08-4659-9f48-f8df7e7af196", "master_site_name": "El Ibrahimi", "master_site_type": "infra.huilerie_inventaire_pollution", "distance_m": "0.17", "score": "0.740", "review_bucket": "VERY_CLOSE_2M", "suggested_decision": "NEED_REVIEW", "business_decision": "NEED_REVIEW", "comments": "" }, "geometry": { "type": "Point", "coordinates": [ -5.447640529615173, 34.676090630976049 ] } },
{ "type": "Feature", "properties": { "review_id": "e62923a7-3d18-4ce0-94d1-c5ac4cf4a76c", "run_id": "e60088e9-cf94-4e41-ae65-a5390866b4b8", "source_layer": "infra.huilerie", "source_id": "437", "source_name": "H.HAJ MOHAMED", "source_type": "HUILERIE", "master_site_id_candidate": "dff1e7ea-b1da-467c-ad9a-bc1b29523b37", "master_site_name": "H.HAJ MOHAMED", "master_site_type": "infra.huilerie_inventaire_pollution", "distance_m": "0.17", "score": "0.740", "review_bucket": "VERY_CLOSE_2M", "suggested_decision": "NEED_REVIEW", "business_decision": "NEED_REVIEW", "comments": "" }, "geometry": { "type": "Point", "coordinates": [ -4.384634534150669, 33.800909887360213 ] } },
{ "type": "Feature", "properties": { "review_id": "e43316d5-312f-4f92-a3dc-b760095e24d8", "run_id": "e60088e9-cf94-4e41-ae65-a5390866b4b8", "source_layer": "infra.huilerie", "source_id": "540", "source_name": "SOCIETE L'OLEASTRE", "source_type": "HUILERIE", "master_site_id_candidate": "43528815-00c1-48e7-934f-f290ae228672", "master_site_name": "SOCIETE L'OLEASTRE", "master_site_type": "infra.huilerie_inventaire_pollution", "distance_m": "0.18", "score": "0.740", "review_bucket": "VERY_CLOSE_2M", "suggested_decision": "NEED_REVIEW", "business_decision": "NEED_REVIEW", "comments": "" }, "geometry": { "type": "Point", "coordinates": [ -5.561143472860132, 33.994575349154459 ] } },
{ "type": "Feature", "properties": { "review_id": "95c04cf2-6007-4ec3-934b-d85c6e61c2c5", "run_id": "e60088e9-cf94-4e41-ae65-a5390866b4b8", "source_layer": "infra.huilerie", "source_id": "601", "source_name": "Lkhaydar Ahmed", "source_type": "HUILERIE", "master_site_id_candidate": "977726c6-86a4-42c8-8aea-07c6b2b46225", "master_site_name": "Lkhaydar Ahmed", "master_site_type": "infra.huilerie_inventaire_pollution", "distance_m": "0.18", "score": "0.740", "review_bucket": "VERY_CLOSE_2M", "suggested_decision": "NEED_REVIEW", "business_decision": "NEED_REVIEW", "comments": "" }, "geometry": { "type": "Point", "coordinates": [ -5.368688375013158, 33.929339059645265 ] } },
{ "type": "Feature", "properties": { "review_id": "010e12e3-2be8-4fce-a840-bdebd2ab18f0", "run_id": "e60088e9-cf94-4e41-ae65-a5390866b4b8", "source_layer": "infra.huilerie", "source_id": "221", "source_name": "Belhaj", "source_type": "HUILERIE", "master_site_id_candidate": "47d278c7-a72f-404e-922d-a8e653222cc9", "master_site_name": "Belhaj", "master_site_type": "infra.huilerie_inventaire_pollution", "distance_m": "0.19", "score": "0.740", "review_bucket": "VERY_CLOSE_2M", "suggested_decision": "NEED_REVIEW", "business_decision": "NEED_REVIEW", "comments": "" }, "geometry": { "type": "Point", "coordinates": [ -5.538340699452431, 34.742039677056169 ] } },
{ "type": "Feature", "properties": { "review_id": "41bf78b4-65f4-4335-b094-b57964ea51f3", "run_id": "e60088e9-cf94-4e41-ae65-a5390866b4b8", "source_layer": "infra.huilerie", "source_id": "460", "source_name": "H. SFAR", "source_type": "HUILERIE", "master_site_id_candidate": "51fe363c-cf35-4d8a-92f5-7e185bc84e44", "master_site_name": "H. SFAR", "master_site_type": "infra.huilerie_inventaire_pollution", "distance_m": "0.20", "score": "0.740", "review_bucket": "VERY_CLOSE_2M", "suggested_decision": "NEED_REVIEW", "business_decision": "NEED_REVIEW", "comments": "" }, "geometry": { "type": "Point", "coordinates": [ -4.794512161382946, 33.819665629921687 ] } },
{ "type": "Feature", "properties": { "review_id": "4b620565-afe8-4ea4-b900-0326c4357f16", "run_id": "e60088e9-cf94-4e41-ae65-a5390866b4b8", "source_layer": "infra.huilerie", "source_id": "447", "source_name": "H.MAMOUNIA", "source_type": "HUILERIE", "master_site_id_candidate": "fa9bbc64-700b-49b3-a59b-3de99c534bfc", "master_site_name": "H.MAMOUNIA", "master_site_type": "infra.huilerie_inventaire_pollution", "distance_m": "0.21", "score": "0.740", "review_bucket": "VERY_CLOSE_2M", "suggested_decision": "NEED_REVIEW", "business_decision": "NEED_REVIEW", "comments": "" }, "geometry": { "type": "Point", "coordinates": [ -5.041227831918573, 33.877009585105434 ] } },
{ "type": "Feature", "properties": { "review_id": "77c14b27-8047-48bc-b5b3-73c8eee98745", "run_id": "e60088e9-cf94-4e41-ae65-a5390866b4b8", "source_layer": "infra.huilerie", "source_id": "219", "source_name": "Zoumi", "source_type": "HUILERIE", "master_site_id_candidate": "e7668cf1-2a4f-4ead-adc1-9c1cf1ac1fdd", "master_site_name": "Zoumi", "master_site_type": "infra.huilerie_inventaire_pollution", "distance_m": "0.22", "score": "0.740", "review_bucket": "VERY_CLOSE_2M", "suggested_decision": "NEED_REVIEW", "business_decision": "NEED_REVIEW", "comments": "" }, "geometry": { "type": "Point", "coordinates": [ -5.421970550360339, 34.745737293083508 ] } },
{ "type": "Feature", "properties": { "review_id": "f7bdccee-5bc9-410c-80a3-da342f9d3c35", "run_id": "e60088e9-cf94-4e41-ae65-a5390866b4b8", "source_layer": "infra.huilerie", "source_id": "573", "source_name": "Ste SONEPRA", "source_type": "HUILERIE", "master_site_id_candidate": "3bbef397-dc02-4f96-b746-d176a93542f9", "master_site_name": "Ste SONEPRA", "master_site_type": "infra.huilerie_inventaire_pollution", "distance_m": "0.22", "score": "0.740", "review_bucket": "VERY_CLOSE_2M", "suggested_decision": "NEED_REVIEW", "business_decision": "NEED_REVIEW", "comments": "" }, "geometry": { "type": "Point", "coordinates": [ -5.423233136965116, 34.121114614412193 ] } }
]
}
