{
"type": "FeatureCollection",
"name": "review_exact_0m",
"crs": { "type": "name", "properties": { "name": "urn:ogc:def:crs:OGC:1.3:CRS84" } },
"features": [
{ "type": "Feature", "properties": { "review_id": "a3686322-1d44-4280-be6a-ba49a7f0a030", "run_id": "e60088e9-cf94-4e41-ae65-a5390866b4b8", "source_layer": "infra.stm", "source_id": "1280dd41-3fda-4983-b9e5-9cfdd3839a9a", "source_name": "station n°1 Séfrou", "source_type": "STM", "master_site_id_candidate": "8e5d950e-0835-4c6b-bff6-7d164f0f823f", "master_site_name": "station n°1 Séfrou", "master_site_type": "infra.stm", "distance_m": "0.00", "score": "0.940", "review_bucket": "EXACT_0M", "suggested_decision": "ACCEPT_MATCH", "business_decision": "ACCEPT_MATCH", "comments": "" }, "geometry": { "type": "Point", "coordinates": [ -4.820199514232752, 33.871103094882464 ] } },
{ "type": "Feature", "properties": { "review_id": "8d3adb75-99f7-44b0-8e80-29e341da64d3", "run_id": "e60088e9-cf94-4e41-ae65-a5390866b4b8", "source_layer": "infra.stm", "source_id": "250a285f-4cbe-410b-b068-082805f3c6f0", "source_name": "Taounate", "source_type": "STM", "master_site_id_candidate": "de73efa5-59a7-456f-be3d-b2ba8211ae60", "master_site_name": "Taounate", "master_site_type": "infra.stm", "distance_m": "0.00", "score": "0.940", "review_bucket": "EXACT_0M", "suggested_decision": "ACCEPT_MATCH", "business_decision": "ACCEPT_MATCH", "comments": "" }, "geometry": { "type": "Point", "coordinates": [ -4.618548092292937, 34.540972090874078 ] } },
{ "type": "Feature", "properties": { "review_id": "6cb3015b-2178-475e-ba37-eb551a595e75", "run_id": "e60088e9-cf94-4e41-ae65-a5390866b4b8", "source_layer": "infra.stm", "source_id": "2934cc9a-2398-4e6e-8b5a-18f77788bb34", "source_name": "MRhassiyine", "source_type": "STM", "master_site_id_candidate": "e361f6a3-b9d2-499b-9072-cdeabef2ae46", "master_site_name": "MRhassiyine", "master_site_type": "infra.stm", "distance_m": "0.00", "score": "0.940", "review_bucket": "EXACT_0M", "suggested_decision": "ACCEPT_MATCH", "business_decision": "ACCEPT_MATCH", "comments": "" }, "geometry": { "type": "Point", "coordinates": [ -5.568403441570462, 34.008859262633294 ] } },
{ "type": "Feature", "properties": { "review_id": "18c967ff-ece4-4c46-9e16-779ff4b96393", "run_id": "e60088e9-cf94-4e41-ae65-a5390866b4b8", "source_layer": "infra.stm", "source_id": "394685c0-7d72-4eae-8be4-e72c216c5448", "source_name": "M'Haya", "source_type": "STM", "master_site_id_candidate": "fe47d920-efda-4458-bacd-95845ac46a44", "master_site_name": "M'Haya", "master_site_type": "infra.stm", "distance_m": "0.00", "score": "0.940", "review_bucket": "EXACT_0M", "suggested_decision": "ACCEPT_MATCH", "business_decision": "ACCEPT_MATCH", "comments": "" }, "geometry": { "type": "Point", "coordinates": [ -5.284188098971756, 34.007331679135596 ] } },
{ "type": "Feature", "properties": { "review_id": "a1f07344-2eba-462e-83d3-81f1c58edef0", "run_id": "e60088e9-cf94-4e41-ae65-a5390866b4b8", "source_layer": "infra.stm", "source_id": "40f25ebf-c967-4607-99f4-e2137f24b007", "source_name": "station n°2 Séfrou", "source_type": "STM", "master_site_id_candidate": "6b1a17e1-c158-4b8d-801f-2a2e61463aac", "master_site_name": "station n°2 Séfrou", "master_site_type": "infra.stm", "distance_m": "0.00", "score": "0.940", "review_bucket": "EXACT_0M", "suggested_decision": "ACCEPT_MATCH", "business_decision": "ACCEPT_MATCH", "comments": "" }, "geometry": { "type": "Point", "coordinates": [ -4.822149192584902, 33.870561987178071 ] } },
{ "type": "Feature", "properties": { "review_id": "b6f5dc58-90c4-4210-9fad-363b19a99d38", "run_id": "e60088e9-cf94-4e41-ae65-a5390866b4b8", "source_layer": "infra.stm", "source_id": "4170203c-7657-41e9-be9d-bf14fb151040", "source_name": "Jahjouh", "source_type": "STM", "master_site_id_candidate": "4578fcd2-a2f3-4cb0-b8f3-1b48aa6ad633", "master_site_name": "Jahjouh", "master_site_type": "infra.stm", "distance_m": "0.00", "score": "0.940", "review_bucket": "EXACT_0M", "suggested_decision": "ACCEPT_MATCH", "business_decision": "ACCEPT_MATCH", "comments": "" }, "geometry": { "type": "Point", "coordinates": [ -5.646406120943277, 33.639873034805653 ] } },
{ "type": "Feature", "properties": { "review_id": "af21abb8-077a-4581-8a53-f994d4684a0e", "run_id": "e60088e9-cf94-4e41-ae65-a5390866b4b8", "source_layer": "infra.stm", "source_id": "46b31077-129e-450e-8b20-28df8335d53a", "source_name": "Karia Ba Mohamed", "source_type": "STM", "master_site_id_candidate": "be702556-05f1-489f-b0d3-3b05c9427926", "master_site_name": "Karia Ba Mohamed", "master_site_type": "infra.stm", "distance_m": "0.00", "score": "0.940", "review_bucket": "EXACT_0M", "suggested_decision": "ACCEPT_MATCH", "business_decision": "ACCEPT_MATCH", "comments": "" }, "geometry": { "type": "Point", "coordinates": [ -5.142641691800063, 34.368497191508666 ] } },
{ "type": "Feature", "properties": { "review_id": "3ff762ae-9f0b-43dd-a5d2-11cd858e0c08", "run_id": "e60088e9-cf94-4e41-ae65-a5390866b4b8", "source_layer": "infra.stm", "source_id": "51e37c7f-9079-4e39-bd2b-3aebbe3df661", "source_name": "Bni Ahmed Gharbia", "source_type": "STM", "master_site_id_candidate": "98590e1f-2a4d-461f-bd53-8dd74bf9004b", "master_site_name": "Bni Ahmed Gharbia", "master_site_type": "infra.stm", "distance_m": "0.00", "score": "0.940", "review_bucket": "EXACT_0M", "suggested_decision": "ACCEPT_MATCH", "business_decision": "ACCEPT_MATCH", "comments": "" }, "geometry": { "type": "Point", "coordinates": [ -5.086800904011533, 34.835369286178214 ] } },
{ "type": "Feature", "properties": { "review_id": "6193eafe-7905-4c82-8a8e-91a254c5db41", "run_id": "e60088e9-cf94-4e41-ae65-a5390866b4b8", "source_layer": "infra.stm", "source_id": "5d7190d6-85be-4560-a6e4-acf7a722cbfc", "source_name": "Ain Beida", "source_type": "STM", "master_site_id_candidate": "48760d6b-7ba1-459f-820b-2b5f1c3e753f", "master_site_name": "Ain Beida", "master_site_type": "infra.stm", "distance_m": "0.00", "score": "0.940", "review_bucket": "EXACT_0M", "suggested_decision": "ACCEPT_MATCH", "business_decision": "ACCEPT_MATCH", "comments": "" }, "geometry": { "type": "Point", "coordinates": [ -4.948381661586947, 34.021072216708355 ] } },
{ "type": "Feature", "properties": { "review_id": "b421f83c-26cd-4cee-96ac-f012ccd4c686", "run_id": "e60088e9-cf94-4e41-ae65-a5390866b4b8", "source_layer": "infra.stm", "source_id": "90b831b9-dfb4-4253-a585-c4d06ff2d9ac", "source_name": "Skoura M'Daz", "source_type": "STM", "master_site_id_candidate": "00d6c154-052f-4077-a143-88ef6aaac632", "master_site_name": "Skoura M'Daz", "master_site_type": "infra.stm", "distance_m": "0.00", "score": "0.940", "review_bucket": "EXACT_0M", "suggested_decision": "ACCEPT_MATCH", "business_decision": "ACCEPT_MATCH", "comments": "" }, "geometry": { "type": "Point", "coordinates": [ -4.539992511528119, 33.572393089745709 ] } }
]
}
