{
"type": "FeatureCollection",
"name": "review_orphans",
"crs": { "type": "name", "properties": { "name": "urn:ogc:def:crs:OGC:1.3:CRS84" } },
"features": [
{ "type": "Feature", "properties": { "review_id": "985a534d-4dc8-4509-83a0-b12f6457268c", "run_id": "e60088e9-cf94-4e41-ae65-a5390866b4b8", "source_layer": "infra.decharge", "source_id": "1", "source_name": "abdelghaya souahel", "source_type": "DECHARGE", "master_site_id_candidate": "", "master_site_name": "", "master_site_type": "", "distance_m": "", "score": "", "review_bucket": "ORPHAN", "suggested_decision": "WAIT_SOURCE_FIX", "business_decision": "WAIT_SOURCE_FIX", "comments": "" }, "geometry": { "type": "Point", "coordinates": [ -4.656416548529148, 34.738864398193527 ] } },
{ "type": "Feature", "properties": { "review_id": "48896de1-57f4-4708-af44-3e12f9130083", "run_id": "e60088e9-cf94-4e41-ae65-a5390866b4b8", "source_layer": "infra.decharge", "source_id": "213", "source_name": " abdellah aghazi", "source_type": "DECHARGE", "master_site_id_candidate": "", "master_site_name": "", "master_site_type": "", "distance_m": "", "score": "", "review_bucket": "ORPHAN", "suggested_decision": "WAIT_SOURCE_FIX", "business_decision": "WAIT_SOURCE_FIX", "comments": "" }, "geometry": { "type": "Point", "coordinates": [ -4.379168804006158, 34.406503112243215 ] } },
{ "type": "Feature", "properties": { "review_id": "5248aa8a-e784-4d09-9eb9-33dcd68dfdf8", "run_id": "e60088e9-cf94-4e41-ae65-a5390866b4b8", "source_layer": "infra.decharge", "source_id": "220", "source_name": "lakriaat", "source_type": "DECHARGE", "master_site_id_candidate": "", "master_site_name": "", "master_site_type": "", "distance_m": "", "score": "", "review_bucket": "ORPHAN", "suggested_decision": "WAIT_SOURCE_FIX", "business_decision": "WAIT_SOURCE_FIX", "comments": "" }, "geometry": { "type": "Point", "coordinates": [ -6.33939952331558, 33.866638266241061 ] } },
{ "type": "Feature", "properties": { "review_id": "26f5a3b0-b519-4fb5-a64f-cdd205e13964", "run_id": "e60088e9-cf94-4e41-ae65-a5390866b4b8", "source_layer": "infra.decharge", "source_id": "5", "source_name": "bni bouchibet", "source_type": "DECHARGE", "master_site_id_candidate": "", "master_site_name": "", "master_site_type": "", "distance_m": "", "score": "", "review_bucket": "ORPHAN", "suggested_decision": "WAIT_SOURCE_FIX", "business_decision": "WAIT_SOURCE_FIX", "comments": "" }, "geometry": { "type": "Point", "coordinates": [ -4.557113678443428, 34.702207989477834 ] } },
{ "type": "Feature", "properties": { "review_id": "3de86d50-495e-4684-b76b-68d2db684702", "run_id": "e60088e9-cf94-4e41-ae65-a5390866b4b8", "source_layer": "infra.decharge", "source_id": "62", "source_name": "souk el arbaa", "source_type": "DECHARGE", "master_site_id_candidate": "", "master_site_name": "", "master_site_type": "", "distance_m": "", "score": "", "review_bucket": "ORPHAN", "suggested_decision": "WAIT_SOURCE_FIX", "business_decision": "WAIT_SOURCE_FIX", "comments": "" }, "geometry": { "type": "Point", "coordinates": [ -5.966299638457361, 34.666590619556217 ] } },
{ "type": "Feature", "properties": { "review_id": "ce6f5de2-4a0a-445d-81f2-0a6baab00aa3", "run_id": "e60088e9-cf94-4e41-ae65-a5390866b4b8", "source_layer": "infra.decharge_inventaire_pollution_general", "source_id": "63b2199f-73e3-4674-a0bb-1b98da2ec4f1", "source_name": "Abdellah aghazi", "source_type": "DECHARGE", "master_site_id_candidate": "", "master_site_name": "", "master_site_type": "", "distance_m": "", "score": "", "review_bucket": "ORPHAN", "suggested_decision": "WAIT_SOURCE_FIX", "business_decision": "WAIT_SOURCE_FIX", "comments": "" }, "geometry": { "type": "Point", "coordinates": [ -4.379168804006158, 34.406503112243215 ] } },
{ "type": "Feature", "properties": { "review_id": "76afba5f-a0ba-4402-b4e6-d3fb2019cb11", "run_id": "e60088e9-cf94-4e41-ae65-a5390866b4b8", "source_layer": "infra.decharge_inventaire_pollution_general", "source_id": "dd44f8f2-ffc0-49c7-bac3-a36217215403", "source_name": "Bni bouchibet", "source_type": "DECHARGE", "master_site_id_candidate": "", "master_site_name": "", "master_site_type": "", "distance_m": "", "score": "", "review_bucket": "ORPHAN", "suggested_decision": "WAIT_SOURCE_FIX", "business_decision": "WAIT_SOURCE_FIX", "comments": "" }, "geometry": { "type": "Point", "coordinates": [ -4.557113678443428, 34.702207989477834 ] } },
{ "type": "Feature", "properties": { "review_id": "a027bc84-f068-4f68-b0c3-2b599f296f84", "run_id": "e60088e9-cf94-4e41-ae65-a5390866b4b8", "source_layer": "infra.decharge_inventaire_pollution_general", "source_id": "fbb5a30a-7c18-4d6c-97e0-ada925082995", "source_name": "Abdelghaya souahel", "source_type": "DECHARGE", "master_site_id_candidate": "", "master_site_name": "", "master_site_type": "", "distance_m": "", "score": "", "review_bucket": "ORPHAN", "suggested_decision": "WAIT_SOURCE_FIX", "business_decision": "WAIT_SOURCE_FIX", "comments": "" }, "geometry": { "type": "Point", "coordinates": [ -4.656416548529148, 34.738864398193527 ] } },
{ "type": "Feature", "properties": { "review_id": "aab5aaac-dcf8-49c4-99a3-6635d5c4db9a", "run_id": "e60088e9-cf94-4e41-ae65-a5390866b4b8", "source_layer": "infra.fosses_septiques_abhs", "source_id": "7", "source_name": "", "source_type": "FOSSE_SEPTIQUE", "master_site_id_candidate": "", "master_site_name": "", "master_site_type": "", "distance_m": "", "score": "", "review_bucket": "ORPHAN", "suggested_decision": "WAIT_SOURCE_FIX", "business_decision": "WAIT_SOURCE_FIX", "comments": "" }, "geometry": { "type": "Point", "coordinates": [ -5.032381720087598, 33.946532970226826 ] } },
{ "type": "Feature", "properties": { "review_id": "a6754450-ce31-4bdf-9a03-70ef4391446e", "run_id": "e60088e9-cf94-4e41-ae65-a5390866b4b8", "source_layer": "infra.huilerie", "source_id": "114", "source_name": "H.SOUK SABT", "source_type": "HUILERIE", "master_site_id_candidate": "", "master_site_name": "", "master_site_type": "", "distance_m": "", "score": "", "review_bucket": "ORPHAN", "suggested_decision": "WAIT_SOURCE_FIX", "business_decision": "WAIT_SOURCE_FIX", "comments": "" }, "geometry": { "type": "Point", "coordinates": [ -5.228290607675241, 34.051869869309755 ] } }
]
}
